name,address,city,district
101台北貓醫院,臺北市中山區建國北路3段101號,臺北市,中山區
一心獸醫院,臺中市北區錦華街56號,臺中市,北區
一嘉動物醫院,高雄市苓雅區興中一路383號,高雄市,苓雅區
乙泰動物醫院,臺中市太平區旱溪東路一段600號,臺中市,太平區
九個果子動物醫院,臺南市安南區國安街229號,臺南市,安南區
二人三毛動物醫院,臺南市安南區海佃路一段213巷26號,臺南市,安南區
人人動物醫院,臺中市西區公正路146號,臺中市,西區
人人動物醫院,高雄市大寮區鳳林三路827號,高雄市,大寮區
人人動物醫院,桃園市龍潭區北龍路122號,桃園市,龍潭區
人人動物醫院八德介壽院,桃園市八德區介壽路二段296號,桃園市,八德區
人人動物醫院大園分院,桃園市大園區華興路21號1樓,桃園市,大園區
人人動物醫院平鎮分院,桃園市平鎮區金陵路二段298號,桃園市,平鎮區
人人動物醫院埔心分院,桃園市楊梅區永美路274號,桃園市,楊梅區
人愛動物醫院,臺中市太平區中山路四段223號,臺中市,太平區
人愛動物醫院,高雄市新興區六合一路28、30號,高雄市,新興區
力晨動物醫院,臺南市東區裕忠路27號,臺南市,東區
十銓動物醫院,高雄市楠梓區右昌街787號,高雄市,楠梓區
三三動物診所,臺中市梧棲區大庄里民和路一段46號,臺中市,梧棲區
三多花花動物醫院,高雄市前鎮區三多二路477號,高雄市,前鎮區
三和台大動物醫院,高雄市苓雅區光華一路23號,高雄市,苓雅區
三峽奇緣動物醫院,新北市三峽區中園街126之23號1樓及126之22號1樓,新北市,三峽區
三逢家畜醫院,台南市白河區蓮潭里北埔五十號,台南市,白河區
上和動物醫院,新北市永和區福和路75號,新北市,永和區
上弦動物醫院,新北市林口區忠福路129號,新北市,林口區
上品動物醫院,新北市中和區中山路2段167號,新北市,中和區
上哲動物醫院,新北市淡水區中正東路1段3巷2號,新北市,淡水區
上博動物醫院,台南市新化區建國街7號,台南市,新化區
上揚動物醫院,高雄市苓雅區林森二路7之2號,高雄市,苓雅區
上群動物醫院,臺南市東區東寧路318號,臺南市,東區
上群動物醫院,臺北市大安區延吉街72之20號,臺北市,大安區
上群動物醫院,臺中市北區健行路76號,臺中市,北區
凡賽爾動物醫院,高雄市鳳山區五甲二路399號,高雄市,鳳山區
凡賽爾賽鴿動物醫院,臺中市西屯區重慶路8號,臺中市,西屯區
凡賽爾賽鴿寵物鳥醫院,臺北市大同區民族西路53號1樓,臺北市,大同區
士林獸醫院,臺北市士林區中正路379號1樓,臺北市,士林區
大毛小毛動物醫院,高雄市三民區文濱路62號,高雄市,三民區
大台北動物醫院,桃園市桃園區永安路854號,桃園市,桃園區
大生動物醫院,臺中市大里區新興路137號,臺中市,大里區
大禾動物醫院,桃園市桃園區建國路218號1樓,桃園市,桃園區
大安動物醫院,臺北市中正區新生南路1段162號1樓,臺北市,中正區
大安動物醫院,臺中市東區十甲路230號,臺中市,東區
大安動物醫院,桃園市桃園區三民路一段24號,桃園市,桃園區
大安動物醫院公館分院,臺北市中正區羅斯福路4段162號1樓,臺北市,中正區
大佳動物醫院,臺中市西屯區四川路97號,臺中市,西屯區
大直動物醫院,臺北市中山區北安路468號1樓,臺北市,中山區
大社毛毛動物醫院,高雄市大社區中山路114號,高雄市,大社區
大社家畜醫院,高雄市大社區三民路244號,高雄市,大社區
大原動物醫院,臺中市南屯區黎明路二段165號,臺中市,南屯區
大桔動物醫院,桃園市中壢區莊敬路119號,桃園市,中壢區
大眾動物醫院,高雄市岡山區大義二路72號,高雄市,岡山區
大揚動物醫院,高雄市鼓山區華榮路240-6號,高雄市,鼓山區
大敦寵物醫院,臺中市西區精誠一街2號,臺中市,西區
大湖動物醫院,臺北市內湖區成功路5段10號1樓,臺北市,內湖區
大雅動物醫院,台中市大雅區中清路3段1045號,台中市,大雅區
大順動物醫院,高雄市苓雅區大順三路230號,高雄市,苓雅區
大愛動物醫院,台南市歸仁區中山路3段146號,台南市,歸仁區
大愛動物醫院,臺南市北區和緯路二段516號,臺南市,北區
大新動物醫院,新北市五股區新五路2段369號,新北市,五股區
大業動物醫院,桃園市平鎮區延平路二段二九四號,桃園市,平鎮區
大業動物醫院,臺北市士林區延平北路5段314號,臺北市,士林區
大群動物醫院,臺北市文山區羅斯福路6段136號1樓,臺北市,文山區
大群動物醫院,台南市麻豆區保安里8鄰文昌路17-5號,台南市,麻豆區
大曜動物醫院,新北市土城區學成路46號,新北市,土城區
大豐獸醫院,高雄市路竹區大社路172號一樓,高雄市,路竹區
大灣動物醫院,台南市永康區大灣路610號1樓,台南市,永康區
小小尾巴動物醫院,新北市淡水區新市三路2段265號,新北市,淡水區
小小貓動物醫院,臺北市中山區朱崙街91號1樓,臺北市,中山區
小丹尼寵物醫院,臺中市北屯區文心路四段217號1樓,臺中市,北屯區
小毛屋動物醫院,臺南市東區台南市東門路三段47之1號,臺南市,東區
小水豚非犬貓動物醫院,新北市新莊區幸福東路140號1樓,新北市,新莊區
小王子動物醫院,臺北市松山區八德路4段123號1樓,臺北市,松山區
小王子動物醫院復健分院,臺北市松山區八德路4段123號1樓,臺北市,松山區
小王子貓專科醫院,臺北市大安區建國南路2段197號,臺北市,大安區
小布動物醫院,臺北市南港區永吉路548號,臺北市,南港區
小米動物醫院,桃園市桃園區同安街383號,桃園市,桃園區
小果苗動物醫院,桃園市桃園區南平路512號,桃園市,桃園區
小狐狸動物醫院,臺中市北屯區太順路91號,臺中市,北屯區
小島動物醫院,臺中市西區三民西路83號,臺中市,西區
小栩動物醫院,桃園市楊梅區中山北路一段494巷90號,桃園市,楊梅區
小野菊動物醫院,新北市三峽區學府路32號,新北市,三峽區
小傢伙動物醫院,新北市五股區成泰路1段44號,新北市,五股區
小森林動物醫院,新北市三重區集英路68號,新北市,三重區
小港東林動物醫院,高雄市小港區沿海一路299號一樓,高雄市,小港區
小新動物醫院,高雄市鼓山區華榮路621號,高雄市,鼓山區
小腳印動物醫院,台中市北區太原路三段78-5號,台中市,北區
小鳴動物醫院,高雄市前鎮區廣西路288號一樓、二樓,高雄市,前鎮區
小樹動物醫院,高雄市左營區孟子路583號,高雄市,左營區
小鯢特殊寵物專科醫院,臺南市永康區永明街59號,臺南市,永康區
山佳動物醫院,新北市樹林區中山路3段77號,新北市,樹林區
山豬動物醫院,臺南市安平區平通路525號,臺南市,安平區
不萊梅特殊寵物專科醫院,臺北市大同區民權西路227號、237之8號1樓,臺北市,大同區
中一動物醫院,臺中市大里區西榮路201號,臺中市,大里區
中山犬醫院,臺中市豐原區成功路85號,臺中市,豐原區
中山動物醫院,高雄市鳳山區中山路41號,高雄市,鳳山區
中山動物醫院,臺北市松山區民權東路3段140巷5號1樓及106巷3弄8號1樓,臺北市,松山區
中山動物醫院,臺中市沙鹿區台灣大道七段1000號,臺中市,沙鹿區
中山動物醫院,桃園市中壢區延平路583號,桃園市,中壢區
中友犬貓專科醫院,新北市新店區中正路19號,新北市,新店區
中心動物醫院,臺中市太平區中山路四段180號,臺中市,太平區
中日動物醫院,新北市中和區中山路3段2號1樓,新北市,中和區
中台動物醫院,臺中市北區中清路一段693號,臺中市,北區
中央動物醫院,桃園市中壢區中央西路2段84號,桃園市,中壢區
中正犬貓醫院,臺北市中正區重慶南路3段60-4號2樓,臺北市,中正區
中和杜瑪動物醫院,新北市中和區中原街136號,新北市,中和區
中信動物醫院,桃園市中壢區環中東路二段380號,桃園市,中壢區
中研動物醫院,臺北市南港區研究院路1段36號,臺北市,南港區
中科動物醫院,臺中市西屯區玉門路74號,臺中市,西屯區
中美獸醫院,臺中市南屯區大墩六街207號,臺中市,南屯區
中美獸醫院,臺南市東區府連路314號,臺南市,東區
中美獸醫院和緯院,臺南市北區和緯路2段231號,臺南市,北區
中英動物醫院,台北市北投區中央北路一段149、151號,台北市,北投區
中原動物醫院,桃園市中壢區環北路447號,桃園市,中壢區
中泰家畜醫院,桃園市中壢區中華路一段408號,桃園市,中壢區
中泰動物醫院,臺中市豐原區圓環南路117號,臺中市,豐原區
中華動物醫院,桃園市蘆竹區中正路223號,桃園市,蘆竹區
中華動物醫院,台中市大甲區新政路2-2號,台中市,大甲區
中華愛犬醫院,臺中市大里區中興路二段657號,臺中市,大里區
中盟動物醫院,新北市永和區中正路113號,新北市,永和區
中興河堤動物醫院,高雄市三民區明吉路32號,高雄市,三民區
中興動物醫院,桃園市中壢區民族路164號,桃園市,中壢區
中興動物醫院,高雄市三民區大豐二路118之1號,高雄市,三民區
中興動物醫院,台南市新營區新進路一０八號,台南市,新營區
中興農十六動物醫院,高雄市鼓山區大順一路935號,高雄市,鼓山區
丹尼爾動物醫院,桃園市八德區介壽路一段248-1號,桃園市,八德區
丹堤動物醫院,臺北市北投區知行路208-2號1樓,臺北市,北投區
五甲動物醫院,高雄市鳳山區鳳南路197號,高雄市,鳳山區
五股動物醫院,新北市五股區民義路1段34號,新北市,五股區
五信動物醫院,新北市中和區連城路358號1樓,新北市,中和區
五洲動物醫院,臺北市大安區新生南路1段137-2、137-3號1樓,臺北市,大安區
五洲獸醫院,新北市板橋區民權路250號,新北市,板橋區
五福動物醫院,臺中市西區五權路2-191-8號,臺中市,西區
五權動物醫院,臺中市北區五權路390號,臺中市,北區
仁仁動物醫院,高雄市苓雅區和平二路367號,高雄市,苓雅區
仁心動物醫院,新北市中和區南華路60號,新北市,中和區
仁安動物醫院,高雄市仁武區中華路205號,高雄市,仁武區
仁佑動物醫院,臺南市新營區太子路53巷7弄40號,臺南市,新營區
仁美動物醫院,臺南市安南區北安路2段196號,臺南市,安南區
仁集動物醫院,高雄市左營區民族一路1028-13號,高雄市,左營區
仁慈動物醫院,台北市中山區北安路458巷19號,台北市,中山區
仁愛犬醫院,臺中市東區進化路122號,臺中市,東區
仁愛動物醫院,新北市板橋區民族路179號,新北市,板橋區
仁愛動物醫院,高雄市鳳山區保泰路258號,高雄市,鳳山區
仁愛動物醫院,臺北市大安區仁愛路4段228-5號1樓,臺北市,大安區
仁愛動物醫院,桃園市八德區介壽路2段1087號,桃園市,八德區
仁喆動物醫院,新北市林口區仁愛路二段172號,新北市,林口區
元氣動物醫院,桃園市桃園區三民路三段381號,桃園市,桃園區
元氣動物醫院南崁分院,桃園市蘆竹區中正路352號,桃園市,蘆竹區
元碩動物醫院,高雄市阿蓮區中山路235號,高雄市,阿蓮區
元薾動物醫院,臺中市北屯區軍福七路5號,臺中市,北屯區
六甲家畜醫院,台南市六甲區甲東村曾文街49-3號,台南市,六甲區
六順動物醫院,臺中市西屯區烈美街173號,臺中市,西屯區
勾勾動物醫院,臺北市南港區重陽路144號,臺北市,南港區
友信動物醫院,桃園市中壢區廣安街十號,桃園市,中壢區
友愛動物醫院,臺南市中西區府前路二段66號,臺南市,中西區
天一動物醫院,桃園市中壢區中華路一段426號,桃園市,中壢區
天仁動物醫院,高雄市前鎮區草衙一路17號,高雄市,前鎮區
天母家畜醫院,臺北市士林區中山北路6段431之3號1樓,臺北市,士林區
天恩雅動物醫院,臺中市太平區長龍路三段255巷17號,臺中市,太平區
天富家畜診所,臺中市龍井區沙田路四段272號,臺中市,龍井區
天富動物診所,臺南市鹽水區中正路105號,臺南市,鹽水區
天興動物醫院,臺中市西屯區青海路二段225號,臺中市,西屯區
太原動物醫院,臺中市北屯區北祥街8號,臺中市,北屯區
太陽動物醫院,新北市林口區文化三路2段87號,新北市,林口區
太僕動物醫院,桃園市龍潭區中興路三九二巷十二號,桃園市,龍潭區
太僕動物醫院,臺北市中山區龍江路260號,臺北市,中山區
巴斯德動物醫院,臺南市中西區西賢街61號,臺南市,中西區
心心動物診所,高雄市左營區博愛二路202號,高雄市,左營區
心禾動物醫院,臺南市中西區府連路31號,臺南市,中西區
心美動物醫院,臺中市南屯區五權西路二段539號,臺中市,南屯區
心恩動物醫院,新北市永和區竹林路150號1樓,新北市,永和區
心宿動物醫院,桃園市龜山區樂善二路517號,桃園市,龜山區
心傳動物醫院,臺北市大安區和平東路2段339號,臺北市,大安區
心樂動物醫院,高雄市岡山區成功路25號,高雄市,岡山區
心橋動物醫院,新北市新店區寶強路2-1號1樓,新北市,新店區
文山動物醫院,高雄市三民區澄清路529號,高雄市,三民區
文心全國動物醫院,臺中市北屯區文心路四段323號,臺中市,北屯區
文心動物醫院,高雄市楠梓區惠民路153號,高雄市,楠梓區
文心貓專科醫院,高雄市鼓山區中華一路289號地下室、一樓,高雄市,鼓山區
文清動物醫院,臺中市大雅區民生路一段290號,臺中市,大雅區
方濟動物醫院,高雄市苓雅區復興二路13之3號,高雄市,苓雅區
日安動物醫院,桃園市桃園區永安路267號,桃園市,桃園區
日健動物綜合醫院,臺北市松山區光復北路6-2號,臺北市,松山區
日祥動物醫院,新北市林口區中正路504號,新北市,林口區
木沐家動物醫院,臺中市北屯區松竹路二段186號1、2樓,臺中市,北屯區
毛大夫動物診所,臺中市南屯區保安十街117號,臺中市,南屯區
毛毛動物診所,臺中市烏日區新興路111號,臺中市,烏日區
毛毛動物醫院,臺南市歸仁區民權三街32號,臺南市,歸仁區
毛宇宙動物醫院,新北市土城區員林街71巷2號,新北市,土城區
毛克利動物醫院,臺中市北屯區文心路四段690號,臺中市,北屯區
毛果動物診所,桃園市八德區正福二街17號10樓之8,桃園市,八德區
毛孩子動物醫院,新北市三重區福德北路71號,新北市,三重區
毛星球犬貓專科醫院,高雄市左營區自由二路415號,高雄市,左營區
毛派樂動物醫院,臺北市大安區建國南路2段151巷47號1樓,臺北市,大安區
毛茸茸動物醫院,桃園市新屋區民族路六段17號,桃園市,新屋區
毛博事保健動物醫院,新北市新莊區中正路425號,新北市,新莊區
毛暖動物醫院,臺中市北屯區松竹路二段140號,臺中市,北屯區
毛導動物醫院,臺中市北屯區梅川東路五段129號1樓,臺中市,北屯區
毛貓寵動物醫院,臺中市南屯區文心路一段372號1樓,臺中市,南屯區
毛寶貝動物診所,臺南市永康區二王路27巷5號1樓,臺南市,永康區
爪子村動物醫院,臺中市南屯區文心南路38號,臺中市,南屯區
犬保動物醫院,臺中市南屯區文山里文山三街51巷12號,臺中市,南屯區
犬揚動物醫院,臺中市北區英才路298號,臺中市,北區
王中蘭動物醫院,臺南市學甲區仁德里1鄰建國路27-1號,臺南市,學甲區
王家家畜診所,台南市柳營區光福村成功街139號,台南市,柳營區
王動物醫院,新北市土城區中央路三段141之7號1樓,新北市,土城區
王樣動物醫院,臺北市大安區金華街217號,臺北市,大安區
世和動物醫院,高雄市前鎮區廣西路421號,高雄市,前鎮區
世東動物醫院,臺北市士林區士東路39號1樓,臺北市,士林區
世康動物醫院,高雄市鳳山區八德路129號,高雄市,鳳山區
以立動物醫院,臺北市中山區敬業一路38號,臺北市,中山區
以恩動物醫院,高雄市燕巢區中民路627號,高雄市,燕巢區
加生動物醫院,臺北市北投區石牌路1段95號1樓,臺北市,北投區
加州動物醫院,高雄市苓雅區光華一路134號,高雄市,苓雅區
加洲動物醫院,臺北市內湖區文德路9號1樓,臺北市,內湖區
加康動物醫院,高雄市鳥松區大昌路563號,高雄市,鳥松區
加諾動物醫院,臺中市西區忠明路113號,臺中市,西區
北大奇緣動物醫院,新北市三峽區民生街2-1、2-2號,新北市,三峽區
北大動物醫院,臺中市北屯區建和路二段300號,臺中市,北屯區
北平動物醫院,高雄市三民區北平二街111號,高雄市,三民區
北投動物醫院,臺北市北投區中央北路2段60-1號1樓,臺北市,北投區
北海岸出診動物醫院,新北市金山區忠孝一路56號,新北市,金山區
仟祐動物醫院,桃園市大溪區介壽路796號,桃園市,大溪區
卡布動物醫院,桃園市桃園區文中二路121號1樓,桃園市,桃園區
卡布動物醫院,高雄市左營區至真路8號,高雄市,左營區
卡朵動物醫院,新北市淡水區中正路2段12號,新北市,淡水區
可安動物醫院,臺中市北屯區河北路二段58號,臺中市,北屯區
可米動物醫院,臺中市北屯區大連路二段22號1樓(含地下室),臺中市,北屯區
可昕犬貓專科醫院,臺南市安南區北安路2段87號,臺南市,安南區
可頌動物醫院,新北市三芝區橫山里橫山35-2號,新北市,三芝區
可麗兒動物醫院,新北市土城區中央路2段20之1號,新北市,土城區
古亭動物醫院,臺北市中正區羅斯福路2段138號,臺北市,中正區
古德動物醫院,臺北市萬華區西園路2段194號,臺北市,萬華區
史密斯寵物醫院,高雄市新興區民生一路199號,高雄市,新興區
史麥動物專科醫院,新北市汐止區新興路3號,新北市,汐止區
台大文仁動物醫院,新北市板橋區篤行路三段18號,新北市,板橋區
台大開心動物醫院,新北市泰山區明志路一段317號,新北市,泰山區
台大綜合動物醫院,高雄市三民區博愛一路115號,高雄市,三民區
台北動物醫院,臺北市松山區光復北路164號1樓,臺北市,松山區
台欣動物醫院,台北市松山區健康路187號1樓,台北市,松山區
台愛動物醫院,臺北市士林區中正路629號1樓,臺北市,士林區
台碩動物醫院,臺中市北區中清路一段470號,臺中市,北區
台灣動物醫院,台中市西屯區青海路二段69號,台中市,西屯區
台灣嘉南動物醫院,臺南市北區長榮路5段425號,臺南市,北區
台灣福懋毛公館動物醫院,台中市南屯區公益路二段685號,台中市,南屯區
四季動物醫院,新北市淡水區民族路33巷16-19號1樓,新北市,淡水區
尼古拉動物醫院,臺北市士林區克強路23號1樓,臺北市,士林區
尼昂貓專科醫院,臺中市南區復興路二段133號,臺中市,南區
左岸動物醫院,新北市中和區福祥路一二九號,新北市,中和區
左岸動物醫院大安院,臺北市大安區羅斯福路3段331號,臺北市,大安區
布恩動物醫院,臺中市北屯區和福路181號,臺中市,北屯區
布納動物醫院,新北市新莊區思源路332巷22號,新北市,新莊區
布萊梅動物醫院,臺中市大甲區文武路219號,臺中市,大甲區
布達羊急診動物醫院,臺北市士林區忠誠路1段102號,臺北市,士林區
布魯斯動物醫院,新北市蘆洲區重陽街68號1樓,新北市,蘆洲區
平安動物醫院,台南市永康區中華路16號,台南市,永康區
平治動物醫院,高雄市小港區宏平路534號,高雄市,小港區
弘光動物醫院,臺南市南區永成路三段551巷1號,臺南市,南區
弘吉獸醫院,臺北市大安區市民大道3段236、238號1樓,臺北市,大安區
弘苑獸醫院,高雄市岡山區介壽西路129號,高雄市,岡山區
弘恩動物醫院,高雄市新興區五福二路152號1樓,高雄市,新興區
弘晟動物醫院,高雄市仁武區仁福里仁安三巷24號,高雄市,仁武區
弘祥動物醫院,高雄市新興區復橫一路229號,高雄市,新興區
弘愛犬貓專科醫院,台北市大同區民生西路105號1樓,台北市,大同區
弘達動物醫院,台南市新營區隨唐街51號,台南市,新營區
本丸特殊寵物與貓專科醫院,高雄市前鎮區永豐路105號一樓,高雄市,前鎮區
正耘動物醫院,高雄市三民區河堤路620號一樓,高雄市,三民區
正達家畜診所,臺南市歸仁區歸仁里文化街ㄧ段143號,臺南市,歸仁區
民生動物醫院,新北市三重區正義北路296號1樓,新北市,三重區
民生動物醫院,臺南市安平區健康二街56號,臺南市,安平區
民昇動物醫院,臺中市神岡區中山路509號,臺中市,神岡區
永吉家畜醫院,新北市新莊區新泰路158號,新北市,新莊區
永安動物醫院,高雄市鳳山區建國路三段90號,高雄市,鳳山區
永安動物醫院,桃園市桃園區永安路554號,桃園市,桃園區
永佳動物醫院,臺南市安南區海佃路2段440號,臺南市,安南區
永昌動物醫院,臺中市北屯區北屯路32號,臺中市,北屯區
永明動物醫院,台南市永康區永明街65號,台南市,永康區
永欣動物醫院,高雄市楠梓區軍校路724號,高雄市,楠梓區
永信動物醫院,臺中市北屯區東山路一段216-22號,臺中市,北屯區
永春動物醫院,臺北市信義區忠孝東路5段424號1樓,臺北市,信義區
永泰家畜診所,臺南市佳里區六安里六安街156號,臺南市,佳里區
永康動物醫院,臺中市西屯區永福路167號,臺中市,西屯區
永祥動物醫院,桃園市桃園區正光路117號,桃園市,桃園區
永晴動物醫院,臺南市官田區文化街108號,臺南市,官田區
永勤動物醫院,臺南市仁德區中正路三段641號,臺南市,仁德區
永新動物醫院,臺北市大同區重慶北路3段185號1樓,臺北市,大同區
永馨動物醫院,高雄市鼓山區瑞豐街137號,高雄市,鼓山區
玉山動物醫院,臺北市信義區信義路6段37號1樓,臺北市,信義區
玉井動物醫院,臺南市玉井區民族路267號,臺南市,玉井區
瓦奇動物醫院,臺中市北區學士路240號,臺中市,北區
田中政男動物醫院,臺中市北區進化北路378之24號,臺中市,北區
田心動物醫院,臺中市南屯區大墩二街82號,臺中市,南屯區
白毛動物醫院,桃園市中壢區青商路143號,桃園市,中壢區
白牙動物醫院,臺北市信義區永吉路117號,臺北市,信義區
皮皮動物醫院,新北市永和區保生路22巷12號,新北市,永和區
目目動物醫院,臺中市大里區德芳路二段5號,臺中市,大里區
禾米動物醫院,新北市土城區金城路三段173號,新北市,土城區
禾亞動物醫院,臺北市北投區北投路2段19號1樓,臺北市,北投區
禾芮犬貓專科醫院,臺北市中山區明水路692號,臺北市,中山區
禾原動物醫院,桃園市桃園區大有路159號,桃園市,桃園區
立仁動物醫院,桃園市八德區公園路30號,桃園市,八德區
立安動物醫院,臺中市豐原區向陽路243號,臺中市,豐原區
立宏動物醫院,高雄市三民區陽明路310號地下室、一樓、二樓,高雄市,三民區
立和動物醫院,高雄市鳳山區新興里維新路153號,高雄市,鳳山區
立奇動物醫院,臺南市東區東和路34號,臺南市,東區
立康動物醫院,高雄市新興區七賢一路262號,高雄市,新興區
伊甸園動物醫院,臺北市中山區北安路554巷33號,臺北市,中山區
伊亞動物醫院,桃園市楊梅區瑞福街11之1號,桃園市,楊梅區
伊娃動物醫院,新北市蘆洲區永平街32巷12弄18號1樓及B1,新北市,蘆洲區
仰望動物醫院,桃園市桃園區莊二街12號,桃園市,桃園區
光正獸醫院,臺中市北屯區東山路二段65-14號,臺中市,北屯區
光佑動物醫院,臺中市太平區中興東路164號,臺中市,太平區
光微動物醫院,臺南市新營區健康路32號,臺南市,新營區
光輝動物醫院,臺南市後壁區頂安里345號,臺南市,後壁區
光蹄動物醫院,臺北市信義區光復南路473巷11弄40號,臺北市,信義區
光點犬貓專科醫院,臺北市內湖區內湖路2段468號、470號1樓,臺北市,內湖區
先鋒家畜診所,新北市土城區立德路26號,新北市,土城區
全日動物醫院,桃園市桃園區永安路765巷77號,桃園市,桃園區
全民動物醫院北投分院,臺北市北投區懷德街6之3號1樓,臺北市,北投區
全民連鎖動物醫院台中分院,臺中市西區臺灣大道二段311巷1弄30號,臺中市,西區
全民連鎖動物醫院總院,臺北市大同區民生西路247、249號1、2樓,臺北市,大同區
全宏動物醫院,高雄市鳳山區南華一路85號,高雄市,鳳山區
全邑動物醫院,台中市北區德化街227號,台中市,北區
全科動物醫院,臺中市太平區大興路60號1樓,臺中市,太平區
全能動物醫院,臺南市將軍區忠興里187之22號,臺南市,將軍區
全國動物醫院,台中市西區五權八街100號,台中市,西區
全國動物醫院七期分院,臺中市北區育樂街70號,臺中市,北區
全國動物醫院大里分院,臺中市大里區中興路二段785號1樓,臺中市,大里區
全國動物醫院大雅分院,臺中市北區中清路一段566號,臺中市,北區
全國動物醫院中科分院,臺中市西屯區福科路537號(1-3樓),臺中市,西屯區
全國動物醫院北全分院,臺中市北屯區北屯路264之7號,臺中市,北屯區
全國動物醫院台北分院,臺北市內湖區舊宗路1段30巷13號1樓,臺北市,內湖區
全國動物醫院台南分院,臺南市東區崇德路620號2樓,臺南市,東區
全國動物醫院永和分院,新北市永和區永貞路175號,新北市,永和區
全國動物醫院永康分院,臺南市永康區中華路241號,臺南市,永康區
全國動物醫院精業分院,臺中市南屯區大業路357號,臺中市,南屯區
全國動物醫院環球分院,新北市中和區中山路3段122號1樓,新北市,中和區
全國動物醫院豐原分院,臺中市豐原區圓環北路二段249、251號,臺中市,豐原區
全國貓醫院,臺中市北區進化北路162號,臺中市,北區
全鋒動物醫院,臺南市新市區大營里豐榮52號,臺南市,新市區
再興動物醫院,台北市文山區興隆路一段1號1樓,台北市,文山區
吉布動物醫院,桃園市桃園區新埔七街134號,桃園市,桃園區
吉生動物醫院,高雄市前鎮區永豐路92號,高雄市,前鎮區
吉立動物醫院,新北市三重區中正北路10號1樓,新北市,三重區
吉安動物醫院,高雄市鳳山區經武路346號,高雄市,鳳山區
吉米犬貓專科醫院,臺北市中山區林森北路649號,臺北市,中山區
吉米哈利動物醫院,臺中市南屯區大聖街250號,臺中市,南屯區
吉米家動物醫院,高雄市仁武區仁勇路56之7號,高雄市,仁武區
吉利家畜醫院,新北市永和區永貞路108號,新北市,永和區
吉貝爾動物醫院,高雄市鳳山區五常街44號,高雄市,鳳山區
吉和動物醫院,臺南市南區尊南街246號,臺南市,南區
吉盈動物醫院,高雄市新興區民生一路34號,高雄市,新興區
吉美動物醫院,臺中市西屯區大墩十八街120號一樓及地下一樓,臺中市,西屯區
吉恩動物醫院,新北市板橋區華江一路622號,新北市,板橋區
吉祥動物醫院,高雄市仁武區澄仁路257號,高雄市,仁武區
吉莉安動物醫院,桃園市中壢區松義三街142號,桃園市,中壢區
同心動物醫院,新北市新莊區新泰路474號,新北市,新莊區
同安動物醫院,新北市永和區中山路一段二三三號一樓,新北市,永和區
向芯動物醫院,臺南市永康區復興路218號,臺南市,永康區
向陽動物醫院,桃園市桃園區三民路三段579號,桃園市,桃園區
名人動物醫院,高雄市小港區沿海一路202號,高雄市,小港區
名人維東尼動物醫院,臺北市大安區建國南路1段358號,臺北市,大安區
名芯動物醫院,臺中市大里區爽文路899號,臺中市,大里區
名冠動物醫院,高雄市鳳山區經武路191號,高雄市,鳳山區
名星動物醫院,新北市中和區景平路591號1樓,新北市,中和區
名倫動物醫院,臺南市安平區育平路208號,臺南市,安平區
名鼎動物醫院,臺中市潭子區潭興路三段95號,臺中市,潭子區
合美動物醫院,高雄市岡山區中華路13-5號,高雄市,岡山區
回生動物醫院,高雄市新興區新田路39號,高雄市,新興區
好牙動物醫院,臺中市西區五權西三街49號,臺中市,西區
好好動物醫院,新北市中和區中和路464號,新北市,中和區
好年動物醫院,桃園市桃園區春日路1115號,桃園市,桃園區
好悠動物醫院,新北市汐止區大同路2段247號,新北市,汐止區
如是居家安寧緩和行動獸醫院,臺北市大安區忠孝東路4段2號5樓之1,臺北市,大安區
宇恒動物醫院,臺北市內湖區民權東路6段57號,臺北市,內湖區
宇恩動物醫院,高雄市鼓山區華泰路220號,高雄市,鼓山區
守足動物醫院,桃園市蘆竹區上興路61號,桃園市,蘆竹區
守護動物醫院,新北市新莊區中正路891-32號,新北市,新莊區
宅宅犬貓行動獸醫院,高雄市仁武區北屋北街77號十五樓,高雄市,仁武區
安心動物醫院,高雄市鳳山區武慶二路74號,高雄市,鳳山區
安心動物醫院,臺北市文山區羅斯福路5段17號,臺北市,文山區
安可動物醫院,桃園市桃園區中埔一街21號1樓,桃園市,桃園區
安生動物醫院,臺中市太平區新興路219號,臺中市,太平區
安生動物醫院(三民),高雄市三民區建國三路278號,高雄市,三民區
安生動物醫院(岡山),高雄市岡山區公園西路2段140號,高雄市,岡山區
安安動物醫院,新北市新莊區雙鳳路105號1樓,新北市,新莊區
安安動物醫院,高雄市旗山區延平一路268號,高雄市,旗山區
安利動物醫院,台中市西屯區成都路325號,台中市,西屯區
安和動物醫院,台中市太平區太平路656號,台中市,太平區
安欣動物醫院,桃園市桃園區中福街60號一樓,桃園市,桃園區
安南動物診所,臺南市北區林森路3段112號,臺南市,北區
安星動物醫院,新北市土城區中央路二段8號,新北市,土城區
安家行動寵物醫院,臺北市內湖區成功路3段174巷17弄5號1樓,臺北市,內湖區
安庭動物醫院,臺北市大安區金山南路2段139號1樓及地下1樓,臺北市,大安區
安泰動物醫院,桃園市中壢區中正路628號,桃園市,中壢區
安傑動物醫院,臺中市豐原區源豐路119號,臺中市,豐原區
安澤動物醫院,臺中市大甲區新美里光明路281巷32號,臺中市,大甲區
安興動物醫院,臺北市信義區吳興街478號1樓,臺北市,信義區
成大動物醫院,臺中市清水區臨港路五段658巷27號,臺中市,清水區
成功家畜診所,台南市麻豆區晉江里信義路11-16號,台南市,麻豆區
成功動物醫院,臺北市中山區天祥路3號1樓,臺北市,中山區
成功動物醫院,高雄市苓雅區武廟路155號,高雄市,苓雅區
成功動物醫院,台南市北區長榮路四段223號,台南市,北區
成泰動物醫院,新北市五股區成泰路2段143號,新北市,五股區
成蹊動物醫院,新北市永和區中正路474號1樓,新北市,永和區
旭日動物醫院,臺南市永康區小東路647巷42弄1號,臺南市,永康區
旭生動物醫院,新北市三重區元信二街170號,新北市,三重區
旭采動物醫院,臺中市北區漢口路四段297號,臺中市,北區
旭冠動物醫院,台中市太平區宜昌路525號,台中市,太平區
有喵事貓專科醫院,臺中市南屯區河南路四段510號,臺中市,南屯區
朱動物醫院,臺北市文山區仙岩路62號1樓,臺北市,文山區
朵恩動物醫院,高雄市鳳山區和成路432號一樓、二樓,高雄市,鳳山區
汎亞動物醫院,臺北市士林區承德路4段183號1樓,臺北市,士林區
百佑動物醫院,高雄市左營區辛亥路203巷3號,高雄市,左營區
百利動物醫院,臺南市佳里區忠仁里建中街46號,臺南市,佳里區
百科動物醫院,臺中市西區忠明南路223號,臺中市,西區
百祥動物醫院,高雄市左營區明誠二路204號,高雄市,左營區
米可伴侶動物醫院,高雄市鳳山區建國路三段57號,高雄市,鳳山區
米谷動物醫院,臺中市北區青島路三段212號,臺中市,北區
米亞動物醫院,臺北市中山區民權東路2段57號,臺北市,中山區
米恩動物醫院,高雄市左營區新庄仔路556號,高雄市,左營區
米樂動物醫院,臺南市安平區慶平路440號,臺南市,安平區
米懷谷動物醫院,臺中市東區大興街22號,臺中市,東區
羽森林動物醫院,臺中市東區旱溪西路一段552號,臺中市,東區
自強動物醫院,新北市三重區自強路4段79號1樓,新北市,三重區
艾利動物醫院,臺中市西屯區惠中路二段41號,臺中市,西屯區
艾美動物醫院台北總院,臺北市內湖區港墘路107號1樓,臺北市,內湖區
艾迪威鳥禽專科診所,桃園市桃園區富國路216巷85弄36號,桃園市,桃園區
艾蒙動物醫院,台南市安平區文平路507號,台南市,安平區
艾德動物醫院,臺中市太平區立功路399號,臺中市,太平區
艾樂動物醫院,新北市林口區文化三路1段103號,新北市,林口區
行樹動物診所,高雄市大社區中山路82號,高雄市,大社區
伴心特殊寵物專科醫院,臺中市南屯區文心路一段430號,臺中市,南屯區
何動物診所,台南市官田區東庄村東庄三號,台南市,官田區
何康動物醫院,臺中市東區十甲東路657號,臺中市,東區
佑仁動物醫院,臺北市大安區和平東路1段200號1樓,臺北市,大安區
佑全動物醫院,臺中市大雅區雅潭路四段668號,臺中市,大雅區
佑安動物醫院,桃園市平鎮區民族路2段29號,桃園市,平鎮區
佑欣動物醫院,新北市蘆洲區光榮路66巷1號,新北市,蘆洲區
佑晟動物醫院,臺中市后里區福音路42之1號,臺中市,后里區
佑康動物醫院,高雄市楠梓區楠梓路71號,高雄市,楠梓區
伯特利動物醫院,新北市三峽區學成路323號,新北市,三峽區
利昂動物醫院,臺北市內湖區文德路217號,臺北市,內湖區
利榮家畜醫院,台南市新營區新北街56號,台南市,新營區
呈品動物醫院,桃園市中壢區中豐路359號,桃園市,中壢區
宏一動物醫院,高雄市三民區大順二路443號,高雄市,三民區
宏力建工動物醫院,高雄市三民區建工路695號,高雄市,三民區
宏力動物醫院,高雄市三民區明誠一路326號,高雄市,三民區
宏力動物醫院光復院,高雄市鳳山區光復路一段24、26號一樓,高雄市,鳳山區
宏仁家畜醫院,高雄市鳳山區五甲一路220號,高雄市,鳳山區
宏仁動物醫院,臺中市清水區五權東路182號,臺中市,清水區
宏仁動物醫院,高雄市鼓山區中華一路2號,高雄市,鼓山區
宏光動物醫院,臺中市北區健行路588號,臺中市,北區
宏安動物醫院,桃園市中壢區延平路265號1樓,桃園市,中壢區
宏典動物醫院,臺中市北屯區大連路二段15號,臺中市,北屯區
宏家動物醫院,台南市南區中華南路二段188號,台南市,南區
宏恩動物醫院,臺中市北區太原路一段426號,臺中市,北區
宏泰動物醫院,高雄市新興區開封路301巷2號,高雄市,新興區
宏琳寵物診所,臺中市北屯區軍功路一段492號1樓,臺中市,北屯區
宏誠動物醫院,新北市三重區捷運路33號1F、2F,新北市,三重區
希望動物醫院,高雄市鳳山區凱旋路100號,高雄市,鳳山區
志誠動物醫院,臺北市萬華區萬大路536號1樓,臺北市,萬華區
快樂動物醫院,新北市新莊區福營路242號1樓及B1,新北市,新莊區
快樂動物醫院,台南市永康區復興路378號,台南市,永康區
我的動物醫院,臺南市中西區和緯路5段235號,臺南市,中西區
李動物醫院,台南市新化區中正路515號,台南市,新化區
杏旺動物醫院,桃園市八德區介壽路1段731號,桃園市,八德區
杏玲動物醫院,台南市永康區文化路124號,台南市,永康區
杏運草動物醫院,新北市中和區景平路489號1樓,新北市,中和區
杏福獸醫院,新北市新莊區幸福路73號,新北市,新莊區
杜克動物醫院,臺北市大安區和平東路3段117號1、2樓,臺北市,大安區
杜博動物醫院,臺中市北區博館一街32號1樓,臺中市,北區
杜瑪動物醫院,臺北市北投區大業路541號1樓,臺北市,北投區
沙鹿名犬動物醫院,臺中市沙鹿區福幼街25號,臺中市,沙鹿區
沙鹿動物醫院,臺中市龍井區工業路33號,臺中市,龍井區
汪旺動物醫院,台南市仁德區仁義里33鄰中山路172號,台南市,仁德區
沐木出診動物醫院,臺中市清水區五權南路163號,臺中市,清水區
沐沐特寵動物醫院,臺北市中山區龍江路78號,臺北市,中山區
沐恩動物醫院,臺北市大安區辛亥路1段86號,臺北市,大安區
沐恩動物醫院,臺中市北區健行路865號,臺中市,北區
沐棉花動物醫院,臺中市南屯區春安路153、155號,臺中市,南屯區
沐愛動物醫院,新北市板橋區國光路166號,新北市,板橋區
沐樂動物醫院,臺北市信義區忠孝東路4段559巷30號1樓,臺北市,信義區
沐鄰動物醫院,高雄市大寮區八德路391號,高雄市,大寮區
沃可動物醫院,臺中市北屯區文心路四段776號,臺中市,北屯區
沃沃動物醫院,桃園市八德區義勇街22號,桃園市,八德區
沃爾菲動物醫院,臺中市西區向上路一段40號,臺中市,西區
育千動物醫院,高雄市鳳山區中山西路255號,高雄市,鳳山區
育昇動物醫院,臺中市烏日區中山路一段406號,臺中市,烏日區
育聖動物醫院,台南市關廟區五甲里五甲路600號,台南市,關廟區
角落動物醫院,臺北市內湖區金湖路22號1樓,臺北市,內湖區
豆卡動物醫院,臺南市東區裕農路300號,臺南市,東區
豆皮動物醫院,新北市永和區中正路279號,新北市,永和區
豆芽動物醫院,臺中市西區向上路一段94號,臺中市,西區
貝果動物醫院,新北市中和區安樂路75號,新北市,中和區
貝恩動物醫院,臺北市中山區民權東路3段8號-1,臺北市,中山區
貝斯特動物醫院,新北市汐止區新台五路2段28號,新北市,汐止區
貝爾動物醫院,臺中市西屯區四川路118號,臺中市,西屯區
貝爾動物醫院博館分院,臺中市北區博館路15號,臺中市,北區
貝親動物醫院,臺中市西屯區櫻花路128號,臺中市,西屯區
足跡動物醫院,桃園市中壢區民權路320號,桃園市,中壢區
辰光動物醫院,臺中市烏日區健行路783號,臺中市,烏日區
邦尼動物醫院,台南市永康區永二街399號,台南市,永康區
那隻狗動物醫院,臺南市東區中華東路三段399巷21弄3號,臺南市,東區
亞太動物醫院,臺北市文山區景福街244號1樓及地下1樓,臺北市,文山區
亞各特殊寵物醫院,臺北市南港區研究院路一段101巷12號1樓,臺北市,南港區
亞幸動物醫院,高雄市苓雅區光華一路12之1號,高雄市,苓雅區
亞東動物醫院,新北市中和區中正路639號1樓,新北市,中和區
亞東動物醫院,406台中市北屯區昌平路一段27號,台中市,北屯區
亞洲大學附屬獸醫教學醫院,臺中市霧峰區柳豐路500號,臺中市,霧峰區
亞洲獸醫專科醫院,臺北市大安區安和路2段171巷5號,臺北市,大安區
亞哲動物醫院,新北市板橋區中山路2段388之4號,新北市,板橋區
亞格瑞動物診所,臺南市永康區南工街35號,臺南市,永康區
亞馬森特寵專科醫院,臺北市內湖區內湖路2段39-2號1樓,臺北市,內湖區
亞麥動物醫院,新北市板橋區中國光路77號1樓及57號B1,新北市,板橋區
亞歐動物醫院,桃園市八德區豐德二路78號,桃園市,八德區
享家動物醫院,臺北市中正區牯嶺街臨15-1號,臺北市,中正區
依努動物醫院,新北市中和區安平路56號,新北市,中和區
依沐動物醫院,高雄市前鎮區瑞日街2號二樓、三樓,高雄市,前鎮區
依視界動物醫院,臺南市永康區東橋三路436號,臺南市,永康區
佳幼動物醫院,臺南市善化區光復路128號,臺南市,善化區
佳生動物醫院,新北市土城區學府路1段60號,新北市,土城區
佳安動物醫院,新北市板橋區四川路一段二三四號,新北市,板橋區
佳佑動物醫院,高雄市仁武區大豐路112號,高雄市,仁武區
佳貝捷動物醫院,桃園市桃園區經國路232號,桃園市,桃園區
佳里動物醫院,臺南市佳里區六安里延平路628號,臺南市,佳里區
佳佳動物醫院,臺中市大里區仁化路566號,臺中市,大里區
佳佳獸醫院,新北市三重區重陽路一段20巷4號1樓,新北市,三重區
佳恩動物醫院,臺中市南區美村路二段88號,臺中市,南區
佳恩動物醫院,臺北市內湖區成功路4段311號1樓,臺北市,內湖區
佳康動物醫院,臺北市內湖區康寧路3段169-1號1樓,臺北市,內湖區
佳園動物醫院,高雄市彌陀區中正西路43號,高雄市,彌陀區
佳愛動物醫院,臺南市東區崇明路167號,臺南市,東區
佳群動物醫院,臺中市西屯區福雅路51號,臺中市,西屯區
佳興家畜診所,台南市佳里區禮化里318號,台南市,佳里區
佳諾動物醫院,台南市永康區大橋里28鄰中華路685號,台南市,永康區
佳醫動物醫院,高雄市楠梓區德民路970號,高雄市,楠梓區
佰成動物醫院,高雄市大寮區鳳林三路674號,高雄市,大寮區
侏儸紀野生動物專科醫院,臺中市西區英才路625號,臺中市,西區
兔兔堂中西獸醫兔專科診所,臺中市西區向上路一段17巷4-2號,臺中市,西區
兩角銀馬匹專科診所,高雄市三民區遼寧一街10號,高雄市,三民區
協和動物醫院,臺中市大甲區中山路一段825-6號,臺中市,大甲區
呼嚕貓專科醫院,新北市板橋區光武街95號,新北市,板橋區
和平家畜診所,台南市麻豆區東角里民生路17-15號,台南市,麻豆區
和平動物醫院,高雄市苓雅區和平一路60號,高雄市,苓雅區
和平動物醫院,桃園市八德區介壽路二段113號,桃園市,八德區
和生動物醫院,新北市中和區連城路273號,新北市,中和區
和欣動物醫院,臺北市北投區雙全街7號1樓,臺北市,北投區
和動物醫院,台北市信義區基隆路1段115號1樓,台北市,信義區
奇奇動物醫院,新北市林口區文化3路1段437號,新北市,林口區
奇昀動物醫院,桃園市桃園區民生路374號,桃園市,桃園區
奇美動物醫院,臺南市北區北安路一段89號,臺南市,北區
奇異果動物醫院,臺南市安平區平通路377號,臺南市,安平區
姆卡動物醫院,桃園市中壢區龍慈路79號,桃園市,中壢區
宜家動物醫院,臺中市大里區國光路二段555-6號,臺中市,大里區
尚大動物醫院,高雄市小港區康莊路142號,高雄市,小港區
尚虹動物醫院,新北市汐止區康寧街455號1樓,新北市,汐止區
岡山德民動物醫院,高雄市岡山區大仁北路240號,高雄市,岡山區
幸福動物醫院,桃園市桃園區大業路二段243號,桃園市,桃園區
庚欣動物醫院,臺中市北區雙十路二段77號,臺中市,北區
底佳動物醫院,高雄市楠梓區德賢路220巷31號,高雄市,楠梓區
延平動物診所,桃園市平鎮區南京路6號,桃園市,平鎮區
延吉動物醫院,新北市永和區永貞路82號,新北市,永和區
彼沐動物醫院,桃園市龍潭區中豐路267號,桃園市,龍潭區
忠二動物醫院,高雄市路竹區華正路155巷11號三樓,高雄市,路竹區
忠心動物醫院,臺中市豐原區水源路510號,臺中市,豐原區
忠平動物醫院,高雄市大社區中山路98號一樓,高雄市,大社區
忠正動物醫院,新北市蘆洲區中正路277號,新北市,蘆洲區
忠信動物醫院,高雄市苓雅區和平一路149之13號,高雄市,苓雅區
忠義動物醫院,台南市下營區大埤里2鄰15號,台南市,下營區
忠誠獸醫院,臺北市士林區文林路734號一樓,臺北市,士林區
念念動物醫院,新北市新莊區新知三路61號,新北市,新莊區
怡安動物醫院,臺南市永康區中正北路27號,臺南市,永康區
怡安啄木鳥動物醫院,臺南市安南區怡安路一段476號,臺南市,安南區
承大動物醫院,新北市中和區員山路77巷11弄8號,新北市,中和區
承宏家畜醫院,高雄市三民區綏遠一街133號,高雄市,三民區
抱一抱動物醫院,桃園市平鎮區文化街56號,桃園市,平鎮區
旺竹動物醫院,臺北市大同區承德路3段142號,臺北市,大同區
旺旺動物醫院,桃園市龍潭區龍元路58號,桃園市,龍潭區
旺旺動物醫院,高雄市旗山區延平一路351號,高雄市,旗山區
旺喵動物診所,台南市永康區中華路370號,台南市,永康區
易安動物醫院,臺中市大里區新仁路二段169號1樓,臺中市,大里區
昌展動物醫院,臺北市士林區延平北路6段160號1樓,臺北市,士林區
明佳動物醫院,新北市中和區宜安路125號1樓,新北市,中和區
明誠動物醫院,臺北市大安區瑞安街45號1樓,臺北市,大安區
明誠動物醫院,高雄市仁武區八德一路277號一樓,高雄市,仁武區
明德動物醫院,臺北市北投區明德路115號1樓,臺北市,北投區
明滙動物醫院,新北市新店區安祥路104-7號GF,新北市,新店區
昇昇動物醫院,新北市樹林區大成路399號,新北市,樹林區
昇牧動物診所,台南市左鎮區榮和村13鄰菜寮61-4號,台南市,左鎮區
東大動物醫院,臺中市東區信義街43號,臺中市,東區
東山動物醫院,臺中市北屯區北屯路281之4號,臺中市,北屯區
東宏動物醫院,臺北市中山區吉林路432號1樓,臺北市,中山區
東京動物醫院,台南市新營區進修街99號,台南市,新營區
東昇動物醫院,桃園市楊梅區新成路109號,桃園市,楊梅區
東林動物醫院,高雄市林園區鳳林路一段200號,高雄市,林園區
東南動物醫院,臺中市北屯區崇德路二段30號,臺中市,北屯區
東海天興動物醫院,臺中市龍井區遊園南路106號,臺中市,龍井區
東海動物醫院,高雄市前金區成功一路367號,高雄市,前金區
東湖動物醫院,臺北市內湖區東湖路43巷15號1樓,臺北市,內湖區
東勢動物醫院,臺中市東勢區東關路七段356號1樓,臺中市,東勢區
東憲動物醫院,新北市蘆洲區長樂路36號1樓,新北市,蘆洲區
東興動物醫院,臺中市西區東興路3段164號,臺中市,西區
林口動物醫院,新北市林口區中正路496號1樓,新北市,林口區
林克動物醫院,臺北市中山區林森北路506號1、2樓,臺北市,中山區
林動物醫院,桃園市龜山區復興二路110巷62號,桃園市,龜山區
林園動物醫院,高雄市林園區林園里林園北路434號,高雄市,林園區
杰禾動物醫院,臺南市東區仁和里10鄰仁和路133-3號,臺南市,東區
杰輝家畜醫院,新北市新莊區西盛街一五九號,新北市,新莊區
板新動物醫院,新北市板橋區中正路332-11號,新北市,板橋區
板橋上弦動物醫院,新北市板橋區府中路126號之1號,新北市,板橋區
板橋台大動物醫院,新北市板橋區文化路2段11號1樓及2樓,新北市,板橋區
板橋動物醫院,新北市板橋區文化路2段522號1樓,新北市,板橋區
松山動物醫院,臺北市信義區松山路275號,臺北市,信義區
欣民動物醫院,高雄市鳳山區瑞隆東路25號,高雄市,鳳山區
欣光犬貓專科醫院,新北市板橋區中正路332-3號,新北市,板橋區
欣欣動物醫院,新北市蘆洲區中山一路160號,新北市,蘆洲區
欣欣動物醫院,桃園市龜山區萬壽路2段918號,桃園市,龜山區
欣欣動物醫院,臺中市大里區立新街226號,臺中市,大里區
河童動物醫院,臺南市永康區自強路615號,臺南市,永康區
河碧家畜診所,台南市麻豆區興中路41號,台南市,麻豆區
波可動物醫院,高雄市左營區自由四路367號,高雄市,左營區
波拉動物醫院,臺北市中山區長安東路2段12號,臺北市,中山區
波波動物醫院,臺中市西屯區寧夏路85號及85之1號,臺中市,西屯區
波菲爾動物醫院,台南市新營區復興路156號,台南市,新營區
波羅動物醫院,臺南市東區中華東路三段452巷17號,臺南市,東區
泡泡動物醫院,臺中市南屯區龍德路一段102號,臺中市,南屯區
泛亞動物醫院,桃園市龍潭區東龍路285號,桃園市,龍潭區
牧平動物醫院,新北市新莊區麗水街81號,新北市,新莊區
牧光特殊寵物專科醫院,臺北市大同區民族西路65號,臺北市,大同區
牧羊人動物醫院,桃園市蘆竹區南順五街11號,桃園市,蘆竹區
牧村動物醫院,新北市板橋區中山路2段28號,新北市,板橋區
狗尾草動物醫院,臺北市信義區和平東路3段361號1樓,臺北市,信義區
狗脾氣動物醫院,臺中市清水區五權東路11號,臺中市,清水區
知心動物醫院,桃園市平鎮區中正五路156號,桃園市,平鎮區
社子動物醫院,臺北市士林區延平北路5段191號1樓,臺北市,士林區
舍享動物醫院,新北市板橋區林園街22號1樓,新北市,板橋區
芝山動物醫院,臺北市士林區文林路762-2號1樓,臺北市,士林區
芥菜種動物醫院,臺南市永康區東橋10街32號,臺南市,永康區
芯安動物醫院,新北市淡水區民族路33-7號,新北市,淡水區
初日動物醫院,新北市新店區民族路25號,新北市,新店區
迎光動物醫院,臺中市北屯區建和路一段99號,臺中市,北屯區
返璞動物醫院,桃園市蘆竹區南山路二段453號,桃園市,蘆竹區
近易動物醫院,新北市中和區連城路428巷6弄9號,新北市,中和區
金氏動物醫院,新北市新店區中興路1段208號1樓,新北市,新店區
金生動物醫院,臺中市南屯區大墩路671號1樓,臺中市,南屯區
長弘動物醫院,臺南市永康區正強街139號,臺南市,永康區
長生動物醫院,"桃園市中壢區環中東路二段22,24號",桃園市,中壢區
長生動物醫院,臺中市南屯區南屯路二段52號1樓,臺中市,南屯區
長佐動物醫院,新北市板橋區永翠路348號1樓,新北市,板橋區
長宏動物醫院,臺北市中山區吉林路173號,臺北市,中山區
長沁動物醫院,臺北市大同區承德路3段9號1樓,臺北市,大同區
長和動物醫院,臺中市南區國光路45號,臺中市,南區
長和動物醫院,高雄市新興區忠孝一路245號,高雄市,新興區
長庚家畜醫院,高雄市鼓山區鼓山一路31之2號,高雄市,鼓山區
長庚動物醫院,臺南市新營區中山路100號,臺南市,新營區
長明動物醫院,台南市佳里區文化路343號,台南市,佳里區
長門動物醫院,高雄市苓雅區福德二路73號,高雄市,苓雅區
長青動物醫院,臺北市萬華區廣州街78號1樓、78-1號1、2樓,臺北市,萬華區
長青動物醫院央北分院,新北市新店區央北一路112號,新北市,新店區
長青動物醫院長安分院,臺北市大同區長安西路289-1號,臺北市,大同區
長春心時代動物醫院,臺中市西屯區西屯路二段17之1號,臺中市,西屯區
長春動物醫院,桃園市龜山區萬壽路2段960號1樓,桃園市,龜山區
長慶動物醫院,台北市內湖區東湖路7巷七號1樓,台北市,內湖區
阿牛犬貓急診醫院,臺北市士林區基河路238號1樓,臺北市,士林區
青山動物醫院,桃園市桃園區春日路229號,桃園市,桃園區
青谷動物醫院,桃園市中壢區洽溪路179號,桃園市,中壢區
青亞動物醫院,新北市板橋區光環路1段80號1樓,新北市,板橋區
青林動物醫院,高雄市鳳山區新富路486號,高雄市,鳳山區
青青動物醫院,桃園市中壢區永能路35號,桃園市,中壢區
青青動物醫院,新北市三重區重新路三段31-3號1樓,新北市,三重區
非凡動物醫院,臺中市太平區鵬儀路1-4號,臺中市,太平區
信安家畜醫院,新北市蘆洲區中正路142號,新北市,蘆洲區
信安動物醫院,臺中市北區健行路638號,臺中市,北區
信安動物醫院,桃園市龜山區新路里自強南路82號,桃園市,龜山區
信揚動物醫院,臺中市南屯區南屯路二段271號,臺中市,南屯區
冠友動物醫院,桃園市平鎮區中豐路南勢二段150號,桃園市,平鎮區
冠生動物醫院,臺中市西屯區河南路二段108號,臺中市,西屯區
冠安動物醫院,高雄市苓雅區中正二路131之1號,高雄市,苓雅區
勇翔動物醫院,高雄市楠梓區常德路308號,高雄市,楠梓區
南京太僕動物醫院,臺北市松山區南京東路5段286號1樓及B1,臺北市,松山區
南崁動物醫院,桃園市蘆竹區中正路379號,桃園市,蘆竹區
南勢角動物醫院,新北市中和區捷運路20號1樓,新北市,中和區
厚德動物醫院,臺北市士林區華齡街54號1樓,臺北市,士林區
品安動物醫院,高雄市三民區同盟一路73號一樓,高雄市,三民區
品安動物醫院,臺北市文山區羅斯福路6段89號1樓,臺北市,文山區
品品動物醫院,臺中市豐原區中山路157號,臺中市,豐原區
品家動物醫院,臺中市北屯區昌平路一段304號,臺中市,北屯區
品湛動物醫院,桃園市桃園區民生路495號之9,桃園市,桃園區
品馨動物醫院,臺中市西區忠明路4號,臺中市,西區
哈比動物醫院,新北市新莊區幸福路596號及600號,新北市,新莊區
哈囉彼得動物醫院,臺中市南屯區東興路二段29號,臺中市,南屯區
奕良57動物醫院,臺中市后里區甲后路一段592號,臺中市,后里區
奕良家畜醫院,高雄市左營區新莊一路183號,高雄市,左營區
威安動物醫院,新北市中和區安平路25號,新北市,中和區
威爾頓動物醫院,桃園市大溪區埔頂路二段62號,桃園市,大溪區
巷內有貓動物醫院,臺中市北區英才路319巷23號,臺中市,北區
巷弄動物醫院,臺中市南區復興路二段15巷28號,臺中市,南區
建安動物醫院,臺中市大甲區鎮政路58-7號,臺中市,大甲區
建牧動物醫院,臺中市大甲區通天路276號,臺中市,大甲區
後埔動物醫院,新北市板橋區館前西路156-1號1樓,新北市,板橋區
思邁爾動物醫院,桃園市桃園區莊敬路二段100巷3號,桃園市,桃園區
思邁爾動物醫院中壢分院,桃園市中壢區環北路562號,桃園市,中壢區
恆心動物醫院,桃園市新屋區三民路585號,桃園市,新屋區
恆生動物醫院,桃園市中壢區中美路一段13號,桃園市,中壢區
恆揚獸醫院,新北市新莊區幸福路904號1樓,新北市,新莊區
拾貳寵動物醫院,高雄市鼓山區青海路396號,高雄市,鼓山區
春天動物醫院,桃園市桃園區自強路52號,桃園市,桃園區
春天動物醫院,臺中市北區進化北路294號,臺中市,北區
春日動物診所,桃園市桃園區春日路975巷2之1號,桃園市,桃園區
春風動物醫院,桃園市蘆竹區大新路171號1樓,桃園市,蘆竹區
星光動物醫院,臺北市信義區莊敬路325巷23號,臺北市,信義區
星光動物醫院,台中市龍井區遊園南路403號,台中市,龍井區
星宇動物醫院,新北市蘆洲區長榮路256號1樓,新北市,蘆洲區
星安動物醫院,新北市永和區環河東路一段80號,新北市,永和區
星羽動物醫院三民院,高雄市三民區信國路20號,高雄市,三民區
星羽動物醫院大寮分院,高雄市大寮區鳳林路四段790之1號,高雄市,大寮區
星辰動物醫院,臺北市信義區松隆路225號1樓,臺北市,信義區
昱康動物醫院,高雄市鳳山區博愛路107號,高雄市,鳳山區
柯建章動物醫院,台南市仁德區中正西路20號,台南市,仁德區
查米動物醫院,臺北市士林區忠誠路2段70巷4號,臺北市,士林區
柏正動物醫院,高雄市左營區自由二路17號,高雄市,左營區
柏林動物醫院,桃園市桃園區龍安街68號,桃園市,桃園區
泉野動物診所,桃園市桃園區正光一街86號,桃園市,桃園區
洪生動物醫院,臺北市南港區忠孝東路7段571號1樓,臺北市,南港區
洽昌動物醫院,臺中市沙鹿區中山路463巷1號,臺中市,沙鹿區
為了一隻狗開一家動物醫院,新北市新店區中興路2段219號1樓,新北市,新店區
珍珠動物醫院,臺中市西區三民西路73號,臺中市,西區
珍寶動物醫院,新北市新莊區中平路270巷2號,新北市,新莊區
皇合動物醫院,臺北市中山區建國北路3段121號,臺北市,中山區
皇家動物醫院,臺北市大同區民族西路228號1樓,臺北市,大同區
盈煇動物醫院,高雄市三民區建興路287號,高雄市,三民區
盼望動物醫院,臺南市麻豆區中山路116號,臺南市,麻豆區
祈癒動物醫院,高雄市仁武區京吉六路90號,高雄市,仁武區
紀劃動物醫院,臺北市中正區和平西路1段150-1號,臺北市,中正區
美生動物醫院,桃園市平鎮區環南路460之3號,桃園市,平鎮區
美安家畜醫院,臺中市西區民生路380號,臺中市,西區
美術德民動物醫院,高雄市鼓山區美術東四路32號,高雄市,鼓山區
美濃中壇獸醫院,高雄市美濃區復興街一段12號,高雄市,美濃區
耐旺福動物醫院,臺中市北屯區松竹路二段383-5號,臺中市,北屯區
耐斯動物醫院,桃園市中壢區環中東路189之1號,桃園市,中壢區
胖皮動物醫院,新北市蘆洲區復興路174號1樓,新北市,蘆洲區
胖胖動物醫院,臺中市南區國光路58號,臺中市,南區
范獸醫院,新北市汐止區大同路2段518號,新北市,汐止區
茂生動物醫院,新北市三重區重新路1段64號,新北市,三重區
英山動物醫院,台南市麻豆區新建里麻學路一段15-3號9樓,台南市,麻豆區
英仁動物醫院,臺中市烏日區光日路145號,臺中市,烏日區
英國皇家動物醫院,臺中市西屯區河南路二段429號地下一樓之2,臺中市,西屯區
貞愛動物醫院,臺中市豐原區豐原大道四段457號,臺中市,豐原區
迦南動物醫院,臺中市南區高工路285號,臺中市,南區
迦美動物醫院,臺南市永康區大仁街202-1號,臺南市,永康區
迦勒動物醫院,新北市三重區中正南路114號,新北市,三重區
重安動物醫院,新北市三重區三和路三段20號,新北市,三重區
飛梅利動物醫院,新北市新莊區中興街15、17號,新北市,新莊區
飛揚動物醫院,台南市白河區中山路2-10號,台南市,白河區
飛躍動物醫院,新北市新莊區中原東路200號,新北市,新莊區
哞哞乳牛專科診所,臺南市柳營區柳營81號,臺南市,柳營區
垚凱動物醫院,高雄市三民區陽明路27號一樓、二樓,高雄市,三民區
珈旭動物醫院,臺中市霧峰區中正路767-9號,臺中市,霧峰區
恒星獸醫院,桃園市中壢區龍文街35巷2號,桃園市,中壢區
剛果動物醫院,新北市新店區民權路48號6樓,新北市,新店區
原典動物醫院,新北市新店區中央5街15號,新北市,新店區
原野犬貓專科醫院,桃園市平鎮區廣德街15號,桃園市,平鎮區
原野特殊寵物專科醫院,桃園市平鎮區廣德街12號,桃園市,平鎮區
哲安動物醫院,桃園市桃園區中山路632號,桃園市,桃園區
員山動物醫院,新北市中和區中山路2段577號1、2樓,新北市,中和區
夏洛克動物醫院,臺中市北屯區后庄路599號,臺中市,北屯區
家安動物醫院,臺南市安南區海佃路2段32號,臺南市,安南區
家安動物醫院,臺中市東勢區新豐街42號,臺中市,東勢區
家福動物醫院,高雄市岡山區岡山路612之25號,高雄市,岡山區
家麒獸醫院,新北市板橋區三重區力行路2段135號,新北市,板橋區
展望動物醫院,臺北市萬華區中華路2段2號,臺北市,萬華區
展翔動物醫院,新北市板橋區南雅西路2段97號,新北市,板橋區
展鵬獸醫院,新北市樹林區中正路757號,新北市,樹林區
峽灣動物醫院,臺南市北區西門路四段440、442號,臺南市,北區
庭美動物醫院,臺南市安南區北安路3段205號,臺南市,安南區
徐犬貓專科醫院,桃園市龍潭區中豐路中山段13號,桃園市,龍潭區
恩加動物醫院,臺北市信義區松山路315-2號1樓,臺北市,信義區
恩亞動物醫院,臺北市松山區健康路325巷14號1樓,臺北市,松山區
恩典動物醫院,臺北市中山區民生東路2段45號1樓及2樓,臺北市,中山區
恩怡動物醫院,臺南市東區東門路2段242號,臺南市,東區
恩萊動物醫院,臺北市士林區承德路4段294號1樓,臺北市,士林區
恩澤動物醫院,高雄市苓雅區武廟路160之2號,高雄市,苓雅區
恩孺動物診所,臺北市中正區金山南路1段92號1樓,臺北市,中正區
悅生動物醫院,高雄市左營區大中二路260號,高雄市,左營區
振生動物醫院,桃園市平鎮區金陵路109號,桃園市,平鎮區
振愛動物醫院,桃園市中壢區龍東路188號,桃園市,中壢區
振源動物醫院,桃園市桃園區中山東路215號,桃園市,桃園區
核心動物醫院,臺北市內湖區舊宗路1段50號,臺北市,內湖區
桂林動物醫院,高雄市小港區中安路598號,高雄市,小港區
桔加G+動物醫院,桃園市大園區致祥三街40號,桃園市,大園區
桔醬動物醫院,桃園市楊梅區新成路27號,桃園市,楊梅區
栗子動物醫院,臺中市太平區中山路三段2之5號,臺中市,太平區
格林威治動物醫院,臺中市南屯區文心路一段486號,臺中市,南屯區
桃園市野鳥學會附設非營利野生動物診所,桃園市八德區高城五街22巷5弄5號,桃園市,八德區
桃鶯動物醫院,桃園市桃園區桃鶯路101號,桃園市,桃園區
泰安家畜診所,台南市學甲區中正路140號,台南市,學甲區
泰安動物醫院,桃園市龜山區萬壽路二段1319號,桃園市,龜山區
泰安動物醫院,高雄市鳳山區新武里瑞隆東路266號,高雄市,鳳山區
泰安動物醫院,新北市永和區永貞路83號,新北市,永和區
泰林動物醫院,新北市泰山區楓江路21號,新北市,泰山區
泰爾動物醫院,臺中市沙鹿區臺灣大道七段941號,臺中市,沙鹿區
泰興動物醫院,臺南市歸仁區大順街101號,臺南市,歸仁區
烏鐸動物醫院,高雄市苓雅區中正一路139、141號,高雄市,苓雅區
益豐動物診所,桃園市桃園區福林里3鄰吉多街96號,桃園市,桃園區
真正動物醫院,新北市中和區安平路200-1號,新北市,中和區
祐田動物醫院,臺中市北屯區崇德二路一段28號,臺中市,北屯區
祐熙動物醫院,臺北市南港區玉成街66-26號,臺北市,南港區
純粹動物醫院,臺北市南港區興中路80巷24號,臺北市,南港區
紐約紐約動物醫院,新北市板橋區文化路2段139號1樓,新北市,板橋區
紐特動物醫院,臺南市新營區南紙街119-8號,臺南市,新營區
納嘉動物醫院,臺北市內湖區民權東路6段483號1樓,臺北市,內湖區
耕莘動物醫院,新北市新店區光明街157號1樓,新北市,新店區
草衙動物醫院,高雄市前鎮區草衙二路497號,高雄市,前鎮區
馬汀動物醫院,臺中市大里區中興路二段386-4號,臺中市,大里區
馬汀動物醫院,高雄市左營區至聖路235號,高雄市,左營區
馬汀動物醫院,台南市永康區中華路8-2號,台南市,永康區
馬達加斯加動物醫院,高雄市鳳山區中山東路105號,高雄市,鳳山區
馬達加斯加動物醫院,新北市板橋區文化路二段500號1樓,新北市,板橋區
高民動物醫院,高雄市鳳山區中山西路217之1號,高雄市,鳳山區
高生動物醫院,桃園市桃園區中山路419號,桃園市,桃園區
高生動物醫院,高雄市苓雅區三多一路287號,高雄市,苓雅區
高生動物醫院,臺中市南區信義南街249號,臺中市,南區
高頂動物醫院,臺中市太平區永成北路113號,臺中市,太平區
高登動物醫院,新北市新店區三民路106號,新北市,新店區
高雄市動物保護處,高雄市鳳山區忠義街166號,高雄市,鳳山區
高雄東林動物醫院,高雄市前鎮區二聖二路64號一樓,高雄市,前鎮區
淯生動物醫院,新北市三峽區復興路36-1號,新北市,三峽區
偉源動物醫院,高雄市楠梓區後昌路1048號,高雄市,楠梓區
健中動物醫院,高雄市三民區鼎中路230號一樓、二樓,高雄市,三民區
健生動物醫院,臺北市內湖區台北市成功路四段182巷8弄4號,臺北市,內湖區
健生動物醫院,高雄市前鎮區一心一路275號,高雄市,前鎮區
健生動物醫院,台中市大里區東榮路306號,台中市,大里區
健安動物醫院,高雄市苓雅區建國一路270號,高雄市,苓雅區
健康動物醫院,台中市南屯區河南路四段222號,台中市,南屯區
動物之家獸醫院,臺南市東區小東路248-4號,臺南市,東區
曼巴動物醫院,桃園市中壢區元化路73號,桃園市,中壢區
曼哈頓動物醫院,臺北市松山區市民大道4段77號,臺北市,松山區
唯光動物醫院,新北市永和區中正路714號1、2樓,新北市,永和區
啤酒豬動物醫院,新北市汐止區忠三街120巷54號1樓,新北市,汐止區
國民動物醫院,高雄市燕巢區西燕里興隆巷12號,高雄市,燕巢區
國立中興大學獸醫教學醫院,臺中市西區向上路一段21號,臺中市,西區
國立台中高農附設家畜醫院,臺中市東區台中路283號,臺中市,東區
國立臺灣大學生物資源暨農學院附設動物醫院,臺北市大安區基隆路3段153號,臺北市,大安區
國華動物醫院,高雄市前鎮區和平二路36號,高雄市,前鎮區
國寶動物醫院,臺北市中山區八德路2段229-2號,臺北市,中山區
培昱動物醫院,高雄市鳳山區保泰路6號,高雄市,鳳山區
專心動物醫院,臺北市中正區仁愛路1段47號,臺北市,中正區
崇仁動物醫院,臺中市南屯區五權西路二段395號全棟(含2樓),臺中市,南屯區
崇仁動物醫院,高雄市小港區平和路43號,高雄市,小港區
崇倫動物醫院,臺中市南區忠明南路578號,臺中市,南區
崇恩動物醫院,桃園市楊梅區文化街32號,桃園市,楊梅區
崇愛行動獸醫院,高雄市小港區廠前路2號一樓,高雄市,小港區
崇愛動物醫院,臺南市東區崇明路463號,臺南市,東區
崇德動物醫院,臺中市北屯區崇德二路二段159號,臺中市,北屯區
常明動物醫院,臺北市大安區復興南路2段322號1樓,臺北市,大安區
常源動物醫院,臺北市士林區德行東路189號1樓,臺北市,士林區
康禾動物醫院,高雄市前鎮區復興三路313號一樓、二樓,高雄市,前鎮區
康廷動物醫院,臺北市中正區和平西路2段58-1號1樓,臺北市,中正區
康展動物醫院,新北市永和區福和路316-1號,新北市,永和區
康泰動物醫院,台北市內湖區康樂街164-1號1樓,台北市,內湖區
康淇動物醫院,桃園市中壢區元化路2段50號,桃園市,中壢區
康莊動物醫院,高雄市小港區康莊路15號,高雄市,小港區
康普動物醫院,臺北市松山區南京東路四段141號1、2樓,臺北市,松山區
康翔動物醫院,臺南市新營區長榮路一段559號,臺南市,新營區
康寧動物醫院,臺北市萬華區長沙街2段157號,臺北市,萬華區
康熙動物醫院,臺中市北區天祥街2號,臺中市,北區
康爾維動物醫院,新北市新店區安康路2段308號,新北市,新店區
康維乳牛專科診所,臺南市新營區金華路一段128號,臺南市,新營區
康德動物醫院,臺中市北屯區崇德路二段270號,臺中市,北屯區
康寶動物醫院,新北市中和區中興街130號1樓,新北市,中和區
康馨動物醫院,新北市土城區中央路一段234號,新北市,土城區
張賽鴿動物醫院,高雄市三民區澄清路535號,高雄市,三民區
強生動物醫院,臺中市西屯區漢口路一段137號,臺中市,西屯區
強生動物醫院,臺南市中西區臨安路一段237號,臺南市,中西區
強森動物醫院,高雄市前鎮區鄭和南路412號,高雄市,前鎮區
彩虹動物醫院,臺中市大里區國光路2段318號,臺中市,大里區
彩虹動物醫院,桃園市桃園區大興西路一段221號1樓,桃園市,桃園區
惟心動物醫院,桃園市桃園區大興路207號1、2樓,桃園市,桃園區
惟新動物醫院,臺北市中山區明水路672巷34號1樓,臺北市,中山區
捷飛達動物醫院,高雄市左營區榮總路396號,高雄市,左營區
啟仁動物醫院,臺中市大里區中興路一段364號,臺中市,大里區
啟仁動物醫院,台南市善化區大成路338號,台南市,善化區
晨心動物醫院,高雄市三民區建元路26號,高雄市,三民區
晨星動物醫院,臺中市西區大明街4號,臺中市,西區
晨曦動物醫院,桃園市桃園區龍安街193號,桃園市,桃園區
梁動物醫院,桃園市龍潭區東龍路136號,桃園市,龍潭區
梅西動物醫院,高雄市左營區文府路498號,高雄市,左營區
梅島動物醫院,臺中市西屯區西屯路三段148之37號,臺中市,西屯區
梅森動物醫院,臺中市大里區中興路一段316-3號,臺中市,大里區
淡水動物醫院,新北市淡水區中山路159之2號,新北市,淡水區
清豐動物醫院,高雄市楠梓區鳳楠路259號,高雄市,楠梓區
牽牽手動物醫院,高雄市三民區永年街38號,高雄市,三民區
現代動物醫院,高雄市前金區自強二路41號,高雄市,前金區
琍生動物醫院,高雄市三民區博愛一路273號,高雄市,三民區
甜心動物醫院,臺南市永康區勝利街1巷56號,臺南市,永康區
眾新動物醫院,新北市汐止區新興路4號1樓,新北市,汐止區
祥泰動物醫院,台南市永康區大灣路340號,台南市,永康區
祥億動物醫院,臺中市南區復興路一段259號,臺中市,南區
莎拉咪動物醫院,臺中市西區精誠四街6號,臺中市,西區
莫莉動物醫院,高雄市前鎮區瑞興街80號,高雄市,前鎮區
莒光動物醫院,高雄市楠梓區加昌路849、851號,高雄市,楠梓區
荷蘭醫生動物醫院,高雄市三民區澄清路401號,高雄市,三民區
許獸醫動物診所,臺南市官田區二鎮里8鄰75號之62,臺南市,官田區
設想動物醫院,桃園市蘆竹區南順七街22號,桃園市,蘆竹區
逗號動物醫院,桃園市桃園區中山路517號,桃園市,桃園區
逗號動物醫院南崁分院,桃園市蘆竹區南華一街39號,桃園市,蘆竹區
透視動物醫院,臺中市西區向上南路一段237號,臺中市,西區
野森動物醫院,桃園市中壢區民權路332號,桃園市,中壢區
陪伴動物醫院,臺中市南區建成路1793號,臺中市,南區
陳獸醫院,桃園市桃園區復興路228號,桃園市,桃園區
頂點動物醫院,新北市永和區仁愛路87號,新北市,永和區
麻吉動物醫院,桃園市桃園區中山北路4號,桃園市,桃園區
麻吉動物醫院桃園分院,桃園市桃園區中山北路195號,桃園市,桃園區
麻豆動物醫院,台南市麻豆區興國路16-10號,台南市,麻豆區
傑美動物醫院,高雄市仁武區仁和里仁忠路192號,高雄市,仁武區
傑翔動物醫院,臺北市大同區民權西路270之2號,臺北市,大同區
凱特森貓專科醫院,臺中市南屯區大進街526號,臺中市,南屯區
凱特貓專科診所,桃園市八德區和平路643之2號,桃園市,八德區
凱揚動物醫院,臺北市中山區八德路2段331號1、2樓,臺北市,中山區
勝立動物醫院,台南市中西區公園路84巷4號,台南市,中西區
勝利動物醫院,臺北市內湖區康樂街116之2號1樓,臺北市,內湖區
勝杰動物醫院,高雄市苓雅區成功一路163號,高雄市,苓雅區
勝泰動物醫院,高雄市左營區自由二路182號,高雄市,左營區
博仁動物醫院,高雄市岡山區前鋒里公園西路三段92號,高雄市,岡山區
博安動物醫院,高雄市左營區左營大路732號,高雄市,左營區
博愛動物醫院,台南市麻豆區中山路153-2號,台南市,麻豆區
博愛動物醫院,臺北市中正區杭州南路2段92號1樓,臺北市,中正區
博新動物醫院,高雄市鳳山區瑞順街147號一樓,高雄市,鳳山區
博聯動物醫院,高雄市鼓山區中華一路350號,高雄市,鼓山區
喜來樂動物醫院,高雄市新興區民族二路67號,高雄市,新興區
喜樂地動物醫院,桃園市蘆竹區中興路98號1樓,桃園市,蘆竹區
喬丹動物醫院,臺中市東區南京路2-1號,臺中市,東區
喬巴動物醫院,臺南市東區中華東路3段154號,臺南市,東區
喬伊動物醫院,新北市新店區中興里檳榔路9號,新北市,新店區
喬治亞動物醫院,高雄市苓雅區四維二路96之3號,高雄市,苓雅區
富山動物醫院,臺中市北屯區中清路二段11號,臺中市,北屯區
富台動物醫院,臺中市東區練武路244號,臺中市,東區
富安家畜醫院,新北市板橋區文化路2段335號,新北市,板橋區
富康動物醫院,臺北市大安區建國南路1段298號1樓,臺北市,大安區
富穎動物醫院,高雄市左營區政德路126號,高雄市,左營區
崴恩貓專科醫院,高雄市鳳山區埤北路205號,高雄市,鳳山區
復生動物醫院,臺北市中山區民生東路1段78號1樓,臺北市,中山區
復興動物醫院,高雄市苓雅區復興二路148號,高雄市,苓雅區
復興動物醫院,臺北市松山區八德路2段381號,臺北市,松山區
惠犬動物醫院,台中市西區美村路一段631號,台中市,西區
惠生動物醫院,臺中市北屯區山西路二段219號,臺中市,北屯區
惠光動物醫院,高雄市苓雅區建國一路15之7號地下室、一樓、二樓,高雄市,苓雅區
惠安犬貓醫院,新北市新店區北新路二段九十四號,新北市,新店區
惠明動物醫院,高雄市三民區嫩江街58號,高雄市,三民區
惠祐動物診所,臺南市歸仁區南保里民權十街33號,臺南市,歸仁區
惠康動物醫院,高雄市鳳山區光遠路28號一樓、二樓,高雄市,鳳山區
惠祥動物醫院,臺南市新營區新進路314-1號,臺南市,新營區
惠群動物醫院,臺南市北區文成路745號,臺南市,北區
惠馨動物醫院,台南市善化區民生路397號,台南市,善化區
揚名動物醫院,臺中市神岡區神岡路45號,臺中市,神岡區
敦品動物醫院,臺北市大安區瑞安街124號,臺北市,大安區
普羅旺斯動物醫院,臺中市豐原區圓環南路235號,臺中市,豐原區
普羅動物醫院,桃園市桃園區泰成路15號,桃園市,桃園區
晴天動物醫院,台中市北屯區東山路一段216之14號,台中市,北屯區
景文動物醫院,臺北市文山區景文街29號1樓,臺北市,文山區
景美動物醫院,臺北市文山區羅斯福路6段6號,臺北市,文山區
景億動物醫院,高雄市梓官區赤崁南路136號,高雄市,梓官區
景興動物醫院,臺北市文山區景華街92號1樓,臺北市,文山區
智遇動物醫院,新北市汐止區明峰街39號1樓、B1,新北市,汐止區
森田動物醫院,臺南市安南區海佃路一段394號,臺南市,安南區
森洧動物醫院,臺中市大里區中興路二段442-3號,臺中市,大里區
森遠動物醫院,臺南市永康區東橋十街41號,臺南市,永康區
植仁動物醫院,臺中市南屯區三厝街180號,臺中市,南屯區
港明動物醫院,臺南市西港區慶安里新興街15巷76號,臺南市,西港區
游動物醫院,桃園市平鎮區新勢里14鄰中原路147號,桃園市,平鎮區
湖內國泰動物醫院,高雄市湖內區中山路一段420巷2之1號,高雄市,湖內區
湖光動物醫院,高雄市仁武區京富路255號,高雄市,仁武區
湖光動物醫院,臺北市北投區大業路631號1樓,臺北市,北投區
湖光動物醫院,桃園市蘆竹區桃園街178號,桃園市,蘆竹區
湖光動物醫院,臺中市沙鹿區中山路600號,臺中市,沙鹿區
猩猩狐狸動物醫院,新北市汐止區仁愛路319號,新北市,汐止區
琪欣特殊寵物專科醫院,桃園市龜山區文三二街57號,桃園市,龜山區
琪欣動物醫院林口總院,新北市林口區仁愛路二段323號,新北市,林口區
琪欣動物醫院龜山分院,桃園市龜山區文三一街65號,桃園市,龜山區
登華動物醫院,新北市新莊區龍安路256號2樓,新北市,新莊區
登羣動物醫院,高雄市前鎮區瑞隆路228號,高雄市,前鎮區
翔宇生醫動物醫院,臺中市南屯區東興路二段348號,臺中市,南屯區
華中動物醫院,臺北市萬華區萬大路227號,臺北市,萬華區
華生動物醫院,臺南市東區崇德路528號,臺南市,東區
華南動物醫院,高雄市苓雅區中華四路163號,高雄市,苓雅區
華碩動物醫院,臺中市西區向上路一段126號,臺中市,西區
華遠動物醫院,臺北市中山區長春路336號1樓,臺北市,中山區
華興動物醫院,高雄市鳳山區五甲二路606號,高雄市,鳳山區
萊克動物醫院,臺中市北屯區松竹五路一段213號,臺中市,北屯區
萊特動物醫院,臺北市大安區辛亥路1段50號,臺北市,大安區
萌萌家動物醫院,桃園市桃園區民安路100-2號,桃園市,桃園區
萌醫生動物醫院,臺北市中山區長安東路2段108號4樓之1,臺北市,中山區
詠昕動物醫院,臺南市麻豆區興中路248-18號,臺南市,麻豆區
詠欣動物醫院,臺北市信義區莊敬路428號1樓,臺北市,信義區
進安動物醫院,桃園市八德區介壽路2段274號,桃園市,八德區
鈞懋動物醫院,臺中市北屯區軍福十六路283號,臺中市,北屯區
開心動物醫院,臺中市東區十甲東路622號,臺中市,東區
陽光動物醫院,臺南市東區崇善路565號,臺南市,東區
陽光動物醫院,臺中市西區中華路一段3-5號,臺中市,西區
隆安動物醫院,新北市板橋區忠孝路七十九號,新北市,板橋區
隆記動物醫院,臺北市松山區民生東路5段212巷1號1樓,臺北市,松山區
雅旺動物醫院,新北市蘆洲區民族路522號,新北市,蘆洲區
集英動物醫院,臺北市中山區長安東路1段61-1號,臺北市,中山區
集賢愛生動物醫院,新北市三重區集賢路40號及42號1樓,新北市,三重區
順仁動物診所,高雄市三民區正忠路101號,高雄市,三民區
順心動物醫院,高雄市三民區大順二路233、235號,高雄市,三民區
順鴻動物醫院,桃園市中壢區中正路4段38號,桃園市,中壢區
黃家畜診所,台南市鹽水區武廟里三福路24巷2號,台南市,鹽水區
喵屋貓咪專科醫院,臺中市南屯區大墩17街125號及127號,臺中市,南屯區
喵嶼貓專科醫院,桃園市大園區領航北路四段378號,桃園市,大園區
傳騏動物醫院,臺中市南屯區永春東七路521號及517號二樓之2,臺中市,南屯區
圓山動物醫院,臺北市大同區酒泉街129號,臺北市,大同區
圓慶家畜動物診所,臺南市永康區中華路212巷5號,臺南市,永康區
圓霖動物醫院,桃園市桃園區中正路836號,桃園市,桃園區
圓霖動物醫院八德分院,桃園市八德區介壽路二段1072號,桃園市,八德區
圓霖動物醫院中山分院,桃園市中壢區中山東路2段16號,桃園市,中壢區
圓霖動物醫院南崁分院,桃園市蘆竹區南崁中正路362號,桃園市,蘆竹區
圓霖動物醫院新生分院,桃園市中壢區新生路286號,桃園市,中壢區
圓點動物醫院,台南市佳里區佳南路102號,台南市,佳里區
微笑高壓氧動物醫院,高雄市前金區七賢二路214號,高雄市,前金區
微曦動物醫院,臺中市烏日區建國路323號,臺中市,烏日區
慈心動物醫院,臺南市永康區中華路318號,臺南市,永康區
慈安動物醫院,臺南市安南區安中路一段398號,臺南市,安南區
慈恩動物醫院,台南市歸仁區中山路132號,台南市,歸仁區
慈愛動物診所新莊分所,新北市新莊區中正路2號,新北市,新莊區
慈愛動物診所蘆竹分所,桃園市蘆竹區大新一街29號1樓,桃園市,蘆竹區
慈愛動物醫院,臺南市南區西門路一段473號,臺南市,南區
慈愛動物醫院九如分院,高雄市三民區九如一路458號,高雄市,三民區
慈愛動物醫院大灣分院,臺南市永康區永大路二段25號,臺南市,永康區
慈愛動物醫院小北分院,臺南市北區西門路四段268號,臺南市,北區
慈愛動物醫院中港分院,臺中市大里區國光路二段539號,臺中市,大里區
慈愛動物醫院中華分院,臺南市永康區中華路591號,臺南市,永康區
慈愛動物醫院仁德分院,臺南市仁德區文華路三段448號,臺南市,仁德區
慈愛動物醫院北屯分院,臺中市北屯區北屯路220號,臺中市,北屯區
慈愛動物醫院金華分院,臺南市南區新興路509號之2,臺南市,南區
慈愛動物醫院高雄分院,高雄市左營區文敬路123巷30號,高雄市,左營區
慈愛動物醫院寧夏分院,臺北市大同區寧夏路1號,臺北市,大同區
慈輝動物醫院,新北市樹林區鎮前街144號,新北市,樹林區
慈濟動物醫院,臺中市大里區東榮路529號,臺中市,大里區
感恩動物醫院,臺中市北區忠明路131號,臺中市,北區
愛友家畜醫院,新北市新莊區中正路427-2號,新北市,新莊區
愛心犬貓專科醫院,台南市佳里區中和街73號,台南市,佳里區
愛心動物醫院,桃園市桃園區中寧街23號,桃園市,桃園區
愛心動物醫院,高雄市苓雅區建國一路74-3號,高雄市,苓雅區
愛心動物醫院,臺北市信義區光復南路561號及563號1樓,臺北市,信義區
愛心堡動物醫院,新北市板橋區合宜一路69號,新北市,板橋區
愛犬家動物醫院,臺南市安南區怡安路1段84號,臺南市,安南區
愛犬動物醫院,臺中市霧峰區中正路1112號,臺中市,霧峰區
愛叮寶犬貓專科醫院,新北市板橋區合宜一路175號,新北市,板橋區
愛沛動物醫院,高雄市苓雅區復興二路17之2號,高雄市,苓雅區
愛欣動物醫院,新北市樹林區樹德街5號1樓,新北市,樹林區
愛屋動物醫院,臺北市中正區南昌路1段55號1、2樓,臺北市,中正區
愛思動物醫院,高雄市左營區民族一路965號一樓,高雄市,左營區
愛普生動物醫院,臺中市大里區美群路46號,臺中市,大里區
愛達司動物醫院,新北市新店區中興路一段261號,新北市,新店區
愛貓園動物醫院,臺北市大安區基隆路2段124號,臺北市,大安區
愛寶動物醫院,新北市五股區中興路4段49號1樓,新北市,五股區
愛馨動物醫院,新北市瑞芳區一坑路32-3號1樓,新北市,瑞芳區
新世紀獸醫院,桃園市桃園區萬壽路三段179號,桃園市,桃園區
新北動物醫院,新北市汐止區大同路二段456號1樓,新北市,汐止區
新永吉動物醫院,台中市北屯區中清路二段840號,台中市,北屯區
新生動物醫院,桃園市桃園區德豐街32號,桃園市,桃園區
新生動物醫院,臺中市豐原區新生北路59號,臺中市,豐原區
新沛動物醫院,臺南市新市區中正路142號,臺南市,新市區
新亞動物醫院,臺北市松山區延壽街330巷3號1樓,臺北市,松山區
新東南動物醫院,臺中市大里區中興路一段316-5號,臺中市,大里區
新東動物醫院,臺南市新營區民生路332號,臺南市,新營區
新長庚動物醫院,台南市永康區忠孝路445號,台南市,永康區
新時代動物醫院,桃園市蘆竹區中正路337號,桃園市,蘆竹區
新桃園動物診所,桃園市桃園區中山路1050號,桃園市,桃園區
新泰動物醫院,新北市新莊區新泰路402號一樓,新北市,新莊區
新國太動物診所,高雄市岡山區柳橋西路22之2號,高雄市,岡山區
新莊太僕動物醫院,新北市新莊區中正路853號,新北市,新莊區
新橋動物醫院,桃園市桃園區永安路434號,桃園市,桃園區
新興動物醫院,桃園市平鎮區延平路1段65號,桃園市,平鎮區
暖心動物醫院,臺南市北區北成路28號,臺南市,北區
楠梓德民動物醫院,高雄市楠梓區軍校路710之1號,高雄市,楠梓區
極光動物醫院,臺北市大安區建國南路2段31號,臺北市,大安區
楊動物醫院,臺北市士林區中山北路6段368號,臺北市,士林區
楊梅動物醫院,桃園市楊梅區中山路10號,桃園市,楊梅區
楊獸醫動物診所,台南市善化區東關里2鄰中山路392號,台南市,善化區
榆琁動物醫院,高雄市林園區和平路66巷6號,高雄市,林園區
溫莎動物醫院,臺北市士林區德行東路83號1樓,臺北市,士林區
照群動物診所,桃園市中壢區興光路38號,桃園市,中壢區
煦光動物醫院,臺南市北區林森路三段197號,臺南市,北區
瑞和動物醫院,臺中市大里區中興路一段426號,臺中市,大里區
瑞峰動物醫院,台南市新營區太北里5-14號,台南市,新營區
瑞瑞動物醫院,臺中市西屯區臺灣大道四段828號1樓、2樓,臺中市,西屯區
萬祥犬專科醫院,高雄市新興區民生一路196號,高雄市,新興區
萬達動物醫院,臺北市北投區義理街18號1樓,臺北市,北投區
義華動物醫院,高雄市三民區義華路342號,高雄市,三民區
群力動物醫院,臺中市大里區永隆一街261號,臺中市,大里區
聖仁動物醫院,桃園市中壢區忠孝路285號1樓,桃園市,中壢區
聖心犬貓醫院,臺中市北屯區崇德路一段582號,臺中市,北屯區
聖弘綜合動物醫院,高雄市三民區鼎中路753之37號,高雄市,三民區
聖地牙哥動物醫院,臺北市大安區羅斯福路3段65號3樓之1,臺北市,大安區
聖安動物醫院,臺中市潭子區中山路一段17-5號,臺中市,潭子區
聖安動物醫院,新北市新莊區中港路256號,新北市,新莊區
聖安動物醫院,臺南市柳營區柳營路1段518號,臺南市,柳營區
聖佳動物醫院,高雄市鼓山區九如四路1119號,高雄市,鼓山區
聖欣動物醫院,臺中市豐原區同安街183號,臺中市,豐原區
聖恩動物醫院,桃園市龜山區萬壽路二段1141號,桃園市,龜山區
聖博獸醫院,新北市板橋區重慶路二九九號一樓,新北市,板橋區
聖愛動物醫院,臺中市南區復興路一段405號(及地下室),臺中市,南區
聖愛動物醫院,高雄市左營區中華一路3之1號,高雄市,左營區
聖愛動物醫院,新北市淡水區中正東路6號,新北市,淡水區
聖愛動物醫院大甲分院,臺中市大甲區五福街22號,臺中市,大甲區
聖愛動物醫院大里分院,臺中市大里區中興路二段471號,臺中市,大里區
聖愛動物醫院仁化店,臺中市大里區仁化路770號,臺中市,大里區
聖愛動物醫院太平分院,臺中市太平區中興路118-2號,臺中市,太平區
聖馨動物醫院,高雄市苓雅區苓雅一路28號,高雄市,苓雅區
葛瑞斯動物醫院,台南市北區大武街393號,台南市,北區
葛瑞斯動物醫院—官田分院,臺南市官田區拔子林83-19號,臺南市,官田區
葆生動物醫院,臺中市潭子區圓通南路268號,臺中市,潭子區
裕源動物醫院,臺中市西區五權路2-199號,臺中市,西區
路加動物醫院,臺北市文山區興隆路2段187號1樓,臺北市,文山區
路竹動物醫院,高雄市路竹區中山路468號,高雄市,路竹區
路米動物醫院,臺北市中山區建國北路2段89號1樓,臺北市,中山區
達仁動物醫院,臺北市文山區木柵路2段133號1樓,臺北市,文山區
達特馬動物醫院,桃園市桃園區國際路一段1168號,桃園市,桃園區
達特動物醫院,高雄市鳳山區過勇路270號,高雄市,鳳山區
達特蘇動物醫院,新北市林口區南勢街322號,新北市,林口區
達達動物醫院,新北市淡水區中山北路1段207巷37弄7號1樓,新北市,淡水區
達爾文動物醫院,臺中市西區博館路157號,臺中市,西區
遇見貓專科醫院,高雄市鼓山區中華一路317巷15號一樓、二樓,高雄市,鼓山區
頑皮動物醫院,新北市三重區三賢街197號,新北市,三重區
鼎山動物醫院,高雄市三民區鼎山街466號,高雄市,三民區
嘉仁動物醫院,高雄市鼓山區九如四路1658號,高雄市,鼓山區
嘉貝動物醫院,新北市新莊區昌和街65號,新北市,新莊區
嘉恩動物醫院,臺中市霧峰區林森路768-1號,臺中市,霧峰區
嘉基動物診所,臺中市太平區宜昌路217號,臺中市,太平區
嘉棋動物醫院,新北市板橋區四川路二段115號,新北市,板橋區
嘉翔動物醫院,高雄市左營區自由四路35號,高雄市,左營區
嘉慶動物醫院,臺北市松山區八德路4段214-1號1樓,臺北市,松山區
嘉興動物醫院,新北市三重區忠孝路1段24號,新北市,三重區
嘉興獸醫院,桃園市楊梅區中山北路二段382號,桃園市,楊梅區
嘉寵動物醫院,臺北市南港區忠孝東路5段982號1樓,臺北市,南港區
嘉獸家畜醫院,台南市中西區府前路一段200號,台南市,中西區
榮興獸醫院,桃園市新屋區中華路177號,桃園市,新屋區
漂亮寶貝動物醫院,臺中市清水區中山路127-3號,臺中市,清水區
瑪利亞動物醫院,台南市白河區中山路1之16號,台南市,白河區
瑪雅動物醫院,新北市永和區中和路333號1樓,新北市,永和區
碩恩動物醫院,臺中市南區德祥街72號,臺中市,南區
碩聯動物醫院,臺北市大安區復興南路2段342-1號1樓,臺北市,大安區
福林動物醫院,新北市中和區中安街230號1、2樓,新北市,中和區
福泰動物醫院,新北市泰山區福興街26號1樓,新北市,泰山區
福壽家畜醫院,高雄市岡山區正言街68號,高雄市,岡山區
福樂動物醫院,臺中市西屯區大隆路149號,臺中市,西屯區
福懋動物醫院,臺中市豐原區圓環西路69號,臺中市,豐原區
種籽動物醫院,新北市板橋區篤行路2段76號,新北市,板橋區
窩心動物醫院,高雄市左營區忠言路117號,高雄市,左營區
窩窩兔動物醫院,高雄市苓雅區建民路67號,高雄市,苓雅區
綠光動物醫院,桃園市桃園區民族路250號,桃園市,桃園區
綠洲動物醫院,臺北市中正區北平東路16號1樓,臺北市,中正區
綠崧動物醫院,桃園市中壢區環中東路2段112號,桃園市,中壢區
綠野動物醫院,新北市中和區景平路335-1號,新北市,中和區
維尼動物醫院,桃園市八德區介壽路2段1091號,桃園市,八德區
維托邦動物醫院,臺北市大安區信義路4段199巷28號1樓,臺北市,大安區
維恩動物醫院,臺北市南港區東新街132號1樓,臺北市,南港區
維特動物醫院,桃園市大園區大成路二段51號,桃園市,大園區
維納斯動物醫院,新北市板橋區忠孝路203號,新北市,板橋區
維康動物診所,新北市淡水區新春街85巷8號,新北市,淡水區
維康動物醫院,高雄市左營區新庄仔路233-4號,高雄市,左營區
維康動物醫院,臺北市內湖區成功路3段150號1樓,臺北市,內湖區
維樂動物醫院,桃園市觀音區新生路1521號,桃園市,觀音區
臺大健弘動物醫院,新北市林口區民族路6號,新北市,林口區
艋舺動物醫院,臺北市萬華區萬大路365號1樓,臺北市,萬華區
蓋亞野生動物專科醫院,高雄市三民區建工路611號,高雄市,三民區
蓋荳動物醫院,臺中市西屯區福雅路128巷20號,臺中市,西屯區
豪斯動物醫院,臺南市中西區成功路387號,臺南市,中西區
遠見動物醫院,臺北市大安區和平東路2段68號1樓,臺北市,大安區
遠東動物醫院,臺南市北區臨安路二段179號,臺南市,北區
酷比動物醫院,臺南市南區夏林路210號,臺南市,南區
銀星動物醫院,高雄市前金區成功一路319號,高雄市,前金區
銀晨寵物醫院,新北市永和區永平路286號,新北市,永和區
銘德動物醫院,新北市新莊區後港一路14號,新北市,新莊區
領航動物醫院,桃園市中壢區領航南路一段168號,桃園市,中壢區
鳳屏動物醫院,高雄市大寮區中莊里鳳屏一路658號,高雄市,大寮區
劉動物醫院,臺北市士林區士東路298號1樓,臺北市,士林區
劉獸醫院,台南市仁德區後壁村中正路二段215號,台南市,仁德區
劍橋動物醫院,臺中市南屯區大墩十三街6號及8號,臺中市,南屯區
劍橋動物醫院,臺北市北投區石牌路2段332-1號,臺北市,北投區
劍橋動物醫院北屯分院,臺中市北區文心路四段190-2號,臺中市,北區
廣喬動物醫院,桃園市桃園區大興西路二段261號,桃園市,桃園區
廣慈動物醫院,臺北市中山區錦州街371號1樓,臺北市,中山區
廣福動物醫院,新北市三重區自強路1段197號1樓,新北市,三重區
德心動物醫院,臺北市中山區八德路2段121號,臺北市,中山區
德艾動物醫院,新北市淡水區民生路八號,新北市,淡水區
德克動物醫院,高雄市新興區復興一路107之6號,高雄市,新興區
德欣動物醫院,新北市三重區信義街4號,新北市,三重區
德洲喵樂動物醫院,高雄市苓雅區金門街84號,高雄市,苓雅區
德愛動物醫院,臺中市北屯區昌平路一段95-9號,臺中市,北屯區
德興動物醫院,新北市蘆洲區長安街62號1樓,新北市,蘆洲區
慶生動物醫院,新北市永和區得和路261號,新北市,永和區
慧安動物醫院,臺中市北屯區松竹五路二段392號,臺中市,北屯區
慕光動物醫院,新北市淡水區中山北路1段174號,新北市,淡水區
慕光動物醫院,臺南市南區西門路一段569號,臺南市,南區
摩夫摩夫動物醫院,臺南市安平區府平路243號,臺南市,安平區
摩西動物醫院,台南市新化區大新路15號,台南市,新化區
摩摩寵物醫院,臺中市西區日進街79號,臺中市,西區
樂仁動物醫院,台南市新營區民治路6之43號,台南市,新營區
樂毛動物醫院,新北市板橋區忠孝路169號,新北市,板橋區
樂田動物醫院,臺北市大安區建國南路1段161號1樓,臺北市,大安區
樂田動物醫院,新北市三重區忠孝路2段102號1F、2F,新北市,三重區
樂米動物醫院,桃園市桃園區中正五街206號,桃園市,桃園區
樂沛動物醫院,臺北市內湖區成功路4段368號1樓2樓,臺北市,內湖區
樂咖動物醫院,臺南市東區崇善路233-5號,臺南市,東區
樂活動物醫院,新北市永和區竹林路66巷21號,新北市,永和區
樂活動物醫院,高雄市苓雅區福德三路157號,高雄市,苓雅區
樂晨伴侶動物醫院,臺中市北屯區文心路四段971號,臺中市,北屯區
樂絨動物醫院,臺南市永康區忠義街81巷53號2樓,臺南市,永康區
樂福動物醫院,桃園市蘆竹區中山路12號,桃園市,蘆竹區
樂樂動物醫院,臺中市北區中清路一段418號,臺中市,北區
樂樂動物醫院,高雄市鳳山區過勇路198號,高雄市,鳳山區
樂膚莉動物醫院,臺北市大安區仁愛路3段82號,臺北市,大安區
樂蹦動物醫院,高雄市苓雅區中華四路26、26之1號,高雄市,苓雅區
樂醫動物醫院,桃園市龜山區文青二路73號,桃園市,龜山區
樂寶動物醫院,高雄市新興區復興二路272號,高雄市,新興區
歐米咖動物醫院,臺中市南區建國南路一段246號,臺中市,南區
歐動物醫院,高雄市內門區中正路89巷5號,高雄市,內門區
歐逗動物醫院,臺南市新化區護國里中山路158號,臺南市,新化區
歐陽動物醫院,臺中市南屯區惠中路三段68號,臺中市,南屯區
歐歐妮動物醫院,臺北市中山區北安路627號,臺北市,中山區
澄心動物醫院,臺中市太平區太平路642號,臺中市,太平區
澄毅動物醫院,臺北市大安區安和路2段171巷13號1樓,臺北市,大安區
澄諾動物醫院,臺北市松山區富錦街461號,臺北市,松山區
潭子家畜醫院,台中市潭子區中山路二段305號,台中市,潭子區
潮慶動物醫院,臺中市北區漢口路三段171號,臺中市,北區
締爾動物醫院,臺北市文山區樟新街11之1號、11之2號,臺北市,文山區
鄭勝雄家畜診所,台南市後壁區竹新村38-4號,台南市,後壁區
鄭獸醫院,臺中市西屯區中工三路66號,臺中市,西屯區
凝視犬貓專科醫院,臺中市西屯區東興路三段305號,臺中市,西屯區
橙芯動物醫院,新北市板橋區貴興路100號1樓、B1,新北市,板橋區
橡果動物醫院,臺北市信義區林口街228號1樓,臺北市,信義區
澤禾動物醫院,臺北市松山區健康路288號,臺北市,松山區
磨鼻子動物醫院,桃園市中壢區延平路18、20號,桃園市,中壢區
翰林獸醫院,新北市三重區三民街130號,新北市,三重區
臻愛一生動物醫院,高雄市左營區華夏路1062號,高雄市,左營區
興沛動物醫院,臺北市內湖區內湖路1段91巷32號,臺北市,內湖區
興旺動物醫院,臺中市南屯區五權西路二段1146號,臺中市,南屯區
興昌動物醫院,高雄市苓雅區四維二路46之1號,高雄市,苓雅區
興泰動物醫院,臺北市松山區延吉街57號1樓,臺北市,松山區
興德動物醫院,高雄市三民區三民街118號,高雄市,三民區
興緣動物醫院,臺中市西區五廊街63號,臺中市,西區
諮群動物醫院,台南市柳營區旭山村山仔腳47-10號,台南市,柳營區
諾比諾比動物醫院,台南市永康區大橋一街130號,台南市,永康區
諾亞動物醫院,桃園市中壢區中山東路一段35號,桃園市,中壢區
諾亞動物醫院,臺北市中山區吉林路166號,臺北市,中山區
諾德動物醫院,臺中市西屯區青海路2段207-2號1F,臺中市,西屯區
貓村貓專科醫院,臺中市北屯區山西路三段228號,臺中市,北屯區
貓瘋非營利慈善貓專科醫院,臺北市松山區八德路4段216號,臺北市,松山區
貓醫生的貓診所,臺北市大安區忠孝東路3段194號2樓之1,臺北市,大安區
錫安動物醫院,新北市淡水區新市一路3段180號,新北市,淡水區
霍普獸醫病理專科醫院,新北市新莊區中信街176號20樓之6,新北市,新莊區
默墨犬貓專科醫院,臺北市內湖區成功路3段83-1號1樓,臺北市,內湖區
默默動物醫院,臺中市北區進化路343號,臺中市,北區
龍江獸醫院,臺北市中山區龍江路21巷1號1樓,臺北市,中山區
龍恩動物醫院,臺中市南屯區田心里大墩六街287號1樓,臺中市,南屯區
龜毛動物醫院,臺中市南區南平路3、3-1號,臺中市,南區
曙光動物醫院,新北市板橋區中山路一段309號1樓,新北市,板橋區
檀儒動物醫院,高雄市三民區九如一路385號,高雄市,三民區
濟生動物醫院,台中市北屯區北平路3段75-12號,台中市,北屯區
濰邇動物醫院,新北市三峽區長泰街94號,新北市,三峽區
環亞動物醫院,台中市北區五權路580號,台中市,北區
環東動物醫院,桃園市中壢區榮民路167號,桃園市,中壢區
聯心動物醫院,台南市永康區中華路714號,台南市,永康區
聯合家畜醫院,臺北市北投區裕民一路40巷29號1樓,臺北市,北投區
聯合動物醫院,高雄市三民區覺民路74號,高雄市,三民區
聯合動物醫院,臺北市萬華區寶興街136號1樓,臺北市,萬華區
聯強動物醫院,高雄市鳳山區南福街200號,高雄市,鳳山區
聯眾動物醫院,桃園市大溪區文化路79號,桃園市,大溪區
聯盟岡燕動物醫院,高雄市岡山區岡燕路608之1號,高雄市,岡山區
聯盟林口文化動物醫院,新北市林口區文化二路2段68號2樓,新北市,林口區
聯盟建國動物醫院,高雄市苓雅區建國一路193、195號,高雄市,苓雅區
聯盟動物醫院,高雄市仁武區鳳仁路231號2樓,高雄市,仁武區
聯盟旗楠動物醫院,高雄市楠梓區旗楠路106號,高雄市,楠梓區
聯盟鳳山保華動物醫院,高雄市鳳山區保華一路252號,高雄市,鳳山區
聯盟鳳屏動物醫院,高雄市大寮區鳳屏一路35號,高雄市,大寮區
聯盟龜山萬壽動物醫院,桃園市龜山區萬壽路二段1125號,桃園市,龜山區
臨安啄木鳥動物醫院,臺南市北區臨安路2段243號,臺南市,北區
蕾米動物醫院,臺南市北區和緯路三段222號,臺南市,北區
謙谷若松動物醫院,臺中市南屯區大英街31號,臺中市,南屯區
謝老闆動物醫院,高雄市三民區哈爾濱街29號,高雄市,三民區
謝妮妮寵物醫院,高雄市左營區至真路191號一樓、二樓,高雄市,左營區
邁德氏賽鴿專科醫院,新北市板橋區海山路11號1樓,新北市,板橋區
韓特動物醫院,高雄市前金區自強三路211號,高雄市,前金區
鴻安動物醫院,臺中市北屯區東山路一段152-2號,臺中市,北屯區
鴻達動物醫院,台中市西區忠義街38巷7弄3號,台中市,西區
點點動物醫院,高雄市楠梓區海專路245號,高雄市,楠梓區
歸仁動物醫院,台南市歸仁區中正路169巷9-1號,台南市,歸仁區
藍天動物醫院,高雄市三民區博愛一路139號,高雄市,三民區
豐安獸醫院,桃園市中壢區中豐路16號,桃園市,中壢區
豐東動物醫院,臺中市豐原區豐東路88號,臺中市,豐原區
豐南動物醫院,臺中市豐原區育才街35號,臺中市,豐原區
豐茂動物醫院,臺北市北投區中正街75號1樓,臺北市,北投區
豐盛動物醫院,臺北市松山區光復北路46號,臺北市,松山區
豐陽動物醫院,臺中市西區林森路96號,臺中市,西區
豐源動物醫院,臺中市潭子區中山路一段172號,臺中市,潭子區
雙十動物醫院,新北市板橋區雙十路二段四號1樓及2樓,新北市,板橋區
雙和動物醫院,新北市永和區中正路617號,新北市,永和區
魏大夫動物醫院,新北市新莊區中原東路57號1樓,新北市,新莊區
寵小到大動物醫院,高雄市前鎮區中山二路208號一樓,高雄市,前鎮區
寵恩動物診所,臺南市永康區民族路145巷87號,臺南市,永康區
寵博健康動物醫院,臺北市松山區三民路108號之21,臺北市,松山區
寵愛家畜醫院,新北市中和區連城路409號,新北市,中和區
寵愛動物醫院,高雄市楠梓區後勁西路236號,高雄市,楠梓區
寵樂動物醫院,臺北市大安區文昌街89號,臺北市,大安區
龐龐毛小孩動物醫院,臺北市大安區安和路2段68號、70號,臺北市,大安區
懷恩動物醫院,臺中市大雅區中清路四段303號,臺中市,大雅區
懷恩動物醫院,新北市林口區文化北路一段307號1樓,新北市,林口區
瀚生動物醫院,臺北市大安區新生南路1段144-1號1樓,臺北市,大安區
犢牝動物醫院,高雄市仁武區仁慈路109巷10號1樓,高雄市,仁武區
羅大宇動物醫院,臺中市西區存中街153號,臺中市,西區
關心動物醫院,台中市沙鹿區三民路97號,台中市,沙鹿區
麒麟動物醫院,台南市新營區新進路一段51號,台南市,新營區
麗明動物醫院,新北市板橋區金門街306之1號,新北市,板橋區
麗園動物醫院,新北市林口區文化一路1段119號,新北市,林口區
麗園動物醫院八里分院,新北市八里區中山路二段421號1樓,新北市,八里區
麗園動物醫院大園分院,桃園市大園區中正東路5號,桃園市,大園區
寶成動物醫院,台南市新營區三民路137-1號,台南市,新營區
寶血動物醫院,臺北市萬華區中華路2段6號,臺北市,萬華區
寶貝屋動物醫院,桃園市桃園區泰昌三街154號,桃園市,桃園區
寶貝動物醫院,臺南市鹽水區武廟路22號,臺南市,鹽水區
寶貝動物醫院,高雄市鼓山區九如四路1175號,高雄市,鼓山區
寶建動物醫院,桃園市桃園區成功路二段80號1樓,桃園市,桃園區
寶慶動物醫院,桃園市桃園區寶慶路286號,桃園市,桃園區
寶寶新動物醫院,臺北市中正區南昌路1段39號,臺北市,中正區
寶護動物醫院,新北市林口區中山路281號1樓,新北市,林口區
耀宏家畜醫院,高雄市苓雅區建國一路139~6號,高雄市,苓雅區
蘆洲動物醫院,新北市蘆洲區中山二路8號1樓,新北市,蘆洲區
馨田動物醫院,新北市土城區金城路二段388號,新北市,土城區
馨晨動物醫院,新北市土城區清水路53號1樓,新北市,土城區
櫻花動物醫院,臺中市西屯區文心路三段138-12號,臺中市,西屯區
護生動物醫院,新北市新莊區中和街93號,新北市,新莊區
躍犬動物醫院,臺南市安平區民權路四段523號,臺南市,安平區
躍犬動物醫院,高雄市苓雅區中華四路210號,高雄市,苓雅區
躍生動物醫院,新北市板橋區民權路258之2號,新北市,板橋區
鶯歌奇緣動物醫院,新北市鶯歌區忠孝街8號,新北市,鶯歌區
鶯歌獸醫院,新北市鶯歌區文化路三八三號,新北市,鶯歌區
聽狗嶼動物診所,新北市永和區秀朗路2段120號,新北市,永和區
麟安動物醫院,臺北市大安區和平東路3段324號,臺北市,大安區
鑫鑫動物醫院,臺中市中區臺灣大道一段573號,臺中市,中區
楽莫動物醫院,臺中市太平區宜昌路550號,臺中市,太平區
獴獴加動物醫院,新北市三重區重新路四段20號,新北市,三重區
辳擎獸醫院,臺中市烏日區溪南路一段152號,臺中市,烏日區
