name,address,city,district,place_id
貓悅良犬寵物精品店,臺北市大安區基隆路二段110號1樓及2樓,臺北市,大安區,ChIJF5gC5M2rQjQRNVDYYkI6w38
東森寵物雲股份有限公司左營左大分公司,高雄市左營區左營大路161、163號,高雄市,左營區,ChIJt72w85gFbjQRvtDmqmEmqXA
東森寵物雲股份有限公司楠梓興楠分公司,高雄市楠梓區興楠路60號,高雄市,楠梓區,ChIJI4yoCi0QbjQRaa3rLmwX9_E
樂沛寵物,高雄市楠梓區土庫一路10號,高雄市,楠梓區,ChIJd32-tW4PbjQRc_RTEEXslr8
艾妮寵物沙龍,臺北市萬華區德昌街121號1樓,臺北市,萬華區,ChIJoaLxpK-pQjQR2IgOJV444ro
晨曦寵物有限公司,桃園市桃園區龍安里龍安街109號,桃園市,桃園區,ChIJ5Y3o1WsfaDQRhfp-uecJY7M
嘉鈞股份有限公司,臺中市西屯區福科路370號1樓、2樓、3樓、4樓及 372號1樓、2樓、3樓、4樓,臺中市,西屯區,ChIJvzL4J9ypQjQRqnkSoR7_qZA
小短腿寵物美容院,新北市八里區八里區頂罟一路56號1樓,新北市,八里區,ChIJQSb-nP6lQjQRp25gPneo5Uc
就愛毛寶貝寵物美容,臺中市大里區德芳路一段144號1樓、2樓,臺中市,大里區,ChIJjZwMA5o9aTQRmY3_WnL4jaQ
逗逗先生寵物沙龍,新北市永和區得和路178號1樓,新北市,永和區,ChIJJ9uDquapQjQRhyjrOg-uwew
緹米貓旅館,新北市永和區福和路167號2樓,新北市,永和區,ChIJcXJcgHSpQjQRNDlpI-2FZdI
寶貝窩寵物生活館,桃園市蘆竹區錦興里中正路341號1樓,桃園市,蘆竹區,ChIJi_njB3agQjQRbkQpnS_gTsU
瑞發財貓旅館,臺南市南區金華路一段468號1-2樓,臺南市,南區,ChIJSy6dQtd1bjQR-y7zxoYc6zA
玖逗瑪得寵物沙龍,新北市中和區景平路746號1樓,新北市,中和區,ChIJo035d0GpQjQRxOnY9hF0O4k
吾悠喵旅生活館,新北市中和區中正路210號1樓,新北市,中和區,ChIJpfglnWcDaDQROqnauibQ4pE
國寶寵物股份有限公司,臺北市士林區中山北路七段20號、20之1號及22號1樓,臺北市,士林區,ChIJF6U6RwCpQjQR6vUtNAzXgQ8
毛嶼商行,新北市新店區中興路2段221號,新北市,新店區,ChIJ13VK7b0BaDQRrN1sAt5dXoc
帕比寵物,臺南市新營區大宏里8鄰文昌街42之1號,臺南市,新營區,ChIJTUliRwCFbjQRK2KpSduhEO8
寵萌殿堂 ,新北市板橋區民生路2段234巷2弄13號1樓,新北市,板橋區,ChIJUxVIw-apQjQRdGzFO9XnFKw
樂牧寵物旅館,新北市新莊區建興街20號1樓,新北市,新莊區,ChIJWde5Zsvni2MRU7nv4bWTcgM
樂恆寵物有限公司,新北市永和區中和路421巷3弄1號1樓、2樓,新北市,永和區,ChIJxy3cuuepQjQR0DPQ2NeCtMo
糖果屋貓咪旅館,新北市板橋區大觀路2段7巷24號,新北市,板橋區,ChIJHcIvT6ypQjQRc9gESCt3ZSY
給貓金幣坊,臺南市中西區五妃街72號1樓及地下層,臺南市,中西區,ChIJ_0MqQfN3bjQRMjpqe8pRsx8
凱斯實業社,新北市新莊區新興街26號1樓,新北市,新莊區,ChIJMSXmEWSoQjQRWJKDxiiojzk
托托寵物工坊,桃園市八德區桃園市八德區大福里大福街53巷8號,桃園市,八德區,ChIJ6fIImR8faDQRzCnb_YE-ouw
帕比樂寵物企業社,臺中市北屯區柳陽西街118號,臺中市,北屯區,ChIJqYpX9X0XaTQRpRiSE6nwFbg
米汪寵毛店,臺中市霧峰區五福西路258號,臺中市,霧峰區,ChIJV4vBQ0U7aTQRvh_AvcmBQgU
優質幼犬專賣,高雄市鳳山區光復路二段277號1、2樓,高雄市,鳳山區,ChIJ6TB3caEFbjQRSxwnqNiiGtY
乾乾咬一口寵物館,高雄市三民區興昌街83巷13號1、2樓,高雄市,三民區,ChIJpeeEgScFbjQRyeUj4EaFWC4
小喬米寵物美容,新北市板橋區長江路2段57號1樓,新北市,板橋區,ChIJT8zdyBKoQjQRnrspaLgN-Qs
狗勾寓所商行,新北市板橋區中山里合宜路131號1樓,新北市,板橋區,ChIJV9W_wYADaDQRpyL-kqqFYn0
毛起來住寵物旅館,新北市板橋區板橋區富山街89號1樓,新北市,板橋區,ChIJ6bxHpL6pQjQRxT3sIsWGHHQ
五心興業有限公司,臺中市豐原區圓環東路839號1、2、3樓,臺中市,豐原區,ChIJ177qQBMaaTQRmcbBlVpnCbU
賀嘎宅貓咪旅館,臺南市北區開元路477號1樓及地下層,臺南市,北區,ChIJs4CUBrp3bjQRLaJ-Ur9SXr8
狗狗樂寵物造型沙龍,桃園市桃園區大豐里樹林四街84號1樓,桃園市,桃園區,ChIJqX4PPgEfaDQRAWyEBu6RTWY
環球購物中心股份有限公司桃園分公司,桃園市中壢區桃園市中壢區芝芭里高鐵南路二段352號1樓,桃園市,中壢區,ChIJETFdbzQhaDQRyhMZEtcvvHE
享沐企業社,新北市板橋區光武街40號1樓,新北市,板橋區,ChIJT0288e6pQjQR6ql_V4_Vo7g
喵狗幫幼犬寵物店,臺中市大里區臺中市大里區中興路一段320之1號,臺中市,大里區,ChIJn99zyZ49aTQRO4onMn3GzoY
貝多芬寵物造型生活館,臺北市中山區長安東路一段39-2號1樓,臺北市,中山區,ChIJ_55UeW-pQjQRnv4O9bL8VD8
汪堡股份有限公司內湖分店,臺北市內湖區南京東路六段451巷21號及23號1樓,臺北市,內湖區,ChIJ50TGCx-rQjQRdVRm27Ep2ko
樂沐寵物美容館,臺中市南區工學路6-2號1樓,臺中市,南區,ChIJv35PJiA9aTQRT3QnUPU33KM
羅弟家寵物生活館,臺中市西區民興街133號1樓、2樓,臺中市,西區,ChIJ0dMs7DM9aTQRI6vOfAMl_zo
羊咩咩寵物生活館,高雄市鳳山區文藝街170號,高雄市,鳳山區,ChIJx3yRlDEbbjQRAPwsK7_9YB8
法蘭西斯卡寵物美容,高雄市苓雅區福建街258號,高雄市,苓雅區,ChIJ0SP6RcYFbjQRCRkX4E4sxB0
東興貝貝寵物有限公司,臺中市南屯區東興路三段253號1樓、2樓,臺中市,南屯區,ChIJpz2tQrg9aTQRRVdBw65FROw
忻成寵物有限公司,臺中市北區臺中市北區忠太東路117號、117之1號,臺中市,北區,ChIJCQVp1sg9aTQRaJjTEEtFDhU
汪家寵物旅館,桃園市桃園區華南里4鄰中華路148號1樓,桃園市,桃園區,ChIJp6ulzdofaDQRabB4RPtieSg
唯一寵物,桃園市桃園區桃園市桃園區建國里桃鶯路58號,桃園市,桃園區,ChIJwcFHIMgfaDQRgSnQjuIAdvQ
洗澡吧寵物澡堂,臺北市內湖區成功路四段328號1樓,臺北市,內湖區,ChIJwTyPeeysQjQRwEFhDy-xQPk
毛棧股份有限公司,臺中市西區美村路一段245號1樓、2樓、3樓,臺中市,西區,ChIJt9_1JAI9aTQRQd5SjH0_Z4Q
咕嚕咕嚕雙腸寵美精品旅館,臺中市北區進化北路396之3號1樓、2樓,臺中市,北區,ChIJgXY55DQ9aTQRcHNGqavnT00
天星實業社,高雄市新興區竹圍路6號,高雄市,新興區,ChIJk6YltvYEbjQRLkE4u_YzuPY
台灣邦尼寵物用品有限公司,臺中市太平區樹德路256號,臺中市,太平區,ChIJ1X6_BgAYaTQR33PB_gwuggQ
明星寵物精品館,新北市土城區金城路三段73巷4弄2號1樓,新北市,土城區,ChIJxXxqWwADaDQR6mr4eoQfAYw
宬銘屋寵物生活館(毛毛窩寵物精品旅館),臺北市文山區景隆街48號及48-1號1樓,臺北市,文山區,ChIJr8ISuASqQjQROYYmrkk_kdo
苙堡寵物生活館,新北市三重區新北市三重區中寮街99號,新北市,三重區,ChIJN2fcHgCpQjQR90H1lejsgxc
立裘寵物美容,臺中市大里區國光路二段353號1樓,臺中市,大里區,ChIJV6NBpu88aTQRm6ozS7ft_tI
萬達寵物事業股份有限公司汐康分公司,新北市汐止區康寧街519號1樓,新北市,汐止區,ChIJNYTdqkSpQjQR5VgPsVBSp1Q
吃手手寵物事業有限公司,臺北市中正區濟南路二段35號之1一樓,臺北市,中正區,ChIJkdjYw3upQjQRsaq_4uiuJrA
毛寓所寵物美容旅店,新北市板橋區溪北路30號1樓,新北市,板橋區,ChIJLVJZNjEdaDQRFv3zliGQvys
喜多寵物美容住宿館,新北市板橋區中山路1段283巷2弄25號1樓,新北市,板橋區,ChIJe1bS3SKoQjQRWbq1T-LgvD4
喵了個汪寵物生活館,臺北市北投區中和街275號1樓及2樓,臺北市,北投區,ChIJAyDXDEevQjQR2t9h6OoeU58
萬達寵物事業股份有限公司台北興隆分公司,臺北市文山區興隆路二段343號及345號1樓,臺北市,文山區,ChIJNYTdqkSpQjQR5VgPsVBSp1Q
萬達寵物事業股份有限公司台北安和分公司,臺北市大安區安和路二段225號1樓,臺北市,大安區,ChIJNYTdqkSpQjQR5VgPsVBSp1Q
丹佛企業行,高雄市鳳山區中山東路64之3號1樓,高雄市,鳳山區,ChIJNZe7iXIbbjQRVHwMUFQ-b1k
萬達寵物事業股份有限公司林口中山分公司,新北市林口區中山路248之1號1樓,新北市,林口區,ChIJNYTdqkSpQjQR5VgPsVBSp1Q
慶福水族有限公司,臺中市南屯區文心路一段372號1樓、2樓,臺中市,南屯區,ChIJEVBXIL49aTQRA_bdzlbo1Mg
佳士德國際貿易股份有限公司,桃園市桃園區文中里延壽街162號2樓,桃園市,桃園區,ChIJvVBHbQAjaDQRbVWc0hsfong
來電狗寵物水族館,新北市三重區新北市三重區力行路2段99號1樓,新北市,三重區,ChIJQa4Enr-pQjQRcMFZleSENnY
萬達寵物事業股份有限公司新陽分公司,新北市三重區重陽路3段152號1樓,新北市,三重區,ChIJI7PEpt-oQjQRq1F-vgzjDO8
富藝寵物沙龍概念館,高雄市三民區覺民路50號,高雄市,三民區,ChIJMXRuKIcFbjQRoTC5mL93L7I
星都實業股份有限公司,高雄市鼓山區青海路396號(右側),高雄市,鼓山區,ChIJsbrke24FbjQRrH7F2jbw0Y0
萬達寵物事業股份有限公司台南善化分公司,臺南市善化區光文里19鄰忠孝路1之1號,臺南市,善化區,ChIJNYTdqkSpQjQR5VgPsVBSp1Q
佳美國際有限公司,臺中市南屯區大英街173號1樓、2樓,臺中市,南屯區,ChIJP__SdJI9aTQRfsNTJAcR_d0
貓僕舍寵物商行,臺北市大同區重慶北路三段73號1樓,臺北市,大同區,ChIJrRSDnjipQjQRxNlhgMxQD-g
毛孩森林寵物生活館,臺中市西屯區上石路65號1樓,臺中市,西屯區,ChIJ5WG1IZY9aTQR_FQta55avLI
心寵有限公司,新北市新莊區福德一街72號及76號1樓,新北市,新莊區,ChIJ0U0ESJWpQjQRGE570U-fiwg
萬達寵物事業股份有限公司新海分公司,新北市板橋區英士路74號1樓,新北市,板橋區,ChIJNYTdqkSpQjQR5VgPsVBSp1Q
跑跑跳寵物旅館,高雄市楠梓區東昌街23號,高雄市,楠梓區,ChIJT6_obDYPbjQRD302Ipqcqyg
悠遊寵物有限公司,桃園市觀音區崙坪里福坪路195巷100號1、2、3樓,桃園市,觀音區,ChIJsxGiZLomaDQRkHqktjNpKCc
喵汪汪澡堂,新北市樹林區中山路3段181號1樓,新北市,樹林區,ChIJb1xR9LgdaDQREd6UBGF3BcI
小蘋果寵物犬舍,臺南市新化區協興里8鄰太平街130及132號1樓,臺南市,新化區,ChIJrUS1Cu5xbjQReIcNQ7OeI6g
靚靚寵物美容生活館,新北市中和區景平路578號1樓,新北市,中和區,ChIJdTvTIQYDaDQRx0KLyPlxhOo
苙田寵物精品生活舘,新北市板橋區南雅南路2段20號1樓,新北市,板橋區,ChIJw7MpIa8CaDQR6xuazAG07_M
陽陽寵物店,桃園市蘆竹區五福里五福六路81號,桃園市,蘆竹區,ChIJjw-k4xOhQjQRVjik9DNqAvo
荷娜寵物美容,臺北市士林區天母東路50巷20-2號1樓,臺北市,士林區,ChIJOdl7kFmvQjQRGZPpwl4Vz5w
阿法小姐金典寵物館,新北市板橋區文化路2段410巷32號1樓,新北市,板橋區,ChIJP7G50FSpQjQRh_YwVWwwXI4
庚旺有限公司,臺北市中山區德惠街4號1樓,臺北市,中山區,ChIJGeLR8bapQjQRWgNzDA7vBvA
洗寶貝寵物美容,臺北市大同區重慶北路三段75號1樓,臺北市,大同區,ChIJVcFnnDipQjQRIi0IevY314I
優仕寵物生活館,臺北市大安區羅斯福路三段139號1樓及2樓,臺北市,大安區,ChIJJVFTHIypQjQR_O4m4sH-7Ts
東森寵物雲股份有限公司臺中北屯分公司,臺中市北屯區北屯路218號、220號,臺中市,北屯區,ChIJDwE99IkXaTQRvIY-G_NiQIk
東森寵物雲股份有限公司臺中大里分公司,臺中市大里區國光路二段441號,臺中市,大里區,ChIJ4QaWCLw9aTQRcARlmZaX2DE
東森寵物雲股份有限公司豐原圓環東分公司,臺中市豐原區圓環東路257號1樓,臺中市,豐原區,ChIJcRc36lIbaTQRij6xkFpFfv0
東森寵物雲股份有限公司西屯青海分公司,臺中市西屯區青海路二段225號,臺中市,西屯區,ChIJ20qWD5sXaTQRvWMVRwComn8
東森寵物雲股份有限公司臺中沙鹿分公司,臺中市沙鹿區臺灣大道七段279號、281號,臺中市,沙鹿區,ChIJy8hVMpwVaTQRGcBcvfPCm_Y
東森寵物雲股份有限公司台中軍功分公司,臺中市北屯區軍功路一段603號,臺中市,北屯區,ChIJ7zohOjwZaTQR0GlatELZnbc
永浤寵物生活館,高雄市新興區七賢一路508號,高雄市,新興區,ChIJyVZdbYoEbjQRWYC8QOp45yU
貓羅紀有限公司,新北市三重區新北市三重區重陽路2段61號,新北市,三重區,ChIJj1pDQ-2pQjQR86mWIUZ_0kM
喵屋日和商行,新北市板橋區合宜路13號1樓,新北市,板橋區,ChIJ-1CF0w4daDQRRcdlKCG0yes
家溱喵宅社,新北市林口區文化ㄧ路1段117號1樓,新北市,林口區,ChIJb8YZvpenQjQRyXc6W1iYQnA
東森寵物雲股份有限公司三民建工分公司,高雄市三民區建工路351號1、2樓,高雄市,三民區,ChIJfRGMn48FbjQRTJ5VvHzCAmo
毛毛愛狗樂寵物店,高雄市新興區林森一路187號2樓,高雄市,新興區,ChIJa1kmZc8FbjQRCoOI1j-aU7k
萌萌狗企業社,新北市新莊區萬安街3號1樓,新北市,新莊區,ChIJxVET2YynQjQRyYYdJNPpxrM
貓悅居貓旅館,新北市三重區新北市三重區重陽路3段5巷28-2號,新北市,三重區,ChIJe4YFaACpQjQR2HKiVrJ87sE
爵靈企業有限公司(超可愛名犬企業社),臺北市大安區基隆路二段134之1號1樓,臺北市,大安區,ChIJK4c4KcurQjQRDUqIoRgc2k4
尾尾道來寵物股份有限公司,臺中市北屯區崇德十路一段88號,臺中市,北屯區,ChIJkzTbymcXaTQRhUC075yvMeY
大魚寵物有限公司十甲分公司,臺中市東區十甲東路616號,臺中市,東區,ChIJn2iBNlw9aTQRJY4Q-PYBzRI
魚中魚樂活有限公司,臺中市南屯區文心路一段378號27樓之6,臺中市,南屯區,ChIJE5V3J849aTQR4-ng-9vBNk4
愛逗格寵物沙龍,臺南市善化區坐駕里11鄰建國路19號之11(1樓),臺南市,善化區,ChIJKTsCxbh7bjQRXlVspbxiYGs
咩咩旺寵物美容館,桃園市平鎮區北貴里金陵路三段103之2號1樓,桃園市,平鎮區,ChIJY9hMHAAjaDQRoD8H7wkW600
犬犬滿福寶犬屋,臺中市清水區海濱路266號,臺中市,清水區,ChIJfTFx0ZU9aTQRteVEjEgBZfw
萬達寵物事業股份有限公司台中大里分公司,臺中市大里區國光路二段409號1樓,臺中市,大里區,ChIJNYTdqkSpQjQR5VgPsVBSp1Q
可麗愛犬美容屋,臺中市北區崇德路一段516號1樓,臺中市,北區,ChIJjRVu7t4XaTQR6ivLr4HAfYk
青沐犬舍,臺中市西區四維街20號1樓,臺中市,西區,ChIJc6BD6I8XaTQRya4SWwBLtWs
金犬家莊寵物精品店,新北市八里區龍米路2段12號1樓,新北市,八里區,ChIJhQCHLWmlQjQRK3EdnkLWdYU
恩犬商行,新北市新店區環河路14-1號1樓,新北市,新店區,ChIJ5Wq534kBaDQRBbIYo1qhmzc
逗貓坊,臺北市信義區永吉路380號1及2樓,臺北市,信義區,ChIJ8f5w_IKrQjQRdT_ZAdIdmKg
承楓企業社,臺北市士林區士東路37號1樓,臺北市,士林區,ChIJUZwHdc-uQjQRKCqoaVGl6ss
寵翻天商行,新北市中和區捷運路173號1樓,新北市,中和區,ChIJSScIIXECaDQRKUYfqaGKQ8A
汪福寵物澡堂,高雄市鳳山區瑞竹路75號1樓,高雄市,鳳山區,ChIJGU4eQe8bbjQR1us3M0vpObI
烤布奇諾有限公司,臺北市中正區和平西路二段64號1樓,臺北市,中正區,ChIJuxcHBnWoQjQRiT7x9P4ab5o
晨曦毛旅館,臺中市南區臺中市南區國光路65號,臺中市,南區,ChIJhZk351Q8aTQR1K8s_YrCVMM
茉莉寵物店,桃園市桃園區南豐三街24號1樓,桃園市,桃園區,ChIJOysknCgfaDQRyEbh4sGlIf0
萬達寵物事業股份有限公司一心分公司,臺中市南屯區公益路二段169號3樓,臺中市,南屯區,ChIJNYTdqkSpQjQR5VgPsVBSp1Q
貓卜勒有限公司,臺中市西屯區朝馬一街27號1樓,臺中市,西屯區,ChIJ8-8U1X09aTQRGttqqpEmiFo
吉貓寓所,臺北市大安區和平東路二段297號3樓,臺北市,大安區,ChIJ12s964yrQjQR6D0iUYsc27w
布朗泰菈寵物沙龍店,臺中市西區美村路一段711號1樓、2樓,臺中市,西區,ChIJMT_92LM9aTQR1qlYz5gfgNc
伊嘉寶貝寵物美容坊,桃園市桃園區寶慶里同德五街268號,桃園市,桃園區,ChIJpyYSdV8faDQR-pXDBc3EyWQ
胖狗屋寵物坊,新北市永和區永貞路85號及85-1號1樓,新北市,永和區,ChIJVZQEPuapQjQRcojHljx39B0
愛莉塔寵物館,新北市板橋區南雅西路2段82號1樓,新北市,板橋區,ChIJ5y7HTgOpQjQRld-bD0N3gSU
快樂熊寵物美容坊,新北市板橋區民權路67號1樓,新北市,板橋區,ChIJHZiHNxyoQjQRRVasd_CGjYw
甜甜寶貝樂園寵物貿易有限公司,新北市板橋區介壽街100號1樓,新北市,板橋區,ChIJZ5T6kn2pQjQRVLqxSx8gxXo
狗窩好日子有限公司,臺北市松山區民生東路五段137巷2-5號1樓,臺北市,松山區,ChIJoWxQlY2rQjQRr47iVV8Es-U
比佛利寵物水族時尚館,新北市蘆洲區重陽街99及101號1樓,新北市,蘆洲區,ChIJcTjI-9KoQjQRlCNawQorW1Q
喜樂狗日子有限公司,臺中市西屯區安和路59之2號1樓、2樓、地下1樓,臺中市,西屯區,ChIJefeGb-MVaTQRzmHeKZLnQOM
萬達寵物事業股份有限公司漢口分公司,臺中市北區漢口路四段297號,臺中市,北區,ChIJNYTdqkSpQjQR5VgPsVBSp1Q
國寶寵物股份有限公司松江分公司,臺北市中山區松江路382號1樓,臺北市,中山區,ChIJHVst2uqpQjQRgvNWZHKal_U
快樂狗寵物生活館,臺南市永康區安康里17鄰中華路677號,臺南市,永康區,ChIJeVTUwt92bjQRgjL9KU-Xa1U
喵團錦簇貓舍,臺北市松山區八德路四段604-1號1樓,臺北市,松山區,ChIJ62_0PoyrQjQRMppBqM7aMCc
嘟嘟好遇見你寵物生活館,新北市新莊區民安西路78巷4號1樓,新北市,新莊區,ChIJG7P_i_unQjQRSKWq1PruIQI
貝貝寵物有限公司,臺中市南屯區大墩十一街283號,臺中市,南屯區,ChIJFz6ybjs9aTQRgs3n37oZzwQ
寵寵慾動寵物美容沙龍館,新北市新莊區中誠街13號1樓,新北市,新莊區,ChIJSzjQAXyoQjQRmzODm5BFQYk
萬達寵物事業股份有限公司板慶分公司,新北市板橋區重慶路110號1樓,新北市,板橋區,ChIJx6PH80SoQjQR2BRVvEMjnmo
雀而喜貓舍有限公司,新北市新莊區新莊區銘德街25、27號1樓,新北市,新莊區,ChIJdzz5MYmpQjQRHTWx0hdt8sA
萬達寵物事業股份有限公司永康分公司,臺南市永康區五王里16鄰中華路430號,臺南市,永康區,ChIJ71c6hOB2bjQR5ehqDG4BOVE
哈克狗與湯姆貓寵物生活館,高雄市苓雅區四維三路174-5號,高雄市,苓雅區,ChIJ0eo3a4MEbjQRvORHMXPQxEE
捲一圈貓旅館,高雄市三民區十全一路2號,高雄市,三民區,ChIJvapPIRYFbjQRYGFMsxcehgM
超貼心寵物美容旅館,桃園市中壢區興南里延平路352號2樓,桃園市,中壢區,ChIJP5JrgUoiaDQRrpVQ4PapsD8
貓頭目貓咪旅館,高雄市左營區重吉路18號,高雄市,左營區,ChIJ4RQ6mX8FbjQRUsnNU65hy-Y
寵樂寵物美容,新北市蘆洲區新北市蘆洲區永樂街75號,新北市,蘆洲區,ChIJFVvCu4ipQjQR44InU4TC0yc
貓家日子股份有限公司,新北市三重區新北市三重區三民街68號,新北市,三重區,ChIJEXUN6V6pQjQRKpyPQ4ejldg
萬達寵物事業股份有限公司_小港漢民分公司,高雄市小港區漢民路299號1樓及2樓,高雄市,小港區,ChIJNYTdqkSpQjQR5VgPsVBSp1Q
肥娜寵物快剃店,高雄市小港區孔鳳路438之8號1樓,高雄市,小港區,ChIJ2x860lwdbjQRMP_bj1YbnM8
哇卡寵物,臺中市大里區國光路二段626號1樓,臺中市,大里區,ChIJU5AI_vk9aTQR3cZZqSVWeJU
毛巧可寵物旅宿,臺中市南區南平路39之5號1樓,臺中市,南區,ChIJ561iVFQ8aTQRw8diMoHwU5w
祺福愛犬美容屋,高雄市左營區裕誠路173號1樓,高雄市,左營區,ChIJGfgyEBsFbjQRLo3sKo_XVFI
韻羽股份有限公司,臺北市大安區復興南路一段76號10樓之3,臺北市,大安區,ChIJX9sundOrQjQRMEnO8fV3n-w
轟轟的家寵物美容,高雄市苓雅區中正一路436號1樓,高雄市,苓雅區,ChIJ19BxIcwFbjQRUAY2m55bRM0
啾咪寵物美容,臺南市東區前鋒路50號,臺南市,東區,ChIJ2_r5_I52bjQR5iha8Q2fu6M
米雅寵物工作室,臺南市中西區友愛街359號,臺南市,中西區,ChIJOz3BXFp3bjQRjaKbBXn5HlY
家五喵有限公司,新北市汐止區水源路1段190巷9號1樓,新北市,汐止區,ChIJ_76hFYlTXTQRjh5jLcmbgqo
底兒商品行,臺中市大里區中興路二段817號1樓、2樓,臺中市,大里區,ChIJ7ZTV-t88aTQRZaVhFbfnHk8
汪福寵物美容商行,臺北市內湖區文德路208巷20號1樓,臺北市,內湖區,ChIJBUmnBhWtQjQR4bxaH1WYOQE
萬達寵物事業股份有限公司新雅分公司,新北市板橋區板橋區南雅南路1段40號1樓,新北市,板橋區,ChIJx6PH80SoQjQR2BRVvEMjnmo
毛寶貝快樂寵物坊,新北市板橋區仁化街137號1樓,新北市,板橋區,ChIJ1VPprUWoQjQR1Q4TJ9t3p_A
花襪子的家寵物生活館,臺北市士林區天母北路38號1樓,臺北市,士林區,ChIJ1-KBaY6vQjQR4AIf7KqjMvE
金錢貓旅宿,臺中市大甲區龍潭路61號1樓,臺中市,大甲區,ChIJvwYbBXQRaTQRY0y7pZgr-QY
淘狗有限公司,臺北市內湖區新明路298巷14弄9號一樓,臺北市,內湖區,ChIJ4cS39qirQjQRI5w_YnxFkH0
老陸企業,高雄市左營區福山里榮總路513號,高雄市,左營區,ChIJPzmMZJgFbjQR_V-yA9iBIlQ
嗚汪家寵物店,臺中市北屯區環太東路585號1樓,臺中市,北屯區,ChIJwe8HHRYZaTQRXpNNYiVgsIk
小毛宅寵物企業社,新北市淡水區新北市淡水區中山北路1段207巷9號,新北市,淡水區,ChIJ3adlNoilQjQR6Wixuihz3XI
秀狗兒寵物美容,新北市泰山區新北市泰山區明志路３段74巷1號及5號1樓,新北市,泰山區,ChIJB0apScunQjQRXR62vhHaYdQ
萬達寵物事業股份有限公司北和分公司,臺北市北投區中和街59號1至4樓,臺北市,北投區,ChIJNYTdqkSpQjQR5VgPsVBSp1Q
大小姐貓舍,臺北市大安區光復南路700號1樓,臺北市,大安區,ChIJpT1bWhOrQjQRkjOGQ5fPPMk
快樂喵寵物企業社,桃園市桃園區文中里延壽街144號1樓,桃園市,桃園區,ChIJVWBIUQAfaDQRv_goAHxAZdg
彩萌寵物會館,桃園市桃園區北埔路17巷40號,桃園市,桃園區,ChIJca16FegfaDQRRqD1ythp8AM
快樂寵物精品店,桃園市大園區大園里中山北路88號,桃園市,大園區,ChIJdQxJ554gaDQRSFR7KSi_aYQ
萬達寵物事業股份有限公司台南崑大分公司,臺南市永康區崑大路221、223、225號,臺南市,永康區,ChIJNYTdqkSpQjQR5VgPsVBSp1Q
安心肉墊寵物澡堂,臺中市大里區長春路18號1樓,臺中市,大里區,ChIJ6W9Es0k9aTQR5ngnJAVTwzc
吉比寵物精品店,新北市三重區新北市三重區力行路1段153巷2號,新北市,三重區,ChIJbWvsgZ-pQjQRIUcegtySV20
合歡寵物旅館,新北市三峽區溪東路233巷45弄28號1樓,新北市,三峽區,ChIJQ90SF30baDQRDhhCkm5QzU0
波士頓寵物美學社,臺中市大里區文心南路1316巷2號1樓,臺中市,大里區,ChIJZ_XZN188aTQRv25kPYXXKxI
捷秀有限公司,臺南市仁德區後壁里7鄰中正路二段224號1樓,臺南市,仁德區,ChIJfR1wDKp2bjQRz9FLe5LMHyY
達菲寵物沙龍,高雄市左營區至真路155號,高雄市,左營區,ChIJp81vfmUFbjQRbEAHvLbOrMY
樂活寵物居家生活館,桃園市蘆竹區羊稠里中山北街89號,桃園市,蘆竹區,ChIJE30bEUehQjQRgXDbQ07peMk
樂豪寵物貓舍,新北市板橋區中正路348號1樓,新北市,板橋區,ChIJ1_VwabypQjQRmW2ThkGDNkQ
醬心寵物旅行館,新北市蘆洲區新北市蘆洲區永平街32巷45弄14號,新北市,蘆洲區,ChIJR4JtH42pQjQR0IsAAXV-kas
得水集寵股份有限公司,臺北市文山區木柵路二段27號1樓,臺北市,文山區,ChIJJeZfJBmrQjQRggiayPk_bro
貓遇貓寓商行,臺南市北區文賢路1122巷13號,臺南市,北區,ChIJQUEfFGx3bjQRn6zmAEA6a0E
森沐寵物會館,臺南市中西區成功路291號1樓,臺南市,中西區,ChIJxzUjLwB3bjQRaSnj068waco
萌萌貓企業社,臺南市東區東平路117號,臺南市,東區,ChIJhXkBl6N3bjQR0U3s6tARS34
寵牠寵物美容,新北市板橋區新北市板橋區德興街37巷16號1樓,新北市,板橋區,ChIJhSk0CIsDaDQRzBABWV__-wc
毛善有限公司,桃園市龜山區文化一路320號2樓,桃園市,龜山區,ChIJEXuabW6nQjQR1L-dTSALPi8
咪寵愛商行,高雄市三民區鼎中路170號1樓,高雄市,三民區,ChIJaQNntygFbjQRqMGRojRYWik
萬達寵物事業股份有限公司-頂溪分公司,新北市永和區中山路1段24號1樓,新北市,永和區,ChIJNYTdqkSpQjQR5VgPsVBSp1Q
艾芠有限公司,臺北市中正區信陽街9號2樓,臺北市,中正區,ChIJyZGGTe2pQjQRHfRWkbdhwiI
淘氣族寵物用品店,高雄市三民區自立一路93號,高雄市,三民區,ChIJ5wzvPGAEbjQRBdiYedyDR3o
喵星人貓舍幼貓寵物店,新北市中和區中山路三段229巷1號1樓,新北市,中和區,ChIJd0b2WnOpQjQReuJKIFxkZ0A
黑丘寵物沙龍,臺南市仁德區後壁里19鄰德善路259號1樓,臺南市,仁德區,ChIJUx4cir5zbjQRKYxg9S674Tc
咘啦格寵物實業社,新北市土城區土城區中央路4段291號,新北市,土城區,ChIJ0-xg9Y0caDQRBxdc8E9sh0o
派特餐飲有限公司,臺中市南屯區公益路二段959號之1號2樓,臺中市,南屯區,ChIJqZDPj_s9aTQR-2iitUdW3Ps
栗子狗寵物生活館,臺中市東區旱溪東路一段290之1號,臺中市,東區,ChIJdzlOEfM9aTQR-GnreUI2Fwk
菩鑫有限公司,高雄市左營區文府路75號1樓,高雄市,左營區,ChIJW5z5m10FbjQR1t8VMZVpvzQ
乙珍寵物美容精品百貨,高雄市大寮區進學路1-1號,高雄市,大寮區,ChIJRQidr5wbbjQRpzW__GIRJdg
萌旅寵物美容旅館,臺南市新市區大營里2鄰豐榮59之21號,臺南市,新市區,ChIJqVkEw-p7bjQRsoxoM4Sz28c
萬達寵物事業股份有限公司雙和分公司,新北市永和區中正路185號1樓,新北市,永和區,ChIJNYTdqkSpQjQR5VgPsVBSp1Q
好寵企業有限公司,臺北市大安區信義路三段75-1號1、2樓,臺北市,大安區,ChIJ7Y_WWNWrQjQRCWcDXuLhE1I
有怪獸企業有限公司,臺中市西屯區市政北一路1號3樓,臺中市,西屯區,ChIJaanGsO09aTQRc5eqioQNwlc
林水梨商行,新北市淡水區淡金路38巷33-20號1樓,新北市,淡水區,ChIJzebFfxevQjQRJKrPXAQBrz8
永樂健康有限公司永和營業所,新北市永和區福和路328及330號1樓,新北市,永和區,ChIJaXqThLmpQjQRhxKAOA1LnZ8
毛旅企業社,臺北市中山區台北市中山區長安東路二段232號一樓,臺北市,中山區,ChIJcwLVUV2rQjQRe_yzF_mMEdA
寵物家人企業行,高雄市三民區鼎山街276、278號,高雄市,三民區,ChIJzY7hjCEFbjQR3jglzFekHSQ
萬里福田寵物城堡有限公司,臺北市中山區中山北路三段31號3樓,臺北市,中山區,ChIJbx-ZJ9WpQjQRlR6sYO7JWWQ
嬌滴滴寵物園,高雄市前鎮區崗山中街50、52號,高雄市,前鎮區,ChIJTTrqFVcDbjQRub51i1QZ9K4
就是愛寵物精品旅館,高雄市左營區新庄仔路409號1、2樓,高雄市,左營區,ChIJuYsHu_AFbjQR9yRScCGI8v8
東森寵物雲股份有限公司小港宏平分公司,高雄市小港區宏平路432、434號,高雄市,小港區,ChIJgb7M5NocbjQR0bB9AimAT8I
欣薇達寵物精品沙龍,臺北市中山區長安東路二段228號,臺北市,中山區,ChIJh6Oda92rQjQR2Eaasap_1xE
萬達寵物事業股份有限公司興南分公司,新北市中和區興南路1段43號、45號1樓,新北市,中和區,ChIJNYTdqkSpQjQR5VgPsVBSp1Q
高屋寵物股份有限公司,臺北市中山區敬業一路128巷8號1樓,臺北市,中山區,ChIJYYXJkdStQjQRtzrbWMl0lII
張羅企業社,臺北市士林區士東路18號1樓,臺北市,士林區,ChIJ0bONWpavQjQR8qUDMY_n7zc
啵好寵物生活館,臺北市中山區北安路472號1樓,臺北市,中山區,ChIJJ_6HjmKtQjQRrRi2Hm5LWeY
咩皮鍋吉貓屋,高雄市左營區崇實里29鄰先勝路50號1樓,高雄市,左營區,ChIJ2TGlVeYFbjQRnefy-Q49vEo
貓掌櫃會館,高雄市前鎮區台鋁南巷8號,高雄市,前鎮區,ChIJJ-8_BB8DbjQRBfBXeyXTfFc
萬達寵物事業股份有限公司新中分公司,新北市新店區中正路255號1樓,新北市,新店區,ChIJT2Owz_4BaDQRfLkCmf-86R8
唯婕寵物沙龍,桃園市龜山區精忠里光峯路159號,桃園市,龜山區,ChIJjUpQnk8faDQRfg7heGQvzE8
寵愛有家寵物沙龍,新北市樹林區太平路63號1樓,新北市,樹林區,ChIJ74GtxLsdaDQRp1da-x5xr1M
北歐三狗有限公司,臺北市松山區八德路三段224號1樓及2樓,臺北市,松山區,ChIJTWOwSsCrQjQRiRsxffUlVR0
米古咪古寵物生活館,新北市三重區三重區仁義街347號1樓,新北市,三重區,ChIJAfluiyOpQjQRsYK2BltiHNE
大安旺旺愛犬屋有限公司,臺北市大安區復興南路一段321號6樓及6樓之2,臺北市,大安區,ChIJ7cGNntOrQjQRQwWO5YMJuaA
艾菲雅寵物美容,高雄市仁武區安樂一街169巷105之1號1、2樓,高雄市,仁武區,ChIJA8KipT0RbjQRlBUmBlKv4dI
萬達寵物事業股份有限公司汐新分公司,新北市汐止區新興路3號1樓,新北市,汐止區,ChIJNYTdqkSpQjQR5VgPsVBSp1Q
曉邑有限公司,臺中市南區有恆街146號4樓,臺中市,南區,ChIJTVztD8o9aTQRast_TU8DYRE
周佳名犬屋,臺中市北區天津路二段150號1樓,臺中市,北區,ChIJ9_5Wf4Y9aTQRmRLizFHPHpo
明晞有限公司,臺中市北屯區北華街119號1樓及地下1樓,臺中市,北屯區,ChIJf-w8jVA9aTQRyXEZq_LCwfk
煦的幸福空間號,臺中市東區東光園路149號1樓、2樓,臺中市,東區,ChIJXS3lV009aTQRIo8TySt8m9Q
喵吉拉渡假村,臺北市中正區臺北市中正區金山北路1號13樓,臺北市,中正區,ChIJd1trZpipQjQR1vv-qxN_tpA
樹洞寵物旅店,臺南市善化區光文里19鄰民生路287號,臺南市,善化區,ChIJt1Toshl7bjQRiI6ad6TsWBo
小苑子寵物美容,新北市板橋區民生路3段108號1樓,新北市,板橋區,ChIJAV4iwcqpQjQRYOZs1RUCv4w
魚中魚樂活有限公司八德分公司,桃園市八德區桃園市八德區茄明里中華路263-2號,桃園市,八德區,ChIJ3Wf6VowfaDQR91i3GgycEBU
安宇寵物,桃園市蘆竹區大興八街91號1樓,桃園市,蘆竹區,ChIJCfW2oLShQjQReAGfqspbkWQ
幸福寵物生活館,臺北市信義區和平東路三段283號1樓,臺北市,信義區,ChIJM0y8VDaqQjQRQIGS2cE_VVE
台灣皇爵貿易股份有限公司,高雄市楠梓區後昌路811號1、2樓,高雄市,楠梓區,ChIJR6JgGyYPbjQRohh1MoQJvyU
台灣皇爵貿易股份有限公司自由分公司,高雄市左營區自由三路250之1號,高雄市,左營區,ChIJR6JgGyYPbjQRohh1MoQJvyU
旅行貓咪行,新北市汐止區鄉長路1段21號1樓,新北市,汐止區,ChIJ5_IRxMRTXTQRxgCgVx7lZd4
漂亮寶貝愛犬美容專坊,高雄市鳳山區大明路128巷1號,高雄市,鳳山區,ChIJzzDS9FMbbjQRrGGS2LizJMA
三中東區啦啦寶都股份有限公司(南館),臺中市東區進德路600號,臺中市,東區,ChIJs_AuSHE9aTQR53GNrtvGVUk
東森寵物雲股份有限公司板橋雨農分公司,新北市板橋區新翠里雨農路54號1樓,新北市,板橋區,ChIJySrF17GpQjQR_ot4oe0ibfQ
東森寵物雲股份有限公司新莊中正分公司,新北市新莊區新莊區中正路102、104號1樓,新北市,新莊區,ChIJJSIbB5epQjQRDF2YwjXvitc
寵曖狗狗生活館,臺中市中區民族路223號1樓、2樓,臺中市,中區,ChIJX-QajDE9aTQR0PRfGOo_rLw
貓咪安心庇護工作坊,臺中市大里區東明路136號12樓之3,臺中市,大里區,ChIJO7Z7DH49aTQROgx0nFl75aw
查克音國際有限公司,臺中市西區臺灣大道二段311巷1弄30號1樓,臺中市,西區,ChIJ5a9hZRI9aTQR2fsJn4pptXU
東森寵物雲股份有限公司永和得和分公司,新北市永和區得和路409號1樓,新北市,永和區,ChIJRagAGTupQjQRozB5Mi9sTwg
日升寵物用品店,臺中市豐原區豐原大道一段257號,臺中市,豐原區,ChIJC-5ChdMRaTQRAMVMhVsyRyE
汪汪大師寵物店,臺南市東區府連路184號1樓,臺南市,東區,ChIJnwoaKyh3bjQRfxjLnyrRDVs
阿德里安實業有限公司,高雄市楠梓區德民路418號,高雄市,楠梓區,ChIJe4jOtqEPbjQRydNsE4mxXcI
九窩寵物旅館,新北市板橋區長江路2段217巷2弄2號1樓,新北市,板橋區,ChIJaZ9QOZ-pQjQR3Nj9s9O-T_E
米頡寵物美容,新北市三重區仁愛街709號1樓,新北市,三重區,ChIJH_HvqNGoQjQRgmwzPFTn8OE
忠心寵物美容生活館,高雄市三民區大福街239號,高雄市,三民區,ChIJu4ItLPoFbjQRXZZPSe7a5KU
熊愛洗寵物美容沙龍,臺中市南屯區忠勇路52-228號1樓,臺中市,南屯區,ChIJ64haYW8_aTQRgMWFYdqddpM
浴旺森林狗貓生活館,臺中市南屯區五權西路二段365號1樓,臺中市,南屯區,ChIJE0hpr0Q9aTQR9S96VvUu2zQ
花沐寵物美容精品館,臺中市北屯區松竹路二段259號1樓,臺中市,北屯區,ChIJUR_znpQXaTQRqLQaM6k4i28
萬達寵物事業股份有限公司台中北屯分公司,臺中市北屯區北屯路279之2號,臺中市,北屯區,ChIJNYTdqkSpQjQR5VgPsVBSp1Q
臻材有限公司,高雄市左營區華夏路1062號,高雄市,左營區,ChIJi_PwVi8FbjQRfeRVrRW2OhQ
佳綵寵物精品工坊,臺中市南屯區大光街121號1樓,臺中市,南屯區,ChIJjXFT_rWlbjQRpNQAFeOgaB4
宿洗寵物工作室,臺中市清水區新興路142之1號,臺中市,清水區,ChIJmenESUgVaTQRTXHdVM5V-I8
愛波寵物工作坊,臺中市西屯區福科路910號1樓,臺中市,西屯區,ChIJRfo8CK0VaTQR5S0Bozb_jHc
踏踏貓生活館,臺中市大雅區雅環路二段26巷37號2樓之3,臺中市,大雅區,ChIJFZ9keoAXaTQRK23IfuZMrOw
佳晟寵物美容旅館青埔店,桃園市中壢區洽溪里公園路二段250號,桃園市,中壢區,ChIJQUXchS8haDQRjzF8LrVsrbI
最愛高齡寵物服務企業社,臺中市清水區八德路四段80號,臺中市,清水區,ChIJgYUPObATaTQRDb7gGABAhac
東森寵物雲股份有限公司台南新市分公司,臺南市新市區新市里14鄰中正路365號,臺南市,新市區,ChIJJcUQHwN7bjQRxm3yh9yjxtA
米乓肉圓商行,臺中市西屯區西屯路三段宏福三巷2之10號1樓,臺中市,西屯區,ChIJgcQNtxkWaTQRYdJI-EDe_FM
毛澡盆寵物生活館,新北市中和區市民街2號1樓,新北市,中和區,ChIJyU2aNgADaDQRYvkxuPqbUOA
撼寶寶寵物新生活館,高雄市楠梓區樂群路259號,高雄市,楠梓區,ChIJ92jRXL0PbjQR7NKdHXTbmhc
寵老闆寵物美容,高雄市小港區港平路98號,高雄市,小港區,ChIJ_VqN2kYDbjQR_L0X9ah3aCo
寶妮寵物美容坊,新北市蘆洲區民義街22巷13號1樓,新北市,蘆洲區,ChIJPZXVBcuoQjQRxIJK07rJLvs
萬達寵物事業股份有限公司台南安南分公司,臺南市安南區北安路三段179號,臺南市,安南區,ChIJNYTdqkSpQjQR5VgPsVBSp1Q
長春商行,臺中市西屯區西屯路二段17之1號地下1樓,臺中市,西屯區,ChIJSW0tdCwWaTQRsocCcue0VM8
悠樂寵物有限公司,臺北市大同區平陽街25號1樓,臺北市,大同區,ChIJqenV__GpQjQRZWSXMICN8Pk
秐橙有限公司,臺北市中山區雙城街49巷9-6號1樓,臺北市,中山區,ChIJywm6_HYECIcRxN968jlgl4s
大爺股份有限公司寶湖分公司,臺北市內湖區民權東路六段166號1樓及2樓,臺北市,內湖區,ChIJCYhO6nqsQjQRA3zwFx2PO3M
俊妍手做商行,新北市中和區中安街178巷13弄8號1樓,新北市,中和區,ChIJaTSS3tipQjQRSWbMIBDSFqY
阿毛寵物旅店,高雄市仁武區仁勇東巷230號,高雄市,仁武區,ChIJe142odAbbjQR2OaP660zobM
狗苑子寵物沙龍,臺中市大里區大里路128號1樓、2樓,臺中市,大里區,ChIJZ54T5bA9aTQRvNZARCTOY_8
添柴日本柴犬專賣店,臺中市西屯區福雅路81號1樓,臺中市,西屯區,ChIJm3tJjLMVaTQR7aqpNh1PKt8
東森寵物雲股份有限公司小港桂陽分公司,高雄市小港區桂陽路115號,高雄市,小港區,ChIJCWo9hMMdbjQRCxlKq8og_oE
萊恩生活有限公司,桃園市楊梅區永寧里環南路240號1樓,桃園市,楊梅區,ChIJ7bLPw14jaDQRO4GZuNF607c
洞伴樂齡寵物照護企業社,臺中市東區育英路37之21號1樓、2樓,臺中市,東區,ChIJY5DkNwA9aTQRU-WNbxeeYG8
狗狗將好狗居有限公司,新北市八里區八里區頂寮三街52巷2號,新北市,八里區,ChIJua50viuvQjQRqSdP4tbFc3c
東森寵物雲股份有限公司土城中華分公司,新北市土城區中華路一段235號1樓(土城區中央路一段318巷20號1樓),新北市,土城區,ChIJQapsaTipQjQR_0cLJsG4OZw
萌寵天下寵物坊,臺南市白河區庄內里7鄰裕農路360號,臺南市,白河區,ChIJh5jMco13bjQRCZ9TZwlA_1A
東森寵物雲股份有限公司仁武仁雄分公司,高雄市仁武區仁雄路33號,高雄市,仁武區,ChIJOwjz4LEabjQR60h_v9NovSQ
狗城堡寵物沙龍,新北市土城區中央路1段45巷7號1F,新北市,土城區,ChIJ0-xg9Y0caDQRBxdc8E9sh0o
寵愛窩寵物美容館,新北市土城區學成路156號1樓,新北市,土城區,ChIJBbCDgFkDaDQRREs-YSTQqNU
九八貿易有限公司,高雄市鼓山區文忠路86號,高雄市,鼓山區,ChIJjXPkUwcFbjQROoEm9I5C4A4
愛迪兒寵物美容工作室,臺中市南區美村路二段293巷6號1樓,臺中市,南區,ChIJD1be3Ko9aTQRQbn-hhKd2G8
帕彼愛逗寵物精品時尚館,臺南市東區東門路二段240號,臺南市,東區,ChIJRbI6upl2bjQRyejuaY3GBkI
小毛頭寵物沙龍旅館,桃園市桃園區文中三路60號1樓,桃園市,桃園區,ChIJVep02L4faDQRFQVqLxX1hoE
萬達寵物事業股份有限公司大有分公司,桃園市桃園區大有路581號1樓,桃園市,桃園區,ChIJNYTdqkSpQjQR5VgPsVBSp1Q
洗洗睡寵物美容,桃園市蘆竹區興福街207之2號1樓,桃園市,蘆竹區,ChIJgQBPzU8haDQRKGYSycahFwc
艾許寵物沙龍工作室,桃園市桃園區文中里正光一街88號1樓,桃園市,桃園區,ChIJw66mAQAfaDQRRkwUq5BmWBI
庠陞寵物旅館,桃園市八德區永福西街32巷3號,桃園市,八德區,ChIJu0iAKMAfaDQRO-0EBIiViiI
奇宸寵物店,桃園市桃園區明德里中埔六街177號1樓,桃園市,桃園區,ChIJUajcCX4faDQR2GFcY2-aomQ
沐沐卡夫寵物實業社,桃園市桃園區中成里慈文路635巷23號1樓,桃園市,桃園區,ChIJZxYWYAAfaDQR3KZ0nDFtmJ8
臭寶貝實業社,桃園市桃園區中平路177號1樓,桃園市,桃園區,ChIJd6Si3hUjaDQRl8KRqLuGpys
龍慈寵物工作坊,桃園市中壢區後寮里龍慈路83號1樓,桃園市,中壢區,ChIJNUY4Nc0jaDQRZOwcDyUlA18
樓上遇見貓商行,臺北市松山區臺北市松山區南京東路三段256巷47號1樓,臺北市,松山區,ChIJ_2wxd3mrQjQRxdIFPA73n80
東森寵物雲股份有限公司路竹中山分公司,高雄市路竹區中山路1205、1207、1209號,高雄市,路竹區,ChIJCSNN5eUNbjQREXyK0WHcpAc
東森寵物雲股份有限公司岡山柳橋分公司,高雄市岡山區柳橋西路6、10號,高雄市,岡山區,ChIJadc4SRQNbjQRQlZPTLhV0Yg
東森寵物雲股份有限公司苓雅大順分公司,高雄市苓雅區大順三路218號1樓,高雄市,苓雅區,ChIJU5uZLccEbjQRQ4iBYUjI3o8
東森寵物雲股份有限公司楠梓藍昌分公司,高雄市楠梓區藍昌路421、423、425號 1樓,高雄市,楠梓區,ChIJ8fE3iQsPbjQRYQWtrpT-1Pk
巴蒂寵物旅館,新北市板橋區文化路1段136巷10號1樓,新北市,板橋區,ChIJJ2DgyJOpQjQR8PzfpQKad8Y
寵愛有加股份有限公司,臺北市大安區安和路二段41號1樓,臺北市,大安區,ChIJ0WKy2k-pQjQRosyByDSR_HI
大魚寵物有限公司,臺中市大里區國光路2段505號1樓,臺中市,大里區,ChIJP7oj6L89aTQRfa2GF-W4okY
千千寵物美容工作室,臺南市鹽水區岸內里10鄰和平路742號,臺南市,鹽水區,ChIJH-AyoBqEbjQR9YBbPdtFwNI
小魔女貓屋一番店,高雄市楠梓區大學十九街158號,高雄市,楠梓區,ChIJh1mmV-IPbjQRCAP9nl-xawo
米默毛孩寓所,臺中市北屯區北屯路447之5號1樓,臺中市,北屯區,ChIJO4kFUF4XaTQRI6-hs24puHQ
飽屋寵物美容,臺中市西屯區大隆路72號2樓,臺中市,西屯區,ChIJ-ShZIFs9aTQRpPCDuPrVC_M
幸福毛球有限公司,臺中市北屯區南興一路28號1樓,臺中市,北屯區,ChIJj_UvhPsXaTQRfish8QBAlAU
大魚寵物有限公司文昌分公司,臺中市北屯區文心路四段806號1樓,臺中市,北屯區,ChIJqY9W5ecXaTQRxmIL2ZQ-jHg
貓阿舍寵物旅館,高雄市三民區嫩江街129巷4號1、2樓,高雄市,三民區,ChIJ-6-t6kEFbjQRvxbTFcaRkaw
貓咪壹零壹寵物精品館,臺中市北區進化北路396之5號1樓,臺中市,北區,ChIJKYHbUX09aTQRjgVyO2OV4RE
派滋威寵物沙龍,新北市板橋區貴興路67號1樓,新北市,板橋區,ChIJnUbgV68CaDQRMzkRHBMRZ6A
搖尾巴寵物美容館,高雄市鼓山區鼓山一路137號,高雄市,鼓山區,ChIJa2D0mVAFbjQRb-J0MjAB0mY
遇見寵物生活館,桃園市龜山區樂善里樂學一路122號,桃園市,龜山區,ChIJ_8DVYLOnQjQRcWYTIG1WRj4
握握手寵物工坊,高雄市鳳山區南江街6號,高雄市,鳳山區,ChIJhU8duVEDbjQRMXXA-QgDLRQ
誼文寵物生活館,臺北市中山區中山北路三段55巷22號(代表號)等,臺北市,中山區,ChIJUzuzi0-pQjQRih9Xzc94508
鳳甲寵物店,高雄市鳳山區南華一路133號,高雄市,鳳山區,ChIJ2Q8cWE0DbjQRinI-83u4i-Y
新鑫犬舍,臺南市新營區新南里23鄰復興路672之1號,臺南市,新營區,ChIJWaThN-SPbjQRYHdmsCjiggg
毛言毛語寵物商行,臺中市南屯區春安二街36號,臺中市,南屯區,ChIJFd4oSQA_aTQRQ6gat2URDfU
三中東區啦啦寶都股份有限公司(北館),臺中市東區進德路600號,臺中市,東區,ChIJs_AuSHE9aTQR53GNrtvGVUk
食尚休閒餐飲有限公司,高雄市前金區中華三路6號,高雄市,前金區,ChIJNZK8Mu4FbjQRqB9u97EMMrI
皇良寵物生活館,臺北市大同區承德路二段6號1樓,臺北市,大同區,ChIJFSFFumupQjQRamuZk9Sh2o4
萌點寵物美容工坊,高雄市鳳山區文中街164號,高雄市,鳳山區,ChIJieCa3eEbbjQRe-NBiJccQJg
好窩犬舍,新北市永和區中正路512號1.2樓,新北市,永和區,ChIJ24n5M-apQjQRQP7J_e7c7oQ
貓裡居有限公司,新北市林口區四維路245巷18號1樓,新北市,林口區,ChIJs6Z7MJanQjQRO6d2kcD44K4
萌下巴毛孩企業社,臺中市南區工學北路140號,臺中市,南區,ChIJk8KPQhQ9aTQRcrH2SfScDVA
優洗趣有限公司,桃園市中壢區領航南路三段350號,桃園市,中壢區,ChIJNy5yL-AhaDQR6y5_bIV746k
萬達寵物事業股份有限公司新莊佳瑪分公司,新北市新莊區幸福路716號1樓,新北市,新莊區,ChIJNYTdqkSpQjQR5VgPsVBSp1Q
毛居寵物生活館,臺南市南區萬年五街248巷1號,臺南市,南區,ChIJW8D-zVJ1bjQRc-pyrlxPc3M
浣熊寵物美容,高雄市鳳山區瑞順街125巷12號,高雄市,鳳山區,ChIJhdfZJv8bbjQRFKi1_vFB12c
宜家宜犬寵物精品館,臺北市松山區八德路四段259號1樓,臺北市,松山區,ChIJ3yJX2ZWrQjQRM3ZpOXWwdp0
綠棧道寵物旅館沙龍,高雄市楠梓區興楠路27號,高雄市,楠梓區,ChIJg3wHoNYPbjQRyyeLO4mtlJU
魚中魚樂活有限公司北屯分公司,臺中市北屯區文心路四段319號1樓,臺中市,北屯區,ChIJnwHAJtsXaTQRb5VdtWLUMKQ
逗米寵物沙龍,臺中市豐原區圓環東路277號1樓,臺中市,豐原區,ChIJF6jY5JobaTQRqERjOrvWbA0
有你寵物美學沙龍,桃園市桃園區國豐三街203號1樓,桃園市,桃園區,ChIJ5WP-cL4faDQRLLjR6bNfYbI
犬太寵物生活館,新北市中和區景新街383巷74號1樓,新北市,中和區,ChIJ18klqQwCaDQRRD6lCdqZAm8
貝貝窩寵物美學生活館,高雄市楠梓區大學二十一路237巷6號,高雄市,楠梓區,ChIJ9dOl7gwPbjQRaYgzj_lCHTc
美力生寵物生活館,臺南市中西區大同路一段62號1樓,臺南市,中西區,ChIJY2Wc2YV2bjQRqDI6wdD1zIg
包妮寵物店,高雄市鳳山區大明路185號1樓,高雄市,鳳山區,ChIJL0aWdYgFbjQRl9xDUdgKDvA
小尾巴客棧寵物旅館,臺南市安平區安平區慶平路689號2樓,臺南市,安平區,ChIJnRjkkRp3bjQRSHLD8TqYt54
小品養殖行,臺南市仁德區中洲里6鄰中洲路667號1樓,臺南市,仁德區,ChIJTTL2e25zbjQRPCzNcp3hYzI
萌寵生活館,新北市新莊區昌隆街58巷1弄1號1樓,新北市,新莊區,ChIJtQyCm4upQjQR8JNhhdnzQR0
拾壹貓舍有限公司,高雄市鳳山區立德街228號,高雄市,鳳山區,ChIJazpMI-MbbjQRciEQdSAjYAc
樂兒國際有限公司,臺北市內湖區民權東路六段123巷34弄19號1及2樓,臺北市,內湖區,ChIJC1dOPpusQjQRUxnxZro__gE
寵物私語店,臺南市安平區健康二街531號1樓,臺南市,安平區,ChIJ2eHO1w92bjQRaWRUvvYnEYA
搖滾獸工作室,新北市五股區新北市五股區芳洲一路86號,新北市,五股區,ChIJx9Zfn2OpQjQRFL8Igd_epj4
東森寵物雲股份有限公司前金自強一店分公司,高雄市前金區自強一路138號及140號1樓,高雄市,前金區,ChIJXdidJcAFbjQRf4lm0RagWsc
豪小子寵物精品有限公司,高雄市小港區中安路690之5號1樓,高雄市,小港區,ChIJMzwN5L4cbjQROg7U4l0yZeM
莫莉家寵物美容旅館,新北市中和區景平路59之17號1樓,新北市,中和區,ChIJQT0n-Y8DaDQRcBYJK7fQb50
咘鈴寵物館,新北市板橋區大觀路三段142-1號1樓,新北市,板橋區,ChIJod94fDgdaDQRKEXddI4ZtSk
郁笙有限公司,臺北市南港區成福路82號,臺北市,南港區,ChIJq-VdIwCrQjQRLMIIwgb_H0Y
朝代寵物有限公司,臺北市大安區基隆路二段232號1樓,臺北市,大安區,ChIJL0Iv8HGrQjQRu5V5072Bu64
東森寵物雲股份有限公司大直北安分公司,臺北市中山區北安路554巷31號1樓及地下1樓,臺北市,中山區,ChIJRXXygM2tQjQRh5TYBx8JtJ8
萬達寵物事業股份有限公司五甲二店分公司,高雄市鳳山區五甲一路298號,高雄市,鳳山區,ChIJbZ-fKY8bbjQR9tXwu7h5fC0
卷毛有限公司,臺中市北屯區敦富五街37號,臺中市,北屯區,ChIJzUZU1IgXaTQRh0WVeTzCTIE
咪妮生活館有限公司,新北市新店區新店區中興路3段170號,新北市,新店區,ChIJMbO99vkBaDQR0HHpm0jcMD8
萬達寵物事業股份有限公司前鎮瑞隆分公司,高雄市前鎮區瑞隆路480號,高雄市,前鎮區,ChIJNYTdqkSpQjQR5VgPsVBSp1Q
逗卡寵物生活館,新北市林口區中山路565號1樓,新北市,林口區,ChIJN5b1ZnunQjQRsSLk2s-DolU
王子與公主寵物美容,高雄市左營區西陵街94號,高雄市,左營區,ChIJ4Q7sQvYFbjQRo2FqKNkg4CQ
犬弟寶寵物店,臺中市北屯區平興街2號1樓、2樓,臺中市,北屯區,ChIJH3nVm-4XaTQRKX6OQDz__uo
喵可美學,臺中市西屯區大墩二十街103號1樓、2樓,臺中市,西屯區,ChIJMQ3jN3M9aTQRGrultEEIx1o
花花萌寵屋,臺南市東區中華東路二段185巷16號,臺南市,東區,ChIJhXkBl6N3bjQR0U3s6tARS34
冠蓉寵物用品店,新北市新店區北新路2段187之1號1樓,新北市,新店區,ChIJd_nLk_kBaDQR1bsE0BPz_eg
好日子寵物犬屋,臺中市大里區中興路一段2巷263弄1號1樓,臺中市,大里區,ChIJH9J66OM9aTQRcNuCH3ZwuAY
慈愛生物科技股份有限公司,臺南市仁德區仁德里18鄰文華路三段448號2樓,臺南市,仁德區,ChIJwUr4kHh2bjQROxWW5f7buOM
慈愛生物科技股份有限公司仁德分公司,臺南市仁德區仁德里18鄰文華路三段448號1樓,臺南市,仁德區,ChIJwUr4kHh2bjQROxWW5f7buOM
花繆繆寵物生活館,新北市林口區文化三路二段115巷16號,新北市,林口區,ChIJd4_zSGGnQjQRmP5SZa5n6hU
三天二夜有限公司,臺北市中山區樂群三路73號2樓及75號2樓,臺北市,中山區,ChIJserBE2StQjQRBHbIRpiOLSE
狗老爸寵物美容,桃園市中壢區興南里中美路一段42號1樓,桃園市,中壢區,ChIJvYix9zQiaDQRknlpM-U3C5A
魚中魚水族寵物有限公司,新北市中和區中正路211巷13弄7號1樓,新北市,中和區,ChIJh_NZ9nsCaDQR2kIUhpYdmFo
真愛寵物美容,高雄市鳳山區自強一路214號,高雄市,鳳山區,ChIJ4dE080YDbjQRaRO_cPZE37g
好日子寵物美容,臺北市中山區北安路458巷39號1樓,臺北市,中山區,ChIJJ_6HjmKtQjQRrRi2Hm5LWeY
爪子精緻寵物沙龍店,臺北市中山區長春路3巷11弄3號,臺北市,中山區,ChIJAVsmOGipQjQRF5S4WtRw8Mk
萬達寵物事業股份有限公司新城分公司,新北市土城區金城路三段160號1樓,新北市,土城區,ChIJNYTdqkSpQjQR5VgPsVBSp1Q
澡享受寵物沙龍,高雄市鳳山區鳳南路91號1樓,高雄市,鳳山區,ChIJf5o7xXADbjQRXv_fde-fCpQ
噗荳寵物生活館,臺南市中西區南門路179之2號1樓,臺南市,中西區,ChIJB2yU8X12bjQRnZUuCSAu2RY
牠的店,高雄市苓雅區三多二路261號,高雄市,苓雅區,ChIJF46NEXQFbjQR1ogpVKDwXwU
嬌滴滴寵物園,高雄市前鎮區永豐路78-1號,高雄市,前鎮區,ChIJTTrqFVcDbjQRub51i1QZ9K4
晧晧寵物精品,高雄市前鎮區一心二路42號,高雄市,前鎮區,ChIJ1WJCAWMDbjQRLs2o_zGn09k
想見妮寵物沙龍,臺南市永康區中山南路490巷2弄10號1樓,臺南市,永康區,ChIJsXziuLJ3bjQRJtQCx4GV3OA
醬棒貓旅工作室,臺中市西區自由路一段28-5號1樓,臺中市,西區,ChIJ-y0efGc9aTQRs36czlSKmeM
華納寵物有限公司,高雄市三民區建工路796號,高雄市,三民區,ChIJCfrZGecEbjQRh3ggNMHv2LQ
洗澡趣寵美生活小舖,新北市中和區民利街42號1樓,新北市,中和區,ChIJPaRSooQCaDQRchQq8pGejAk
凱特精品貓旅館,新北市淡水區北新里北新路184巷154號1樓,新北市,淡水區,ChIJvSFvxnWvQjQR7Dd3j5RFtG0
侑柔寵物美學沙龍,新北市土城區裕生路21巷6弄21號,新北市,土城區,ChIJAW8arMsCaDQRPCOQCyL2Bds
一簍毛工作室,臺北市士林區天母西路3號5樓之20,臺北市,士林區,ChIJjUd4E_6vQjQRvC2Sw186mVE
御毛屋寵物世界,臺中市太平區樹孝路429號1樓、2樓、3樓,臺中市,太平區,ChIJJX0ODUcXaTQR_T2B0RdvjYU
漁之鄉水族館,高雄市楠梓區右昌街715號,高雄市,楠梓區,ChIJAUCBtm8PbjQRgqA1QynXiXs
佳晟寵物美容旅館,桃園市桃園區西門里民族路199之2號1及2樓,桃園市,桃園區,ChIJ46X5LXAfaDQRVern9t6ia7U
頂級寵物店,新北市板橋區南雅西路2段146號1樓,新北市,板橋區,ChIJq_-r4TOpQjQRUg6ciVT2Ojc
芳如寵物美容,新北市新莊區民安西路139巷2號1樓,新北市,新莊區,ChIJldd_Vw2nQjQRUggMaMTpfHs
萌駿寵物美容,高雄市小港區宏平路686號1樓,高雄市,小港區,ChIJJzwUdOcdbjQRfHpH2cTaIIA
留守犬有限公司,桃園市龍潭區上林里中豐路上林段358號1、2樓,桃園市,龍潭區,ChIJ70PXFCg9aDQRTRsIlK-uNWY
萌庭國際貿易有限公司,桃園市中壢區青埔里領航南路三段288號1樓,桃園市,中壢區,ChIJCx08zRohaDQRDxUX_R0H47E
東森寵物雲股份有限公司林園東林東分公司,高雄市林園區東林東路28之1號1樓,高雄市,林園區,ChIJw9qh6nvicTQRCG5w65p5kHk
芥菜籽寵物輕旅店,臺南市永康區東橋里9鄰東橋十街32號3樓,臺南市,永康區,ChIJw02KsiZ3bjQR6kgZLQ5btUM
萬達寵物事業股份有限公司_天母分公司,臺北市士林區臺北市士林區天母西路12之1、12之2、12之3號,臺北市,士林區,ChIJNYTdqkSpQjQR5VgPsVBSp1Q
毛意盎然有限公司,臺北市大同區民族西路268號1樓,臺北市,大同區,ChIJoSBJ2QepQjQRO7uuAPpY6Kw
寵霸天寵物美容坊,臺北市信義區忠孝東路5段766號1樓,臺北市,信義區,ChIJNdnFGKCrQjQRw1kkB4ZJyWQ
卡蒂家的貓有限公司台北分公司,臺北市大同區臺北市大同區延平北路二段168號,臺北市,大同區,ChIJF7t7Lo2pQjQRZghneJCR0yg
布露熊寵物美容,高雄市苓雅區河南路128號1樓,高雄市,苓雅區,ChIJjz3-HbMFbjQRppopGEHpXMg
愛貓仕實業社,新北市土城區廣明街90巷25號1樓,新北市,土城區,ChIJ3b_bKqUDaDQR18gODqIKrcI
逸洤有限公司,臺北市士林區天母東路13號,臺北市,士林區,ChIJlbuloYeuQjQRGI2KBHTsBFQ
逸升有限公司,臺北市中山區建國北路二段129號1樓及地下1樓,臺北市,中山區,ChIJO0hoDuKrQjQR3EQtmU-2_ls
金福寵物美容屋,高雄市林園區仁愛路40號,高雄市,林園區,ChIJkVRmM3zicTQRr4HyBXldBVg
貓云殿工作坊,臺北市信義區松仁路285號1樓,臺北市,信義區,ChIJK5sGak2qQjQRoojEbB6Y8sE
萬達寵物事業股份有限公司淡水中正分公司,新北市淡水區中正東路77號1樓,新北市,淡水區,ChIJNYTdqkSpQjQR5VgPsVBSp1Q
豆宅狗旅館,臺北市文山區木柵路一段328號1樓,臺北市,文山區,ChIJJeZfJBmrQjQRggiayPk_bro
平福寵物美容屋,高雄市三民區正興路104號,高雄市,三民區,ChIJCwxVfd0EbjQRpviVpiFByug
貓狗同萌有限公司,臺北市中山區新生北路一段138號地下1樓,臺北市,中山區,ChIJsQujd2apQjQReGhfaQdwqao
萬達寵物事業股份有限公司新維分公司,新北市新莊區富國路112號1樓,新北市,新莊區,ChIJNYTdqkSpQjQR5VgPsVBSp1Q
雅雅愛犬專業用品店,臺北市內湖區臺北市內湖區環山路一段63號1樓,臺北市,內湖區,ChIJ-4q1aW-sQjQRIvwTiOkA-ho
虎寶貝寵物沙龍,高雄市苓雅區建民路69號1樓,高雄市,苓雅區,ChIJdys9FRcFbjQR7VvXLDCvbdw
放飼寵物工作坊,臺中市沙鹿區賢仁街27號1樓、3樓,臺中市,沙鹿區,ChIJM3TsE7cVaTQR6O-7xx1nBR0
安安貓咪寵物工作室,臺中市大里區德芳南一街226號,臺中市,大里區,ChIJ6W9Es0k9aTQR5ngnJAVTwzc
東森寵物雲股份有限公司歸仁中山分公司,臺南市歸仁區南保里25鄰中山路三段97號1樓,臺南市,歸仁區,ChIJycVt3HxxbjQRS-zhvKCzSME
豬鼻子寵物旅館,桃園市蘆竹區中興里豪登一街166之1號,桃園市,蘆竹區,ChIJo7MsD-0haDQRbw2xGJUKmSs
維嫺企業社,高雄市鳳山區青年路二段135號1樓,高雄市,鳳山區,ChIJ1QLEEIMdbjQRhgFziuvyzHQ
狗窩商行,臺北市文山區興隆路四段86號1樓及地下1樓,臺北市,文山區,ChIJG9H6kN8BaDQRjuCnL3K9M5k
美樂蒂寵物靚坊,臺南市東區東寧路316號,臺南市,東區,ChIJw7FcEZZ2bjQRIwxIK6-AqVU
壞壞狗寵物美容住宿,臺南市北區成功路382號之1,臺南市,北區,ChIJGxKQxmB2bjQRBbO0a9HFoKc
毛多多生活館,新北市鶯歌區鳳七路290、292號1樓、夾層,新北市,鶯歌區,ChIJrWrOSjcfaDQRFA410QUz2VM
東洋犬舍,高雄市梓官區忠孝路237-1號,高雄市,梓官區,ChIJ25Ci984ObjQR3aB7vljLTlc
毛毛兄弟會寵物美容,桃園市平鎮區中庸路35號1樓,桃園市,平鎮區,ChIJE2CUBAQjaDQRC29pk2WJuag
捲球寵物沙龍館,桃園市中壢區榮安十三街270號1樓,桃園市,中壢區,ChIJY9utu3UjaDQRaaZ7XLWM75U
禹翔寵物美容,桃園市楊梅區秀才路77號1樓,桃園市,楊梅區,ChIJeULp-DM7aDQReKoOuTPr4OE
慶昇昌有限公司,桃園市平鎮區湧豐里中豐路山頂段80號,桃園市,平鎮區,ChIJW1f2pfwiaDQR6Zz0l875Su4
萬達寵物事業股份有限公司楠梓楠新分公司,高雄市楠梓區楠梓新路233號,高雄市,楠梓區,ChIJNYTdqkSpQjQR5VgPsVBSp1Q
萌小菲貓舍,臺中市太平區新福路122號1樓、2樓,臺中市,太平區,ChIJe8tLX9g9aTQRHifoV_XHp5Y
萬達寵物事業股份有限公司林口仁愛分公司,新北市林口區仁愛路2段506號,新北市,林口區,ChIJFYs_1b-nQjQRSGUFS9VAGqA
辛普森寵物概念館,臺北市北投區義理街64號1樓,臺北市,北投區,ChIJ4RnvY4uuQjQRPS4RbFsrMz0
愛狗狗旅館,臺南市北區西門路四段282號1樓,臺南市,北區,ChIJS3QbKRB3bjQRQkeiL39Cltg
有毛有限公司,臺北市松山區八德路四段649號2樓,臺北市,松山區,ChIJecK0WQGrQjQR5ONIyWDLrRk
極尚貓舍,臺中市大里區向學一路131號3樓,臺中市,大里區,ChIJ424xl0U7aTQR6IbqvXWgh-s
伏特窩寵物旅館,臺中市大雅區中山北路450巷8號,臺中市,大雅區,ChIJzTO9954XaTQRJttlZfcIex4
小步毛舍股份有限公司,臺中市北屯區環太東路503號1樓,臺中市,北屯區,ChIJb3JvTAAZaTQR1y4mYdfVMi4
桃樂貝寵物沙龍,臺中市東區台中路131號1樓,臺中市,東區,ChIJu8QuyvE9aTQR4RjaFlEbgc8
東森寵物雲股份有限公司桃園蘆竹分公司,桃園市蘆竹區福昌里南昌路266號、南順八街63號,桃園市,蘆竹區,ChIJV2xswdYfaDQRbBAdOBvu5sA
相信專業寵物美容,桃園市八德區福興里長興二路83號,桃園市,八德區,ChIJFzNCmuwYaDQR3niC_YjrscA
天郝有限公司,桃園市桃園區大興里大興路5號,桃園市,桃園區,ChIJL-6B6kweaDQRYgW68Kl0840
維緹寵物有限公司富國分店,高雄市左營區富國路8號,高雄市,左營區,ChIJHYKHdT4FbjQR_CPnXVPCFGA
黛比愛犬專業剪藝,臺南市中西區金華路四段103號,臺南市,中西區,ChIJbwgPSWZ2bjQRW-cHl1W_1LA
萬達寵物事業股份有限公司_台北忠五分公司,臺北市信義區忠孝東路五段201號、203號1樓,臺北市,信義區,ChIJNYTdqkSpQjQR5VgPsVBSp1Q
黑鼻子寵物服務有限公司,臺北市北投區自強街164號1樓,臺北市,北投區,ChIJVYkgw4ysQjQR0rFoI1Lf-Tg
宏亞寵物沙龍,新北市新店區新店區中央路5號1樓,新北市,新店區,ChIJUf1k5RwCaDQRPrKIPPO-Mik
吉弄寵物沙龍,高雄市楠梓區大學南路993號1樓,高雄市,楠梓區,ChIJjcObC2UPbjQRn6aru6fVGrI
環亞寵物用品有限公司橋頭營業所,高雄市橋頭區典昌路36號,高雄市,橋頭區,ChIJK32NdgAPbjQREm-L1Wvgtpw
維緹寵物有限公司,高雄市新興區五福二路128號,高雄市,新興區,ChIJJzXLY4UEbjQRy6IrSPp3mLE
米粒貓舍,臺中市霧峰區中正路230巷25號,臺中市,霧峰區,ChIJ99FOBG0XaTQR7I1Ot_zLhhg
寶羅寵物精品店,高雄市苓雅區三多二路290號1樓,高雄市,苓雅區,ChIJz4QTKZkEbjQRnz1tmJvdYpU
奧莉寵物美容工作室,高雄市林園區忠義三街39號1至2樓,高雄市,林園區,ChIJJfv0UejjcTQRK5hLx9yKAUQ
四葉草貓舍,新北市新店區長春路43巷58號1樓,新北市,新店區,ChIJlSS8rq8BaDQRUMiyvfT9TZ0
艾狗美寵物專業美容,高雄市小港區中安路600號1樓,高雄市,小港區,ChIJv_dWHdEdbjQRMWNLEu8ZjBM
華寵寵物生活館,桃園市桃園區信光里大連四路16號1樓,桃園市,桃園區,ChIJX9X5BrMfaDQRP_6d8W3KUmg
繆思貓咪旅館,臺中市大里區德芳路一段12號1樓、2樓,臺中市,大里區,ChIJO7Z7DH49aTQROgx0nFl75aw
必勝犬社,臺中市烏日區振興街33-7號,臺中市,烏日區,ChIJi5ahlMI-aTQRxVUFl0Y02cU
飛馬寵物用品行,高雄市三民區九如一路980號,高雄市,三民區,ChIJO67aROkEbjQRbefrn6OxoKU
喵喵屋,桃園市蘆竹區坑口里海山路一段79號,桃園市,蘆竹區,ChIJI6jiolirQjQRxzoVm6A8Ubs
瑞奇馬汀寵物店,新北市新店區北新路1段123號1樓,新北市,新店區,ChIJ8dgqKIoBaDQR1yE7mOG9FrU
微笑寵物生活館,高雄市鳳山區誠德街66號,高雄市,鳳山區,ChIJJU694xIbbjQR8SkffPkgBsE
家合寵物美容工作坊,高雄市仁武區澄合街272號,高雄市,仁武區,ChIJyRQ58KkbbjQRgZvHcpTMXBE
貓膩會館,臺北市大安區光復南路702號1樓,臺北市,大安區,ChIJRVY_SPirQjQRtSklolOmT0E
伴伴寵物美容,臺北市北投區中正街68號1樓,臺北市,北投區,ChIJmS00vZavQjQRcKQ_3F8pttk
乖狗狗寵物坊,高雄市鳳山區中山西路173號,高雄市,鳳山區,ChIJwat3SoQEbjQRTb8VRc6Kejw
中圓寵物股份有限公司,桃園市桃園區同安里中正路836號,桃園市,桃園區,ChIJ6fmkMbAfaDQRJIVtoHuGvcs
漢克哈士奇寵物名店,桃園市楊梅區桃園市楊梅區東流里中山南路688號1、2樓,桃園市,楊梅區,ChIJJVSIsJ8CaDQR8YgNeOYKTb4
星特寵物生活館,臺中市西屯區朝馬路26號1樓、2樓,臺中市,西屯區,ChIJ5y_hEZc9aTQR1ckMOLzjQaw
貓掌印別館,臺中市西區自由路一段40之6號1樓,臺中市,西區,ChIJ05svWRk9aTQR0ZJx2Hk7McQ
魚中魚樂活有限公司樹林分公司,新北市樹林區中正路103號1樓,新北市,樹林區,ChIJ_x1dKkIdaDQRfaJyUGkM-TI
派特屋有限公司,新北市新店區如意街1巷8號1樓,新北市,新店區,ChIJ_8P8-BQDaDQRlA9UYkardrQ
聽貓說貓咪旅館,新北市土城區中正路67巷33號1樓,新北市,土城區,ChIJqUGpC8oCaDQR6K_m5VEf790
卡澄寵物美容,新北市土城區福仁街14號,新北市,土城區,ChIJg5F9ItAdaDQRspklAbqwKC4
安佐樂寵物館,臺南市東區小東路248之2號1樓,臺南市,東區,ChIJXdsQYYV2bjQRrcaLerlEW68
熊汪寵物美容,高雄市苓雅區正義路150號,高雄市,苓雅區,ChIJIbZcPJcFbjQRoIQDwC49ByM
哈米寵物生活舘,新北市土城區學府路一段98巷17號1樓,新北市,土城區,ChIJYYfx3rcCaDQRWPdLyLDl-oM
萌寵企業社,新北市土城區永豐路13巷26號1樓,新北市,土城區,ChIJtQyCm4upQjQR8JNhhdnzQR0
格萊雅寵物美學館,新北市土城區廣興街27號1樓,新北市,土城區,ChIJvXD85TwDaDQRKtUrmsSJLCY
筑夢寵物美容,新北市土城區明峯街6巷35號1樓,新北市,土城區,ChIJNzb3tgEDaDQRKRpwGvbQ99Y
布逗熊寵物店,新北市新店區新店區三民路32號,新北市,新店區,ChIJE4zB1h8CaDQRZfNVco2_jdQ
貝帝寵物精品館,新北市深坑區北深路2段55巷12弄3號1樓,新北市,深坑區,ChIJVzSaJdCqQjQRBHQm5wjbcBQ
得意寵物用品店,新北市新店區北新路二段187號1樓,新北市,新店區,ChIJZWFETfcBaDQRAKYe9ESfijw
喵的地球總部喵天地寵物沙龍,新北市新店區寶慶街81號1樓,新北市,新店區,ChIJ88iuiroBaDQRFOki1HS-3KM
親穎水族設計館,新北市鶯歌區鶯桃路496號1樓,新北市,鶯歌區,ChIJiVzyfrgeaDQR9N-jzmBsJXU
幸運草貓舍,新北市鶯歌區鶯桃路594號1樓,新北市,鶯歌區,ChIJ33G6nzIDaDQRwV5Vd5uUZeg
瀟灑寵物美容,新北市永和區仁愛路287號1樓,新北市,永和區,ChIJv3ibfACpQjQR4883AkAmGx8
香永寵物美容坊,新北市三峽區大德路8號1樓,新北市,三峽區,ChIJq3Z55wocaDQR-yPh-1hGUas
阿默寵物美學,新北市三峽區三峽區國學街1號1樓,新北市,三峽區,ChIJjTvRsfUbaDQRMSHrqLYJ6p0
雪之犬寵物美容店,新北市樹林區中華路153號1樓,新北市,樹林區,ChIJG4nL6xgdaDQRrGRlJmH8jVk
瑪莎寵物美學,新北市樹林區佳園路3段486號1樓,新北市,樹林區,ChIJ1_S2g3YcaDQRM3_dPda0F-g
愛神寵物美容店,新北市土城區清水路88號,新北市,土城區,ChIJQTCL9cUCaDQRLKqEKPxT464
雅典娜寵物沙龍,新北市永和區國光路37號1樓,新北市,永和區,ChIJAaUsVMupQjQRJOfE518rErA
晟藍有限公司,新北市土城區青和街333號,新北市,土城區,ChIJJThBTA8DaDQRY11UNlpJBmg
晟藍有限公司青和分公司,新北市土城區土城區青和街329號1樓,新北市,土城區,ChIJJThBTA8DaDQRY11UNlpJBmg
萬達寵物事業股份有限公司台中西屯分公司,臺中市西屯區臺中市西屯區大隆路140號,臺中市,西屯區,ChIJNYTdqkSpQjQR5VgPsVBSp1Q
呂館寵物生活館,臺中市大里區中興路二段249巷1號,臺中市,大里區,ChIJC-vnfP0ZaTQRjni3ldLKAD8
犬家寵物美容旅館,臺中市大里區西榮路260巷35號,臺中市,大里區,ChIJEeAbsRc9aTQRnuwQj2HnwMI
頑皮狗寵物店,高雄市大寮區鳳屏一路195、197號,高雄市,大寮區,ChIJqYKmWQcbbjQRnY808kGJhMQ
田蓉貿易有限公司,高雄市鳳山區建國路二段118、120號,高雄市,鳳山區,ChIJtcwRqyQbbjQRBADY-mt0J9A
太妃工坊,臺南市東區東安路82號1樓,臺南市,東區,ChIJZzHWlb53bjQRcg2qC1VgXXU
貓家貓旅館,高雄市左營區重上街145號,高雄市,左營區,ChIJZ2kGbVUFbjQRpkWRNu_vkxg
免睏寵物樂園,桃園市中壢區青埔里高鐵北路二段97號1、2、3樓,桃園市,中壢區,ChIJ8dEMzk4haDQRMiBFPOiBwls
優蜜兒專業寵物美容,臺中市北屯區文心路四段960號,臺中市,北屯區,ChIJi9bwZO8XaTQRr3yVIwj4Y5s
旺憂有限公司忠明分公司,臺中市北區忠明路331號、333號、335號,臺中市,北區,ChIJIy9MfwI9aTQR9FS_T2VcgAU
噗滿貓舍,臺中市西屯區中清路二段1250巷5號1樓,臺中市,西屯區,ChIJV8JD0LsXaTQRR9kVjMqS3Uo
草妮瑪寵物美容,新北市板橋區溪崑二街6號1樓,新北市,板橋區,ChIJQSW1PlYdaDQRgqCtgAnPLb0
吉的寶澡堂,新北市板橋區溪北路148號1樓,新北市,板橋區,ChIJGQGB6gYdaDQRpbwpPf1fZFQ
馨動寵物坊,新北市板橋區文化路1段46巷8號1樓,新北市,板橋區,ChIJMwTb3DipQjQR3MqoxxI9tL8
蜜蜜基地寵物美容商行,新北市板橋區中正路250巷8號,新北市,板橋區,ChIJ32mgLlCpQjQR9vS5goJy9Vc
貓後苑有限公司,新北市板橋區四川路1段59號2樓,新北市,板橋區,ChIJK2ZPGUIDaDQRlcdEW1V9rEs
貓肥家貓咪旅館,新北市板橋區文化路2段45號1樓,新北市,板橋區,ChIJE4_Y0z-oQjQRz9KTRrxCRJY
普羅寵物生活館,新北市板橋區四川路一段174號1樓,新北市,板橋區,ChIJpYyQ1KUCaDQRRoe63qcpDSI
萬達寵物事業股份有限公司台南新營分公司,臺南市新營區新營區三民路152之17號,臺南市,新營區,ChIJNYTdqkSpQjQR5VgPsVBSp1Q
泰迪幼犬寵物犬舍,臺南市永康區龍埔里7鄰自強路646號1-2樓,臺南市,永康區,ChIJNwmopRxxbjQRd34cgoU5yDs
水喬寵物美容造型,新北市板橋區永豐街51號1樓,新北市,板橋區,ChIJP_n1IqepQjQRM80HjYyLxNQ
酷妮家寵物美容SPA館,新北市新莊區中興街26號1樓,新北市,新莊區,ChIJn0D6K56pQjQROO9eURapnLk
芋妮貓寵物生活館,臺北市南港區重陽路125巷16號1樓,臺北市,南港區,ChIJLQNjKQCrQjQRxJMV3vyvR7Y
新頑皮族寵物用品社,高雄市前鎮區一心一路36號,高雄市,前鎮區,ChIJN6LeK1wDbjQRtQiIjdtxT50
超級愛狗寵物沙龍,高雄市左營區民族一路1018號,高雄市,左營區,ChIJ80tiA2oFbjQRwYhVmCheADs
順竩有限公司,臺北市北投區復興四路16之1號1樓,臺北市,北投區,ChIJWW1yalGuQjQROwZ8cUGNAMs
宅貓商行,臺北市中山區民生東路二段3號1樓,臺北市,中山區,ChIJDdblKPGpQjQReaB0HgsJJiI
寵沐殿企業社,臺南市安平區健康路三段315號1樓,臺南市,安平區,ChIJg041lFN1bjQRYQp3OpKl8XA
約伯行旅,新北市板橋區民族路129巷12弄15號,新北市,板橋區,ChIJAxtBKKepQjQR1PVCDCbVjgA
喜得貓社,臺北市大安區基隆路二段102號1樓,臺北市,大安區,ChIJd_q1J8urQjQR5e4rH4B5hZY
白喵宿舍,臺中市豐原區豐原大道三段286巷58弄88號,臺中市,豐原區,ChIJkUQMMnEZaTQRMtPiRTjd648
森蕊寵物有限公司,臺南市永康區東橋里11鄰東橋一路300號,臺南市,永康區,ChIJuRGVPBt3bjQRsNMYRdlswvM
高冷貓旅館貓住宿,臺南市北區北成路72號1樓,臺南市,北區,ChIJs4CUBrp3bjQRLaJ-Ur9SXr8
甜美果寵物沙龍企業社,新北市淡水區新市三路二段289號,新北市,淡水區,ChIJF8WfdVW7QjQRPfN_h6Haw-k
噯銤寵物美容用品店,桃園市蘆竹區福興里奉化路266號1樓,桃園市,蘆竹區,ChIJf3nW5BwfaDQRrhF9XdE2JhU
懶洋洋寵物沙龍,高雄市楠梓區大學三十一街173號1樓,高雄市,楠梓區,ChIJ855Juy0PbjQRwkizDnU7yqs
佳佳寵物店,臺中市北屯區梅川西路四段285號,臺中市,北屯區,ChIJuRztMsUXaTQR-RZCuTXe58o
小毛廬企業社,臺南市北區開元路148巷43弄19號1樓,臺南市,北區,ChIJTfnk2_irQjQRSj5Z5M7fevA
澎澎寵物旅宿,臺中市清水區港都一路98號2樓,臺中市,清水區,ChIJcfePn5YVaTQRJrK-ohNr-NI
植沐寵物沙龍,臺南市新化區豐榮里2鄰正新路102號1樓,臺南市,新化區,ChIJHwlMyAlxbjQRKRWLxEzLq74
小可愛寵物店,新北市板橋區中正路360巷15號1樓,新北市,板橋區,ChIJF2xL6JepQjQR3g6VZ_tt3YA
有間寵物店 ,新北市板橋區中山路1段206巷97號1樓,新北市,板橋區,ChIJFYvsHPSpQjQRXKYLagqkFUI
宜加寵物生活館,新北市新莊區中正路380號1樓,新北市,新莊區,ChIJldVk-P6oQjQRrY1GfxtnJ28
連夢露寵物美容室,臺北市大同區承德路一段83號1樓,臺北市,大同區,ChIJVQRxYiOpQjQRNBdBTWB6pcM
日巷工作室,臺北市南港區南港路一段287巷2弄6號1樓,臺北市,南港區,ChIJxY82wOmrQjQRuHVknQ3nKN0
安若科技有限公司,桃園市平鎮區復旦里民族路二段193巷57號,桃園市,平鎮區,ChIJLQ-F164jaDQRWEv_9T4I2I0
美美狗寵物美容館,臺中市西屯區至善路38巷1號,臺中市,西屯區,ChIJU97WTjA9aTQR6T8M9sGqSPQ
汪了個喵寵物美容,高雄市楠梓區卓越路159號,高雄市,楠梓區,ChIJv3YHFXAPbjQR2kdoNIjrT9E
熊寶貝寵物精剪,高雄市三民區九如一路307號1樓,高雄市,三民區,ChIJjaw_EM8EbjQRPGbazH9PEcI
迷漾狗寵物,高雄市大寮區鳳林三路696號,高雄市,大寮區,ChIJtwly0YcbbjQRE0UDm0ZfycY
澎澎時光寵物美容,高雄市苓雅區光華一路311號,高雄市,苓雅區,ChIJ-aZktjsFbjQRzcgZAk9JDrA
永淳企業社,高雄市三民區覺民路6號,高雄市,三民區,ChIJMQye0yIbbjQRD5aSfigcqe0
萬達寵物事業股份有限公司_鼎山分公司,高雄市三民區鼎山街255號,高雄市,三民區,ChIJNYTdqkSpQjQR5VgPsVBSp1Q
皮老闆寵物旅館,高雄市三民區哈爾濱街29號2樓,高雄市,三民區,ChIJX-OHuPUEbjQRfTZkG0U6Yhk
僑美寵物美容量販,高雄市路竹區中山路786號,高雄市,路竹區,ChIJ21Q4l5kMbjQR_0N0FLsj31s
親禾寵物高鐵會館,高雄市左營區大中二路262號,高雄市,左營區,ChIJ87cV-2wFbjQR_IhEoH2qz7k
小守居企業社,臺中市太平區立文街217號,臺中市,太平區,ChIJEy84z4QZaTQRd9SUm6UVZd4
萬達寵物事業股份有限公司國光分公司,新北市板橋區國光路61號1樓,新北市,板橋區,ChIJNYTdqkSpQjQR5VgPsVBSp1Q
東森寵物雲股份有限公司左營左大分公司,高雄市左營區左營大路161、163號,高雄市,左營區,ChIJt72w85gFbjQRvtDmqmEmqXA
窩牛寵物旅館,高雄市鼓山區瑞豐街134號,高雄市,鼓山區,ChIJA9GzuKkFbjQRDat9MAQm7WE
汪芙企業社,高雄市三民區明賢街42號,高雄市,三民區,ChIJt5tveBwFbjQRz8lIHWlDDuE
相浴寵物沙龍,高雄市楠梓區惠豐街190號,高雄市,楠梓區,ChIJCRgpv6oPbjQR_90bsAO0rGE
旺太郎寵物沙龍,高雄市苓雅區正義路237號,高雄市,苓雅區,ChIJfd2xp8sEbjQRMRXxBPo83vQ
豬窩寵物美容,新北市中和區民德路60號1樓,新北市,中和區,ChIJe0RkqZoDaDQRO04ixLS9eJ4
滴塔寵物美容館,新北市中和區板南路170號1樓,新北市,中和區,ChIJz7gYIn0DaDQRAYqo_UYKbRE
尚悠寵物坊,新北市永和區永貞路443號1樓,新北市,永和區,ChIJ_15S7sSpQjQRgTtXs2tcy3A
蓁心好寵旅店,高雄市鳳山區新富路10號,高雄市,鳳山區,ChIJxVmJ884FbjQRzk3Q7r5wO0g
浪寶貝寵物美容,高雄市旗山區東新街58號1樓,高雄市,旗山區,ChIJj3pMonhrbjQR9MCoiNFUNLw
寵美空間寵物美容,高雄市三民區北平二街5巷30號,高雄市,三民區,ChIJCw4OP1cFbjQRbp4h4Bn6_Cc
啊財那裡寵物沙龍,高雄市鳳山區大東二路143號,高雄市,鳳山區,ChIJk5CKmM8bbjQRaS0D9H8Jv9U
放心寵物店,高雄市前鎮區一心一路216號,高雄市,前鎮區,ChIJ9dSW2QQDbjQRi8zr3S0AwUY
寵物派對美容生活館,高雄市鳳山區自由路165-1號,高雄市,鳳山區,ChIJMYoZyTsbbjQRmhzL5QYBye0
沐沐寵物美容,高雄市鳳山區五甲二路334號1樓,高雄市,鳳山區,ChIJhz6bp0IDbjQRXxG2dJup3X0
貝比寵物生活館,高雄市苓雅區三多三路40號,高雄市,苓雅區,ChIJWYxhT5wEbjQRBsXrGhkWPS4
小蕃薯寵物美容工作室,高雄市楠梓區德賢路248巷11弄7號,高雄市,楠梓區,ChIJVZO-ps4PbjQRZ7Q9kdn0fvQ
萬達寵物事業股份有限公司金龍分公司,臺北市內湖區內湖路三段3號1樓及地下1樓、5號地下1樓,臺北市,內湖區,ChIJNYTdqkSpQjQR5VgPsVBSp1Q
哈利寵物精緻美容,臺北市中山區林森北路643號1樓,臺北市,中山區,ChIJsZ7eAFCpQjQRyotAPyRF2e4
就甘心寵物美容旅館,臺北市中山區新生北路二段60巷16號4樓,臺北市,中山區,ChIJuVpy7WepQjQR94Tj434_l0E
俏妞寵物生活坊,臺北市南港區興中路68巷15號,臺北市,南港區,ChIJmTZ50F-rQjQR-8h_67JCNDM
奇果寵物美容生活館,臺北市信義區永吉路30巷100號1樓,臺北市,信義區,ChIJi96T_ryrQjQRwQLTdlNKUs4
毛小孩美寵興業有限公司,臺北市大安區信義路四段293號2樓,臺北市,大安區,ChIJAdyJ3sWrQjQRg_Sk4nuEL1o
有狗真好工作室,臺北市中正區中華路二段475號1樓,臺北市,中正區,ChIJoX0h6pKpQjQRAthKUKVnKtY
吳星慧寵物生活館,臺北市中山區中山北路三段53之8號1樓,臺北市,中山區,ChIJ_dcff0WpQjQR5-gWJAoEpsQ
就是貓工作坊,臺北市文山區木柵路3段85巷23弄18號1樓,臺北市,文山區,ChIJAWbiH3GqQjQRegFXUi6hcRk
喵喵屋,臺北市松山區八德路四段618號3樓,臺北市,松山區,ChIJ-7-Nm5mrQjQRQ_4FufBw_Ak
米香尼寵物美容店,臺北市中山區中山北路二段59巷3弄7號1樓,臺北市,中山區,ChIJm0SKOWipQjQRWmjYzD3eWvA
小花貓寵物生活館,臺北市文山區景興路223號,臺北市,文山區,ChIJj7lI3waqQjQRaerKuEUxcVg
愛犬小屋,臺北市松山區民生東路五段36巷6弄5之1號1樓,臺北市,松山區,ChIJ1bgwaK2rQjQR9D3CCizt3Mc
貓語花香坊,臺北市中山區復興南路一段36-2號2樓,臺北市,中山區,ChIJkwow6durQjQR_iTOd_ThhoU
樂福犬寵物生活館,臺北市文山區保儀路21號,臺北市,文山區,ChIJkVlWK3eqQjQRoQO331yjMzI
一起寵物生活館,臺北市中正區廈門街125號一樓,臺北市,中正區,ChIJW30B85apQjQRWpVmwdqz5hY
耀晟寵物坊,臺北市大安區基隆路二段130號1樓,臺北市,大安區,ChIJS06SmcyrQjQRpxzDQitydFU
金吉旺寵物有限公司,臺北市大安區基隆路二段104號1樓,臺北市,大安區,ChIJIQ3C38qrQjQRE_DVUeqF_1g
慵懶貓寵物旅館,臺北市中山區新生北路三段82號1樓,臺北市,中山區,ChIJoz2adlCpQjQRJ3c2riaOO8Y
美樂蒂寵物美容用品館,臺北市士林區延平北路五段208號1樓,臺北市,士林區,ChIJu-g2DMuuQjQR_3v5yhEqK-I
吉寵企業社,臺北市大安區基隆路二段126號1樓,臺北市,大安區,ChIJIQ3C38qrQjQRE_DVUeqF_1g
端溜桃貓屋,新北市新莊區福壽街142巷15號1樓,新北市,新莊區,ChIJ0bL3IIWpQjQRzPm1weUegD4
狗狗公園快樂狗旅館,新北市淡水區中山北路1段247巷80號1樓,新北市,淡水區,ChIJ_TqYU1SlQjQRBd5-1mI_4lU
伊芯寵物有限公司,臺北市信義區和平東路三段361號1樓,臺北市,信義區,ChIJjdNOcYSrQjQRMWeVd_G9WfA
有吉寵物店,臺北市中山區龍江路200之4號1樓及2樓,臺北市,中山區,ChIJq9VpD2erQjQRDAyclC-O3nE
聊聊貓旅館,新北市新莊區中和街155巷30號1樓,新北市,新莊區,ChIJd6SdRH-oQjQR47i704zW0TU
南京寵物坊,新北市板橋區縣民大道3段400號1樓,新北市,板橋區,ChIJUwnUF0ioQjQRvVmolNGcfuY
貓愛貓殿堂,新北市板橋區龍泉街124巷2號,新北市,板橋區,ChIJrX1cis-pQjQR1ty74b9A28c
兆綸寵物精緻旅店,新北市板橋區館前西路120號2、3樓,新北市,板橋區,ChIJ1-nFcyYDaDQRWdOvJEjmdHs
酷寶貝寵物美容工作坊,新北市新莊區中和街125巷6號1樓,新北市,新莊區,ChIJC1JoNX-oQjQRV0ZCnNhdqYw
萬達寵物事業股份有限公司文化分公司,新北市板橋區板橋區文化路2段501號1樓,新北市,板橋區,ChIJx6PH80SoQjQR2BRVvEMjnmo
喵棧行,高雄市楠梓區藍昌路285號,高雄市,楠梓區,ChIJUfzQpRQPbjQR9O84_C9qPx8
喬的貓舍,臺南市安平區育平路252號,臺南市,安平區,ChIJLXbANW13bjQRJ08P-VYsFUY
暖暖寵物澡堂,臺中市西區西屯路一段133-1號1樓、地下1樓,臺中市,西區,ChIJBWhZGwQ9aTQRGQ2cg5Z19xs
繽狗寵物生活館,高雄市三民區大豐二路403號1樓,高雄市,三民區,ChIJZYYC2NYEbjQRNo-8txJhNQo
小狗慢慢寵物美容,臺中市北屯區松山街88號1樓,臺中市,北屯區,ChIJfxY52m8XaTQRBHlNOsmue2U
波米屋寵物旅館,臺中市南屯區龍富路三段251號1樓,臺中市,南屯區,ChIJAc1jKpYVaTQRSVVtS090VUM
泰羽旺有限公司,臺中市北屯區太原路三段1365號1樓,臺中市,北屯區,ChIJc3RiIX49aTQRRECFI2IqF8s
汪悠谷寵物住宿生活館,臺中市南屯區文昌街357號1樓,臺中市,南屯區,ChIJWarya0o9aTQRgx1GNlF12IU
貝克漢寵物生活館,高雄市前鎮區七雄街92號1樓,高雄市,前鎮區,ChIJ971oO6ADbjQR9hssnJE0sGI
小犬座寵物旅館,臺南市中西區海安路一段30號,臺南市,中西區,ChIJM1pTJnZ3bjQROERXd6514_c
毛茸茸寵物沙龍,臺南市安南區安和路一段41號,臺南市,安南區,ChIJL_D2KCp3bjQReQcR-Kt1PUE
幸福寵物自助澡堂舘,臺南市南區福吉二街88號,臺南市,南區,ChIJQ1iBgnd2bjQR6DXVATvy7Mk
DoDo寵物沙龍旅館,桃園市觀音區桃園市觀音草漯區里德一街92號1樓,桃園市,觀音區,ChIJm1XhwQonaDQRRR1Rz44RJGg
美露寵物旅館,高雄市三民區民本街12號,高雄市,三民區,ChIJAe7bbSwFbjQR_UYuB_ei9ps
中圓寵物股份有限公司八德分公司,桃園市八德區瑞發里介壽路二段1076號,桃園市,八德區,ChIJD18xfOUYaDQRz0Xhwlj426s
嚕卡毛孩工作室,高雄市前金區成功一路352號,高雄市,前金區,ChIJNVTWY3AFbjQR6G5bWJ0VmFY
長鴻寵物館,新北市中和區景平路396號1樓,新北市,中和區,ChIJQVZJP3QCaDQRbMxOr8Jouco
哈基咪寵物生活館,臺南市南區灣裡路324巷2號,臺南市,南區,ChIJWWNQlDl1bjQRaNfS6wZGBLw
茱莉寵物美容工作室,高雄市苓雅區林森二路92號,高雄市,苓雅區,ChIJc6ncboMEbjQRmZ53BS0X9wg
狗狗好棒寵物沙龍,高雄市左營區榮總路141巷25號,高雄市,左營區,ChIJ9fqPvDYFbjQRqjDlhAx3s00
巧耘寵物美容,高雄市左營區高雄市左營區新光里新庄仔路45-4號,高雄市,左營區,ChIJbUtnVVQFbjQR6oaKIDKi79o
狗腳印寵物工作室,高雄市仁武區仁雄路42之18號,高雄市,仁武區,ChIJyRQ58KkbbjQRgZvHcpTMXBE
狗自在家庭式寄養,高雄市苓雅區凱旋二路61號1樓2樓,高雄市,苓雅區,ChIJdbK0iVIDbjQR5c_j8vfpabM
佩泊商行,高雄市苓雅區福德三路321號,高雄市,苓雅區,ChIJ4WghUpYFbjQRRDkPRTOYS8Q
毛絨絨寵物澡堂,高雄市前鎮區民權二路613號,高雄市,前鎮區,ChIJcc5nJBEFbjQRo7QmnlegSGU
毛小窩寵物生活館,高雄市三民區龍江街47巷18號2樓,高雄市,三民區,ChIJp7cmFDQFbjQRPTwWw7ZaNPA
狗妹妹寵物坊,高雄市鳳山區五權路25號,高雄市,鳳山區,ChIJPcD06DcbbjQRyY1ZZqNMTrs
狗太陽寵物精品沙龍,高雄市前金區光復一街32號,高雄市,前金區,ChIJ1VmU_n4FbjQRC8N83WZ7i9s
歐比寵物生活館,高雄市前鎮區二聖一路87號,高雄市,前鎮區,ChIJYSafFNsFbjQRCVLISPWS8z4
樂寵窩寵物美容,高雄市鼓山區青松街25號,高雄市,鼓山區,ChIJJ7QZqM0FbjQRhOoo8oiJtc8
魚中魚樂活有限公司華夏分公司,高雄市左營區華夏路1340號,高雄市,左營區,ChIJ3z6FAm8FbjQRZCYuN_MEMV4
丹紫京寵物沙龍坊,高雄市楠梓區樂群路198號,高雄市,楠梓區,ChIJkU20uPoPbjQR_vKCfTSPo78
泡泡沐寵物沙龍旅館,高雄市鳳山區北昌三街102號1樓,高雄市,鳳山區,ChIJ6ykP1ZwbbjQR8auLT7N3IrU
渵屋創意工作室,高雄市鳳山區新昌街32號,高雄市,鳳山區,ChIJrbBQsKoEbjQRuAvBEG3yho4
家蓁寵物美容,高雄市鳳山區新生街一段17號1樓,高雄市,鳳山區,ChIJ54_JcnwbbjQRBb7-nJOTtXM
沐町寵物美容生活館,高雄市三民區覺民路25號1樓,高雄市,三民區,ChIJJ7QZqM0FbjQRhOoo8oiJtc8
喵窩企業社,高雄市岡山區大仁北路121巷1弄29-2號1、2樓,高雄市,岡山區,ChIJf6SxtAINbjQR3jiDOxAQZ5w
法鬥學園犬舍,高雄市橋頭區佛神路13號,高雄市,橋頭區,ChIJGREs69_jcTQRpP9UGH2qiBY
奈斯澎澎寵物沙龍,高雄市前鎮區高雄市前鎮區永豐路107號,高雄市,前鎮區,ChIJmcC_ESgDbjQRhv0DZpUfu34
祝妮皮安企業社,高雄市苓雅區武漢街113-4號,高雄市,苓雅區,ChIJ67Ci8GoFbjQRN8oBxh9BAjE
品宇寵物綜合服務,高雄市左營區重立路232巷21號,高雄市,左營區,ChIJsT-cXgAFbjQRefcv8Z94Rbo
豬窩寵物沙龍旅館,高雄市三民區興昌街26號,高雄市,三民區,ChIJp7cmFDQFbjQRPTwWw7ZaNPA
初心寵物美容,高雄市左營區重信路391號1樓,高雄市,左營區,ChIJoyay3m0FbjQR8ixbEchIPT0
之勁商行,高雄市前鎮區文林街43號,高雄市,前鎮區,ChIJZwW4SAwDbjQRegez4tTA0FI
八八寵物沙龍館,高雄市三民區大慶街88號,高雄市,三民區,ChIJw4lHLygFbjQRXWPLu9Nueec
汪汪掀被寵物沙龍,高雄市鳳山區北文街92號1樓,高雄市,鳳山區,ChIJSys1tx8bbjQR6ibxcBXBJag
帕菲犬貓園,新北市新莊區新北大道7段726號1樓,新北市,新莊區,ChIJZw9DSNqnQjQRm4ni4OULc5g
珍寶寵物沙龍,高雄市鳳山區新康街185號1樓,高雄市,鳳山區,ChIJ5_c0JlUbbjQR7eYGLrfiUtE
萬達寵物事業股份有限公司_青年分公司,高雄市鳳山區青年路二段450、452號,高雄市,鳳山區,ChIJNYTdqkSpQjQR5VgPsVBSp1Q
迷妳寵物店,高雄市新興區復興一路14之3號,高雄市,新興區,ChIJzxWfqJMEbjQRnbtlnXD8oQY
愛沐貓旅館,高雄市新興區民生一路14號,高雄市,新興區,ChIJf2dUC5EEbjQRs5_PexsRvJY
丹晅寵物沙龍旅館,高雄市鳳山區高雄市鳳山區海涵路492號,高雄市,鳳山區,ChIJY2R-JqcdbjQRn7nZra18ojI
勤喬有限公司,高雄市三民區察哈爾一街9號,高雄市,三民區,ChIJQXnTHoEFbjQR65VfAJanBgA
一叁六寵物美容,高雄市鼓山區華豐街71號,高雄市,鼓山區,ChIJObJipywFbjQReG62smdWnac
棉花糖寵物生活坊,高雄市岡山區岡山南路1巷21號1、2樓,高雄市,岡山區,ChIJUyZOCnwPbjQRghFolkaw5TE
朵妮寵物創意美學館,高雄市小港區高雄市小港區新昌街26-8號1樓,高雄市,小港區,ChIJ9VBPESUbbjQR0iftkSor2jU
棉花糖寵物旅館,高雄市美濃區光明路169號,高雄市,美濃區,ChIJ4WkYTXJrbjQRKXSolduZ3Ww
毛逗寵物精品沙龍,高雄市左營區明華一路11號,高雄市,左營區,ChIJC6-NnxwFbjQRgZDeNuonQm8
米妮美樂寵物沙龍,高雄市左營區民族一路1182號,高雄市,左營區,ChIJ0Y5zPgUXbjQRDfBNAoCO7fk
緣真寵物名店,高雄市美濃區中正路二段75號,高雄市,美濃區,ChIJkQ2nMuZBbjQRJaL_0fbpleU
原野登山體育社,高雄市左營區後昌路605號,高雄市,左營區,ChIJabF6J4IPbjQR1wiOOXmpfvI
熊大心寵物精品旅館,高雄市鼓山區鼓山二路110號,高雄市,鼓山區,ChIJqaMO0G4EbjQRabNMC2_SRw4
貓米設計寵物背包客工作室,高雄市鳳山區高雄市鳳山區五甲三路295巷85號,高雄市,鳳山區,ChIJd1KA2j8bbjQRwF65v_bdREk
寵悠活鮮食宿,高雄市左營區廍後街10之1號1樓,高雄市,左營區,ChIJPzmMZJgFbjQR_V-yA9iBIlQ
小太陽寵物美容,高雄市鳳山區文聖街126號,高雄市,鳳山區,ChIJy6cDP2MbbjQRnjyHKmGtO8M
五吉寵物旅館,高雄市大寮區永仁街18號,高雄市,大寮區,ChIJgb-jCecbbjQR4xmvikLkA6Y
我的狗寵物美容住宿,高雄市三民區高雄市三民區民族一路525號,高雄市,三民區,ChIJ-ZHI8pMFbjQRt7zP9EVOy9g
寵物王朝有限公司大社分公司,高雄市大社區旗楠路88號,高雄市,大社區,ChIJmYCH_YMRbjQRfeLRoiNZ1Zs
幸運草寵物美容,高雄市前鎮區二聖二路13號,高雄市,前鎮區,ChIJPXIk1UkFbjQRzRF3EMUxZeo
喵起來住館,高雄市新興區復興二路344號2樓,高雄市,新興區,ChIJn_k88ywFbjQRN7pDugaXhOc
我與狗寵物旅館,高雄市小港區桂陽路175巷1弄23號,高雄市,小港區,ChIJKQJc2cccbjQRT_FGlNkAOLc
沛思寵物沙龍,高雄市鼓山區青海路340號,高雄市,鼓山區,ChIJ4YjPc4UFbjQRaqxaDIfEyxU
杜魯爸爸寵物美容,高雄市鳳山區高雄市鳳山區建國路三段267巷30號,高雄市,鳳山區,ChIJ8Wzm7U8bbjQRMkrfNete7To
萬達寵物事業股份有限公司高雄岡山分公司,高雄市岡山區高雄市岡山區岡燕路40、42號及高雄市岡山區民有路44、46號,高雄市,岡山區,ChIJNYTdqkSpQjQR5VgPsVBSp1Q
塔塔寵物美學,高雄市楠梓區樂群路131號,高雄市,楠梓區,ChIJsRd-sL4PbjQRIQ9Rkpe_GI4
寵物王朝有限公司,高雄市橋頭區成功南路148巷1號1樓,高雄市,橋頭區,ChIJE9DgZk8ObjQR1WlJizpGifA
富貴寵物澡堂,高雄市大寮區鳳林四路435之1號,高雄市,大寮區,ChIJJ2907OUbbjQR5uJjOqikOUQ
唯樂寵物旅館,高雄市三民區民族一路782之8號,高雄市,三民區,ChIJmS1pMXEFbjQRZQThd5yukyQ
寵物王朝有限公司岡山分公司,高雄市岡山區中山北路187號1樓,高雄市,岡山區,ChIJXdGs0dINbjQRqpxRt4E60hk
卡哇伊貓貓,高雄市左營區重清路256號,高雄市,左營區,ChIJIcrin1QEbjQRx06gNrk2F4s
卡特寵物用品有限公司,高雄市梓官區大舍南路65號,高雄市,梓官區,ChIJj2C6A2UNbjQRpw1zGdBDplo
秀燕寵物生活館,高雄市左營區新庄仔路556號3樓,高雄市,左營區,ChIJn1ihbw8FbjQRy0GJH5qTj_A
寵物當家用品店,高雄市苓雅區四維一路105號,高雄市,苓雅區,ChIJvd-hh7sEbjQRteKRhStgmPw
貓茸茸寵物旅館,高雄市前鎮區高雄市前鎮區民權二路615號,高雄市,前鎮區,ChIJcc5nJBEFbjQRo7QmnlegSGU
狗來樂寵物美容,高雄市仁武區八德南路100巷172號,高雄市,仁武區,ChIJV2fpiU4FbjQRxL2k39p7aWQ
麥可寵物世界店,高雄市左營區左營大路2-30號,高雄市,左營區,ChIJ8wJ3Ug8FbjQRAR3s51JUYv4
自遊自宅寵物住宿,高雄市左營區文學路655號,高雄市,左營區,ChIJs_QoYDsFbjQR_XYe4Cyey_U
謝謝妮寵物美坊,高雄市苓雅區高雄市苓雅區中興街53號,高雄市,苓雅區,ChIJNwcIF3EFbjQRb90bWLpW8UE
洗洗睡寵物沙龍,高雄市楠梓區大學二十六街199號1樓,高雄市,楠梓區,ChIJD9UfAOMPbjQR5J9d4lYx9yU
貓裡居有限公司文三分公司,新北市林口區新北市林口區文化三路一段402巷2號2樓,新北市,林口區,ChIJs6Z7MJanQjQRO6d2kcD44K4
貓之森寵物生活館,高雄市楠梓區慶昌街43巷1弄7號,高雄市,楠梓區,ChIJ__gEijEPbjQRvROKhZ0WTSE
慢飛寵物美學,臺南市東區樹林街一段207號1樓,臺南市,東區,ChIJfeZij0V3bjQRGVJMhjtpPbg
玩美小獸沙龍,臺北市中山區新生北路三段69號1樓,臺北市,中山區,ChIJP6sfaUWpQjQRZhu-UeJN-Ds
堤柇有限公司,新北市板橋區龍翠里文聖街194號1. B1樓,新北市,板橋區,ChIJUdbu3keoQjQRT6AG-pGWfn0
朵菈寵物生活館,新北市新莊區思源路166巷41號1樓,新北市,新莊區,ChIJb_jHtGOoQjQRQFRASjWG7SQ
福氣寵物店,新北市新莊區中平路334號1樓,新北市,新莊區,ChIJBWPBb9WnQjQRDqnS-7YfGtY
頭等艙寵物生活館,新北市新莊區後港一路76巷12弄2號1樓,新北市,新莊區,ChIJZ6Fpku2nQjQRIU6N__SmQZ0
毛澡堂寵物沙龍,新北市新莊區公園路27號1樓,新北市,新莊區,ChIJ41JF-_SpQjQRjKDF0Y_nxCs
維拉薇菈寵物精品店,新北市新莊區幸福東路115號1樓,新北市,新莊區,ChIJYUrOs4qpQjQRG0oVkAGe0Iw
雅典犬舍,臺南市鹽水區橋南里16鄰南門路80巷20弄14號,臺南市,鹽水區,ChIJ6XCOOxyEbjQRPjKkZZYvZvs
極光森林貓舍,新北市新莊區新崑路109號3樓,新北市,新莊區,ChIJ5Rlxb_kdaDQR2reqNNJ3s2g
小米毛澡堂,新北市新莊區中港路406巷2號1樓,新北市,新莊區,ChIJafe9zwSpQjQRY3Yl2Jgqc4I
享日子寵物旅館,新北市新莊區昌盛街65巷2弄2號1樓,新北市,新莊區,ChIJFejcEX2oQjQRf3CMtC3iTVU
好好寵物有限公司,新北市新莊區中央路108號1、2樓,新北市,新莊區,ChIJ7zPwwWWpQjQR60nysCKjun0
澎澎寵物旅館,新北市板橋區新生街29巷15弄2號1樓,新北市,板橋區,ChIJXfg60Q-oQjQRcYXDVtCwo80
亞尼客寵物美容店,新北市板橋區大觀路3段142號1樓,新北市,板橋區,ChIJrWV9-iYdaDQRo_0_yi85wRk
中圓寵物股份有限公司中壢分公司,桃園市中壢區金華里新生路286號,桃園市,中壢區,ChIJ4ZDPXDEiaDQRrQkf790aUIs
齊拉有限公司,新北市淡水區新北市新北市淡水區新民街31號,新北市,淡水區,ChIJvcUcSgqlQjQRkiO3tcB3GYM
露西寵物店,新北市三重區重新路4段136號1樓,新北市,三重區,ChIJxf_NRuOoQjQRPQTEe8a1zX4
享窩窩貓旅工作室,新北市板橋區長江路1段136巷10號1樓,新北市,板橋區,ChIJmVRgwhKoQjQR5q5Ktlvy9nU
朵貓貓寵物工作室,新北市板橋區金門街372巷28號1樓,新北市,板橋區,ChIJdZisr2odaDQR1QXn0LuBlyU
狗趣兒寵物旅館,新北市林口區林口區文化三路1段617巷163號1樓,新北市,林口區,ChIJwd25h2OnQjQRnUs3l3e9iG4
哈寶寵物美容館,新北市三重區重陽路1段60巷25號1樓,新北市,三重區,ChIJWeGyr8mpQjQRq8zDtlXG33c
小不點寵物店,新北市板橋區萬安街53巷32號1樓,新北市,板橋區,ChIJd9_pLDaoQjQR_IKqSgKRx_8
享時光貓旅工作室,新北市板橋區新海路391巷2號1樓,新北市,板橋區,ChIJmVRgwhKoQjQR5q5Ktlvy9nU
星貝貝寵物旅館,新北市板橋區莊敬路228號1樓,新北市,板橋區,ChIJozCrd72pQjQRWoTGr-Uwvmg
東森寵物雲股份有限公司板橋雨農分公司,新北市板橋區新翠里雨農路54號1樓,新北市,板橋區,ChIJySrF17GpQjQR_ot4oe0ibfQ
沐絲寵物美容坊,新北市蘆洲區蘆洲區永康街35號1樓,新北市,蘆洲區,ChIJBeYsNtWpQjQRuZ7HBnqQa20
喵毛屋有限公司,新北市板橋區民生路三段178號1樓,新北市,板橋區,ChIJU1b3Xi2pQjQRLFpYs7U88uQ
寵愛汪喵企業社,新北市三重區忠孝路2段79號,新北市,三重區,ChIJS1CgVKapQjQRYBM1tHESK5M
貝果貝果,臺南市中西區南門路159號及159之1號,臺南市,中西區,ChIJz8QtjX12bjQRzLYsCLdpYI8
毛孩慢步照護美容工作坊,臺南市東區林森路二段192巷13號,臺南市,東區,ChIJbUTXmsd3bjQRyBPAWAf_BIw
玖玖寵物美姿莊園坊,新北市林口區文化北路1段262號1樓,新北市,林口區,ChIJl6Us-4-nQjQRaWF15JtyrVQ
貓這裡手作工作室,臺南市東區崇德二十二街52號1樓,臺南市,東區,ChIJs1lJiBh0bjQRTA3AoOTDWiA
喬咪寵物美容,臺南市北區中華北路二段211號1樓,臺南市,北區,ChIJI1jl3GR3bjQRgCRe_CmvJB8
貓漾寵物生活館,臺南市安南區安南區同安路195巷40號,臺南市,安南區,ChIJwcmWa_53bjQR7E4of0Ntz_Q
一三三寵物沙龍旅館,新北市林口區四維路116號1樓,新北市,林口區,ChIJh0FrYjmnQjQR-dvYreyJc9Y
天麗寵物坊,新北市三芝區中山路1段88巷11號,新北市,三芝區,ChIJyYK5LtK2QjQRSFxP28bkCX8
洛芙寵物精品店,新北市三重區吉祥街6號1樓,新北市,三重區,ChIJAbuX9yqvQjQRBza98yi4YnA
好喵寵物店,新北市林口區文化三路2段275號1樓,新北市,林口區,ChIJD7hfhDunQjQRQkj-2Pg1ZA8
好運吧精緻寵物旅店,新北市淡水區大仁街33號1樓,新北市,淡水區,ChIJF9Xh9FalQjQRD3oE8oN_bBI
乖乖狗寵物店,新北市泰山區中華街18巷10號1樓,新北市,泰山區,ChIJzaFoQMmnQjQR7JCuDueHTIg
欣愛寵物坊,新北市三重區中正南路81號1樓,新北市,三重區,ChIJ7dVZ0x2pQjQR-FCPM7NozdM
毛孩渡假生活館,新北市林口區文化北路1段208號1樓,新北市,林口區,ChIJpdPuFx-nQjQRQYq9QHQdlHM
萌萌噠寵物美容,新北市泰山區新北市泰山區仁武街21號1樓,新北市,泰山區,ChIJcWfDeQCnQjQRpzxoB2cWJ-A
中圓寵物股份有限公司林口分公司,新北市林口區忠孝路372號1樓,新北市,林口區,ChIJX8j0QSenQjQRKUw3IDj6oJM
糖狗貓寵物沙龍,臺南市北區長榮路五段8之1號1樓,臺南市,北區,ChIJrZzSYe92bjQRh3LsGpWpGXE
棲心寵物旅宿,臺南市安南區安南區長和路一段370號,臺南市,安南區,ChIJCWcERH95bjQRXhvT_j7P7II
大大寵物旅館,新北市汐止區汐萬路一段19號1樓及地下室1樓,新北市,汐止區,ChIJCyq7TSdTXTQRf4OoglCH3W0
護寵者聯萌寵物沙龍,臺南市南區三官路177號1樓,臺南市,南區,ChIJ6R-Z49l1bjQROTKoM8j13gw
旺旺旺寵物生活館,臺南市北區西門路四段512、516號1樓,臺南市,北區,ChIJH70zGPx2bjQRkr4GnDegxuQ
三福寵物用品店,新北市泰山區明志路一段488號1樓,新北市,泰山區,ChIJX6AcW8ynQjQR7iK0JjW3e1U
晟欣商行,臺南市東區崇善七街52號1樓,臺南市,東區,ChIJ9VPp2H97bjQRWRS5RFBu_Hs
月光貓旅館,臺南市東區崇善路565號3樓,臺南市,東區,ChIJy8aWEpF1bjQR1u2uoUdA20U
珍艾寵物館,臺南市東區東門路二段9號,臺南市,東區,ChIJwdK-ZmZ3bjQR9UCZWNkBEFs
絨毛小狗寵物美學,臺南市東區自由路一段177號1樓,臺南市,東區,ChIJQyBs0F51bjQRFkAYupRhz7U
心花朵朵開實業社,臺南市東區小東路364號1樓,臺南市,東區,ChIJ-2CGR413bjQRtSti57eyD0A
寶貝園寵物生活館,臺南市東區長東街30號1樓,臺南市,東區,ChIJh8hCGBh0bjQRYjkFkzB1ybk
旺寶寵物生活館,臺南市東區東門路二段452號1-2樓,臺南市,東區,ChIJh8hCGBh0bjQRYjkFkzB1ybk
大魚寵物有限公司崇明分公司,臺南市東區崇明路511號,臺南市,東區,ChIJh0uM_px1bjQRbMNgmw23qU8
我的寵物精品生活時尚沙龍館,臺南市北區大興街46之1號1樓,臺南市,北區,ChIJvcZjUQB3bjQRgAKk4TPqSCQ
好的寵物沙龍,新北市中和區自立路163號1樓,新北市,中和區,ChIJuelpNAgCaDQRrZhzf8lp5jE
貓咪船長寵物旅館,臺南市安南區安中路一段130巷16之3號,臺南市,安南區,ChIJL7flEgl3bjQRpbdh2W6S-xc
鑫嘉福寵物生活館,臺南市安南區溪東一街1號1樓,臺南市,安南區,ChIJuaufdI53bjQRotSWLDBsXkA
貓卡卡貓咪文旅,臺南市安南區安和路五段356號,臺南市,安南區,ChIJS8LOZp15bjQRLZw_ZETgg0U
寶貝洞寵物生活館,臺南市安南區長溪路一段242之1號,臺南市,安南區,ChIJh8hCGBh0bjQRYjkFkzB1ybk
田美寵物生活百貨,臺南市安平區文平路468號1-2樓,臺南市,安平區,ChIJM9B3qLx3bjQRN8qqIw6GSnU
凱弟寵物澡堂,臺南市安平區建平八街108巷40號,臺南市,安平區,ChIJ97zqMHF3bjQRJ1MQNXTExw4
波樂工坊,臺南市安平區永華十一街17巷33號1樓,臺南市,安平區,ChIJZzHWlb53bjQRcg2qC1VgXXU
福貍工作室,臺南市安平區國平路5號1樓,臺南市,安平區,ChIJPzdzjFl1bjQR66ltbfRY0-0
史溫托爾寵物店,臺南市安平區永華路二段660號1樓,臺南市,安平區,ChIJ29iLeup2bjQRCKuQIQAKv-g
齊齊狗狗寄宿,臺南市南區大德街141巷18號2樓,臺南市,南區,ChIJb074Dtp1bjQRMmqI4UrRm-o
桃樂斯寵物遊樂園,臺南市南區健康路二段251號,臺南市,南區,ChIJQYoy_9d1bjQRlZh622HJC0E
貓宅一生企業社,臺南市南區新興路160號,臺南市,南區,ChIJSy6dQtd1bjQR-y7zxoYc6zA
寵愛寵物生活館,臺南市永康區中華一路20號1樓,臺南市,永康區,ChIJOe9nssF2bjQRhII9IXeoM8s
捲尾巴寵物旅店,新北市永和區永平路300號1樓,新北市,永和區,ChIJc5tX3MCpQjQRrhNhEufRGz4
悠洗寵物美容工作室,新北市汐止區明峰街53號1樓,新北市,汐止區,ChIJX99OltlTXTQRlXothZvUBJU
幸福種子寵物沙龍,臺南市永康區塩行里6鄰中正南路636號,臺南市,永康區,ChIJuxEnV7d3bjQRZcta88oruu0
可愛谷寵物生活館,新北市中和區南山路273號1樓,新北市,中和區,ChIJw6XEtXACaDQRZUNHjpyn4k0
萬達寵物事業股份有限公司東門分公司,臺南市東區東門路二段365巷26號,臺南市,東區,ChIJNYTdqkSpQjQR5VgPsVBSp1Q
萬達寵物事業股份有限公司安平分公司,臺南市安平區華平路263號及265號,臺南市,安平區,ChIJNYTdqkSpQjQR5VgPsVBSp1Q
喜恩精緻寵物美容館,臺南市永康區西橋里5鄰中華西街21巷8之1號1樓,臺南市,永康區,ChIJ85rIwN92bjQRTGrIK3q5l0g
星期一貓旅舍,臺南市永康區大橋里5鄰大橋一街103巷218號,臺南市,永康區,ChIJU8YP9-V2bjQRdflBbAQUQqQ
甜蜜貓工作室,新北市永和區永和路2段228號3樓,新北市,永和區,ChIJMUeo9uqpQjQRDn3zwG8I_TU
環球購物中心股份有限公司中和分公司,新北市中和區中山路三段120號1樓,新北市,中和區,ChIJFYrFMCeoQjQRekxMTpQ-xUw
犬之湯屋寵物館,新北市中和區安樂路50號1樓,新北市,中和區,ChIJ32Qr5XQCaDQRaSlUjU5vp1M
犬賓行,新北市汐止區鄉長路一段23號1樓,新北市,汐止區,ChIJX5eBkwVTXTQREUxCwj-fQfw
比樂寵物精緻沙龍,臺南市歸仁區南興里1鄰民生北街140號,臺南市,歸仁區,ChIJt3OT5mJxbjQRoqQk53hmgiY
萬達寵物事業股份有限公司台南歸仁分公司,臺南市歸仁區中山路二段222號,臺南市,歸仁區,ChIJNYTdqkSpQjQR5VgPsVBSp1Q
雪麗犬舍,臺南市麻豆區新建里8鄰新生南路84號,臺南市,麻豆區,ChIJCXD9_Kd_bjQRZas1tSXounU
蔻蔻寵物沙龍,臺南市佳里區文新里6鄰文化路411號,臺南市,佳里區,ChIJteoOoyF_bjQR_IWW2xcroSE
呼嚕嚕貓旅寵物精品工作室,新北市三重區三重區重新路3段26號3樓,新北市,三重區,ChIJe4YFaACpQjQR2HKiVrJ87sE
麻吉寵物沙龍,新北市三重區中正北路380巷2號1樓,新北市,三重區,ChIJJSyqYsKoQjQRFSVSf_n1eoE
沐寓寵物精緻旅館,新北市林口區新北市林口區民族路26號,新北市,林口區,ChIJPSNb8JGnQjQRiMIN89ScfKM
佳和寵物用品公司,新北市淡水區民權路153號地下1樓,新北市,淡水區,ChIJ1zIggp2vQjQRwhG670WbtzQ
饅頭音樂工作室,新北市林口區文化一路1段190巷8-1號,新北市,林口區,ChIJHdQmQwCnQjQRqQgGx7L0FT8
私房貓旅堂有限公司,新北市三重區五華街218號1樓,新北市,三重區,ChIJY9QL9gupQjQRuE2mnUX6_ms
達詩股份有限公司,新北市三芝區後厝里土地公坑73-7、73-8號,新北市,三芝區,ChIJixNFP5uxQjQRXtiDKVDY_e4
萬達寵物事業股份有限公司蘆洲門市部,新北市蘆洲區蘆洲區長榮路71號1樓,新北市,蘆洲區,ChIJNYTdqkSpQjQR5VgPsVBSp1Q
寵沐企業社,新北市林口區民享路46號1樓及B1,新北市,林口區,ChIJt2CEUtimQjQRFfBm1-QbtLI
福貓寵物旅館,新北市蘆洲區永安南路2段98號1樓,新北市,蘆洲區,ChIJK-bUsTmpQjQRaPIJfCpFWBo
酷毛寵物旅館,新北市林口區新北市林口區文化三路2段115巷68號1樓,新北市,林口區,ChIJJz_gRUynQjQRiFmxaesZmh0
鑫恩貓舍,新北市三重區新北市三重區三和路3段151巷39號,新北市,三重區,ChIJ5bp-PTepQjQRkJ5ZTVJ_vTU
鋒毛孩寵物旅館,新北市三重區永安北路2段107號1樓,新北市,三重區,ChIJh26it9OoQjQRUu2b0jZTkXw
麻糬阿木工作室,新北市蘆洲區蘆洲區中山一路120巷19號1樓,新北市,蘆洲區,ChIJGd88kxGpQjQRkbilKXk1yNE
毛到家有限公司,新北市林口區民族路89號,新北市,林口區,ChIJn2pFLYKnQjQRvENFyqd8tN8
晶鑽樂狗寵物生活館,新北市林口區文化北路1段60巷8號,新北市,林口區,ChIJkV_MWwWnQjQRPr5WdBC-bpg
侍寵派有限公司,新北市淡水區新市三路2段247號1樓,新北市,淡水區,ChIJRWxeWVKlQjQRuqej4ohvfIw
秋味犬教育工作室,臺南市白河區河東里7鄰糞箕湖179號,臺南市,白河區,ChIJa7lrGBCPbjQRJ7bRYIaAI6c
趴趴雞寵物生活館,新北市中和區成功路99之1號1樓,新北市,中和區,ChIJ57qnP2UDaDQRvXUhHpHOi2c
喜樂狗寵物美容生活館,新北市林口區文化三路一段617巷183號,新北市,林口區,ChIJMbAXBdymQjQR3hMpE21fQM4
艾莉亞寵物精品美容,新北市永和區得和路82號1樓,新北市,永和區,ChIJMy92FFypQjQRBqm21iqCnmw
球球幼犬寵物店,新北市中和區中正路641號1樓,新北市,中和區,ChIJ-bV5_EipQjQR4AHG37k_cts
雪莉寵物生活館,臺南市東區崇德路785之8、9號,臺南市,東區,ChIJ27gPXVqvQjQRF_3L9xdZVyI
瑪恩寵物生活館,臺南市新營區民權里9鄰民權路106號,臺南市,新營區,ChIJBejmHNuFbjQRsCen_eEoJRE
啪啾寵物旅館,新北市永和區永貞路53號1樓,新北市,永和區,ChIJ6w3fEeapQjQR9EE6GyENjoE
萬達寵物事業股份有限公司福德分公司,新北市三重區福德北路74號1樓,新北市,三重區,ChIJI7PEpt-oQjQRq1F-vgzjDO8
大魚寵物有限公司永康分公司,臺南市永康區安康里13鄰中華路707號,臺南市,永康區,ChIJq9tb4d92bjQRHp2GuMTbDpk
有珈寵物美容坊,新北市蘆洲區集賢路224巷39之1號1樓,新北市,蘆洲區,ChIJHTQT3sepQjQRAvE8YYgDAEA
奇巧手寵物用品店,臺南市安平區文平路215號,臺南市,安平區,ChIJ7dhCSQp2bjQRhrTkjWxRd4M
錢櫃愛犬美容屋郡緯分店,臺南市中西區郡緯街39之1號,臺南市,中西區,ChIJn0_gEGF2bjQRc8GinVopSJI
錢櫃愛犬美容屋,臺南市安平區華平路698號1樓,臺南市,安平區,ChIJI2yo9xF2bjQRRJwJ-mdPO3o
愛諾寵物生活館,臺南市中西區臨安路一段16號,臺南市,中西區,ChIJHzwWxG52bjQRrtEQdb-R2f0
中美寵物生活館,臺南市東區府連路314號2樓,臺南市,東區,ChIJ3UkQ3YR2bjQRTEx4wmDIrG0
凱特莉寵物沙龍,桃園市蘆竹區南崁里南祥路21號,桃園市,蘆竹區,ChIJxZi6h1UeaDQRanKNm2FP59A
樂時頤國際企業有限公司,新北市汐止區明峰街7號1樓,新北市,汐止區,ChIJuVydX6FTXTQRjomO1G0Wnv0
橘舍寵物沙龍旅館,新北市汐止區秀峰路144號1樓,新北市,汐止區,ChIJadVbEUtTXTQR9QZb2LPhZ_A
東森寵物雲股份有限公司麻豆興中分公司,臺南市麻豆區晉江里8鄰興中路164號,臺南市,麻豆區,ChIJ2xORUxF9bjQRMyoEfRITNQY
阿棚喵貓屋,臺中市西屯區逢甲路20巷36號1樓,臺中市,西屯區,ChIJuxKlmU0XaTQR70nCe9EnVE4
歐歐兔股份有限公司(犬),臺中市南屯區文心南二路398號1樓、地下1樓,臺中市,南屯區,ChIJlZyw7589aTQRbrUmMr2Ty1M
福福貓有限公司,臺北市萬華區武昌街二段53號3樓,臺北市,萬華區,ChIJp4XAHX6rQjQR9sjrYtvV564
有間貓旅有限公司,臺北市松山區南京東路五段137之1號(2樓),臺北市,松山區,ChIJhWn-43qpQjQRtDjvyjprP2o
吹毛球痴洗澡吧,臺北市信義區松山路315之1號1樓,臺北市,信義區,ChIJ9-UOeParQjQRX85LgO7oiqs
米屋寵物美容,臺北市北投區北投路二段19號1樓,臺北市,北投區,ChIJaZhSL7GvQjQRraIVei_myH0
玉月光村股份有限公司,臺北市信義區基隆路二段117號2樓,臺北市,信義區,ChIJKX--crKrQjQR4KxzHWaawXI
愛玩犬寵美屋,臺北市北投區中正街69號1樓及2樓,臺北市,北投區,ChIJ37BeQ_KvQjQRsdFJ5N4lZcQ
羅娜寵兒有限公司,臺北市松山區民生東路五段206之2號1樓,臺北市,松山區,ChIJXzi0VMGrQjQRs2ZbIaqO488
班森班比商行,臺北市南港區八德路四段917號1樓,臺北市,南港區,ChIJjyfb5xWrQjQR_runXV1LGBU
洗毛球寵物美容工作坊,臺北市文山區興隆路二段244巷32號1樓,臺北市,文山區,ChIJEaE_5QQBaDQRGBP1EAf5VEA
嘟波寵物自在生活坊,臺北市中山區民權東路一段38巷18弄1號5樓,臺北市,中山區,ChIJuZMfPkWpQjQRDwNl8H8PCOc
大爺股份有限公司寶吉分公司,臺北市內湖區民權東路六段123巷20弄5號1樓,臺北市,內湖區,ChIJo1XM_fmtQjQRLopdPuf7rA0
喵喵屋有限公司,臺北市大安區建國南路二段19號1樓,臺北市,大安區,ChIJO-uVlLKrQjQRoKTSlHfaCU8
翻肚肚寵物美容,臺北市松山區民生東路五段202號之1一樓,臺北市,松山區,ChIJNR9_E2-rQjQRHHCW8WEcG0A
愛玩家犬貓寵物社,臺北市大安區光復南路686之1號1樓,臺北市,大安區,ChIJjWiS5HvxZzQR0vNC3CSZnAQ
汪堡股份有限公司,臺北市中山區敬業一路46號1樓,臺北市,中山區,ChIJ-QHLmSitQjQRrt2Pi8-ZqP8
蕙昌寵物企業社,臺北市中山區明水路549號1樓,臺北市,中山區,ChIJveRvaZatQjQRmdZ2HmJQnTQ
唯依寵物美學企業社,臺北市大安區基隆路二段162之4號1樓,臺北市,大安區,ChIJweIbdDOrQjQRo19Q5TvQ-vY
亞勵興業有限公司,臺北市內湖區成功路二段412號1樓,臺北市,內湖區,ChIJP6v8f3qtQjQRKVnlGdzBSks
咕咕碁有限公司,臺北市內湖區東湖路7巷29號地下室,臺北市,內湖區,ChIJR0FsoLqsQjQRmzZso9rCIRo
喜寶棧有限公司,臺北市中正區中華路二段307巷40號及42號1樓,臺北市,中正區,ChIJGeFweFCpQjQRnCMaCsPaEFw
巧菲時尚寵物沙龍,臺北市士林區福國路63號1樓,臺北市,士林區,ChIJDeYkpJeuQjQRca1tdqrFZzQ
狗狗日常寵物旅館,臺北市文山區羅斯福路六段85號1樓及2樓,臺北市,文山區,ChIJTepLtturQjQRPAkWxWcl40w
永樂健康有限公司文山營業所,臺北市文山區興隆路一段261號1樓,臺北市,文山區,ChIJ_46X6hqqQjQRXSIjvMMq8nY
萬旺商行,臺北市松山區八德路四段512號1樓,臺北市,松山區,ChIJb2TKZperQjQRNDGQ2mzsw5I
五個蹼生活館,臺北市中正區羅斯福路三段92號1樓,臺北市,中正區,ChIJ_4UUh4upQjQRrLM2RIXgA3Q
豆恩凱寵物精品有限公司,臺北市文山區木新路二段1號1樓,臺北市,文山區,ChIJ4SSyQHWqQjQRFBBDwu7k7as
愛貓成癮有限公司,臺北市信義區莊敬路342號2樓,臺北市,信義區,ChIJcbg2E0OrQjQRiwBxdLS5RYA
寵愛之綴寵物美容工作室,臺北市大安區潮州街143號1樓,臺北市,大安區,ChIJr0g6j4apQjQRIU0_Pp61zAM
貓室友工作室,臺北市士林區文林路512-1號1、2樓,臺北市,士林區,ChIJT57SIb2uQjQRDLvID4DS2lg
國寶寵物股份有限公司吉林分公司,臺北市中山區吉林路178號1、2、3樓,臺北市,中山區,ChIJF6U6RwCpQjQR6vUtNAzXgQ8
菈菈寵物美容精品屋,臺北市文山區興隆路一段96號1樓,臺北市,文山區,ChIJ31CkR8yrQjQR-MoKegnEVTA
我們和孩子們幸福的寵物沙龍,臺北市中山區長安東路二段220號1樓,臺北市,中山區,ChIJjUun9CurQjQRpEq6E9wLQcE
萬達寵物事業股份有限公司內湖康樂分公司,臺北市內湖區康樂街116之3號1樓,臺北市,內湖區,ChIJNYTdqkSpQjQR5VgPsVBSp1Q
星沐精緻寵物美容,臺北市松山區民權東路三段156號1樓,臺北市,松山區,ChIJ46KNTeWrQjQR7yreinbIOFA
九能寵物用品有限公司,臺北市中山區林森北路413號8樓之21,臺北市,中山區,ChIJzapf0lypQjQRkrdbOa0zsak
東森寵物雲股份有限公司,臺北市士林區文林路66號1樓,臺北市,士林區,ChIJf5xmBMyvQjQRMlnUK7tBXww
東森寵物雲股份有限公司通化分公司,臺北市大安區通化街26之7號1樓,臺北市,大安區,ChIJX0pujF6rQjQR3We8uLnZJIg
咘咘寵物生活坊,新北市中和區中和區安平路64號,新北市,中和區,ChIJ86WDhnUCaDQRMXpmqvHrHSA
老闆家貓舍,桃園市桃園區大仁路32號1樓,桃園市,桃園區,ChIJb8QgybEfaDQRvTpfgHA-4sw
我最重要的寵物館,臺中市沙鹿區興安路12號1樓,臺中市,沙鹿區,ChIJF4bA5B0VaTQRdooox9d7fQc
宅貓寓所貓旅館,新北市中和區中山路3段20號1樓,新北市,中和區,ChIJiaShLGGpQjQRBPHCPQFmUEQ
惦記寵物美容,臺南市安南區公學路二段275巷68號,臺南市,安南區,ChIJSUbwAQB3bjQRjjFOm-a6Psw
珈寶貝寵物店,高雄市大寮區鳳屏一路185巷2號,高雄市,大寮區,ChIJMaJ4rdwbbjQRpt1NQc-stm8
英倫王子悠閒時光工作室,臺中市西屯區逢甲路227之1號,臺中市,西屯區,ChIJG1Y0cT4XaTQRdCC8bsCpSsA
歐米菲寵物沙龍旅館,臺中市霧峰區四德路228號1樓、2樓,臺中市,霧峰區,ChIJr7yklQo7aTQRZoTTLGE1Ogs
柴柴家,桃園市龜山區迴龍里龍鳳街29巷9號,桃園市,龜山區,ChIJBzhIEugfaDQRubzoxT7b0ak
萬達寵物事業股份有限公司_仁武仁忠分公司,高雄市仁武區仁忠路149號,高雄市,仁武區,ChIJj-dF2n8bbjQReK48Auzfiiw
咖啡貓犬舍,臺南市永康區埔園里37鄰永大路三段453號1樓,臺南市,永康區,ChIJHZ23-7oPbjQRRa2HzUJnUEA
珊寶寵物店,臺中市北屯區松義街146號,臺中市,北屯區,ChIJDbXyanMXaTQRok1hUi9HWRU
藝淋寵物美容坊,臺中市西屯區西屯路三段159之11巷1號,臺中市,西屯區,ChIJYd813T0VaTQRNx8woK3V2xw
貓膩會館,高雄市鼓山區明誠四路112號1樓,高雄市,鼓山區,ChIJB7-Z7wgFbjQRWD2vr2MGg_w
寶寶好宅寵物生活館,臺中市北屯區北平路四段100號1樓,臺中市,北屯區,ChIJWWsYXCoXaTQRqU9SU-lo9ns
苗琳寵物沙龍,桃園市龜山區桃園市龜山區中興里萬壽路二段1209-2號1樓,桃園市,龜山區,ChIJI_hk1fQeaDQReR_t4uRpzH0
大爺股份有限公司,臺北市內湖區民權東路六段170號1、2樓,臺北市,內湖區,ChIJoRbrhoSsQjQRgopCAEnwwpM
東森寵物雲股份有限公司小港宏平分公司,高雄市小港區宏平路432、434號,高雄市,小港區,ChIJgb7M5NocbjQR0bB9AimAT8I
撩貓逗狗寵物生活坊,桃園市平鎮區廣興里延平路二段28號,桃園市,平鎮區,ChIJWSY4K5cZaDQRCRSchp6VfmM
東森寵物雲股份有限公司東區中華東分公司,臺南市東區中華東路三段193號,臺南市,東區,ChIJ8wAtXJ92bjQRNsmT0jlvvFY
懶狗狗寵物沙龍,高雄市楠梓區右昌街124號,高雄市,楠梓區,ChIJraLBiZIPbjQReEI7nk18NDI
東森寵物雲股份有限公司楠梓興楠分公司,高雄市楠梓區興楠路60號,高雄市,楠梓區,ChIJI4yoCi0QbjQRaa3rLmwX9_E
東森寵物雲股份有限公司小港桂陽分公司,高雄市小港區桂陽路115號,高雄市,小港區,ChIJCWo9hMMdbjQRCxlKq8og_oE
東森寵物雲股份有限公司苓雅大順分公司,高雄市苓雅區大順三路218號1樓,高雄市,苓雅區,ChIJU5uZLccEbjQRQ4iBYUjI3o8
萬達寵物事業股份有限公司內壢文化分公司,桃園市中壢區復興里文化二路95號,桃園市,中壢區,ChIJr44WgT8iaDQRqh3fEjiNEq8
旺達寵物生活館,臺中市北屯區東山路二段141號1、2樓,臺中市,北屯區,ChIJ71ZCphEZaTQRDBvxCdYas7I
喵德渡假貓旅館,桃園市桃園區南華里南華街93巷41號1樓,桃園市,桃園區,ChIJj0rtmlUfaDQRXYxXY9cBBBw
卷毛寵物沙龍,高雄市鳳山區文藝街58號,高雄市,鳳山區,ChIJTfpUDiYbbjQRDxd7zlURMR0
東森寵物雲股份有限公司佳里新生分公司,臺南市佳里區建南里5鄰新生路357號,臺南市,佳里區,ChIJObTUjgV_bjQRUIu2emKssaI
東森寵物雲股份有限公司新營民生分公司,臺南市新營區新北里2鄰民生路167號,臺南市,新營區,ChIJFzYGmGCFbjQRv63lb4st1Bw
東森寵物雲股份有限公司台南關廟分公司,臺南市關廟區南雄路二段462號,臺南市,關廟區,ChIJba_QEVxxbjQRGUIwrpEX-Vo
東森寵物雲股份有限公司仁德中山分公司,臺南市仁德區仁義里22鄰中山路491號1樓,臺南市,仁德區,ChIJrdQXsFVxbjQRAbcqqnJSf4Q
萬達寵物事業股份有限公司高雄美術分公司,高雄市鼓山區明誠四路112號2樓,高雄市,鼓山區,ChIJNYTdqkSpQjQR5VgPsVBSp1Q
剪刀手寵物美容沙龍,臺中市北區崇德路一段474號,臺中市,北區,ChIJzSBUEt8XaTQR3rQlQJveluI
晴虹貓咪美容有限公司,臺中市南區南陽街90號1樓、2樓,臺中市,南區,ChIJN92LQsw9aTQRmx8v8IzZ7M4
御達寵物店,臺中市北區梅川西路四段185號,臺中市,北區,ChIJm18IatoXaTQRK2nCIy09fNM
旺將寵物精品沙龍店,臺中市北區大仁街62號1樓,臺中市,北區,ChIJu8puCnc9aTQRoy76P1PT59M
比比狗寵物旅宿,臺中市豐原區豐東路382號2樓,臺中市,豐原區,ChIJMWxsHzUbaTQRTunHHj-oqkI
朵樂詩寵物美容店,臺中市北屯區景和街346號1樓,臺中市,北屯區,ChIJRQrWY8YXaTQRSz5s_dsxnao
白金寵物店,臺南市佳里區六安里2鄰進學路16號,臺南市,佳里區,ChIJd3jvsRR_bjQRMTJPx4ed3bs
東森寵物雲股份有限公司前鎮瑞隆分公司,高雄市前鎮區瑞隆路401號,高雄市,前鎮區,ChIJpzsLklkDbjQR-tcuMjJ5Bzs
樂曖貓狗生活館,臺中市南區忠孝路3號,臺中市,南區,ChIJeTVtSDQ9aTQRvMjpI1-oGEY
萬達寵物事業股份有限公司台中太平分公司,臺中市太平區臺中市太平區樹孝路8之4號1樓,臺中市,太平區,ChIJNYTdqkSpQjQR5VgPsVBSp1Q
沐貓工作坊,高雄市苓雅區武昌路70巷71號1樓,高雄市,苓雅區,ChIJJ9yv7XwFbjQRB-aHfRL8_JM
韋米雲樂寵物生活用品店,臺中市西區精誠九街10號,臺中市,西區,ChIJBSh3tq09aTQR2lPCaxTbH0s
毛孩你好寵物生活館,臺中市南屯區益昌二街111號2樓,臺中市,南屯區,ChIJme4VvTbuuI0RjBa7J21BZqg
澄佳開發有限公司,臺中市南屯區東興路一段475號1樓,臺中市,南屯區,ChIJZYo-BAA9aTQRXQt038_iHpg
鸚粹斯特工作坊,臺南市後壁區頂安里6鄰頂寮105號之24,臺南市,後壁區,ChIJ16BssNaFbjQR5a2J-0omzUs
相信貓科技有限公司,桃園市龜山區樂善一路5號2樓,桃園市,龜山區,ChIJkbAiN_anQjQRxOAVVj7_E1I
亞威寵物館,高雄市茄萣區高雄市茄萣區濱海路二段78巷12號,高雄市,茄萣區,ChIJnVwhH8oKbjQRAFd50npb4Vg
寵物愛達人用品企業社,臺北市松山區八德路四段174號1樓,臺北市,松山區,ChIJF0OPmpWrQjQRsXUsm-VetR4
毛孩愛達人用品企業社,臺北市松山區健康路260號1樓,臺北市,松山區,ChIJF0OPmpWrQjQRsXUsm-VetR4
阿曼達寵物旅館,桃園市平鎮區金星里上海路311號,桃園市,平鎮區,ChIJI3IRHkcjaDQRhbXs4P3EvUs
糖狗屋寵物生活館,臺南市新營區民權里2鄰中山路174號,臺南市,新營區,ChIJda__vd6FbjQRzOD_ZeGQYyk
貓躍寵物工作室,臺中市東區自強南街5巷32號1樓、2樓,臺中市,東區,ChIJuaCw9F49aTQRwr_HTQOOarU
夏克貝迪寵物有限公司,臺中市北區文昌東二街11號,臺中市,北區,ChIJHcQCfeIXaTQRceYRrqasg4w
幸福貓村貓旅館,臺中市北屯區大連路一段198號1樓,臺中市,北屯區,ChIJFUVyccUXaTQR45UkdV3exxA
老蘇傷殘老狗安養社,高雄市鳥松區松埔北巷4-68號,高雄市,鳥松區,ChIJcZ52jIcbbjQR95RyQHrjtSs
熊樣寵物旅館,高雄市鼓山區明誠三路600號1樓,高雄市,鼓山區,ChIJqyT7naoFbjQRY9rfxHzipWM
大柴小熊寵物美容,臺中市北屯區平德路82巷5號1樓,臺中市,北屯區,ChIJn9cX6UIXaTQRpwAG9aWU8nc
啾啾寵物美容店,臺中市北屯區松竹路二段383之5號1樓,臺中市,北屯區,ChIJUR_znpQXaTQRqLQaM6k4i28
東森寵物雲股份有限公司台南新市分公司,臺南市新市區新市里中正路365號,臺南市,新市區,ChIJJcUQHwN7bjQRxm3yh9yjxtA
東森寵物雲股份有限公司臺中沙鹿分公司,臺中市沙鹿區臺灣大道七段279號、281號,臺中市,沙鹿區,ChIJy8hVMpwVaTQRGcBcvfPCm_Y
霏霏寵物度假會館,臺中市北屯區和福路66號2樓,臺中市,北屯區,ChIJ35SY7AwYaTQRF-r4jx0RLRo
嘟比寵物沙龍,臺中市西屯區國安一路39號,臺中市,西屯區,ChIJuRqyxiMVaTQRG3Mae-7q4ZE
黃金時代寵物美容坊,臺中市南屯區大墩十四街181號,臺中市,南屯區,ChIJI0Cm7ZY9aTQRbDn6ON-wwFw
圓圓愛犬屋,臺中市北區中清路一段210號1樓,臺中市,北區,ChIJP9v_Lns9aTQR4rKtFzjCqSg
汪大爺寵物美容館,臺中市東區大振街30號1樓,臺中市,東區,ChIJe2GkOz49aTQRD3lr_SIwrJ8
阿布寵物生活館,臺南市永康區復華里35鄰復國一路461號,臺南市,永康區,ChIJdU8E-Sl3bjQRd9bDc4kuyf4
毛宅一起寵物美容旅店,桃園市大園區桃園市大園區田心里華興路一段13號,桃園市,大園區,ChIJk9ZWg54haDQRd38iOGkcEf0
歐品邁國際有限公司,臺北市中山區明水路672巷36號1樓,臺北市,中山區,ChIJIUo-7lipQjQRogm0KKw8bvA
跨樂提有限公司,臺北市松山區八德路二段429號2-4樓,臺北市,松山區,ChIJMzrrkdyrQjQR-gDVLH7Y304
星安貓寵物旅館,新北市永和區環河東路1段76號1樓,新北市,永和區,ChIJCdkJDdCpQjQRPCqACAyziow
東森寵物雲股份有限公司鳳山青年分公司,高雄市鳳山區青年路二段62之5號,高雄市,鳳山區,ChIJP4XPXJMbbjQRRBUOPIWfQP8
東森寵物雲股份有限公司前金自立分公司,高雄市前金區自立二路91、93號,高雄市,前金區,ChIJ64rl6okEbjQR4Q7y0Qe0_x0
北歐犬舍有限公司,臺北市大安區新生南路二段60之1和60之2號,臺北市,大安區,ChIJjXdpcIepQjQRolf7Tg_dHTk
呼嚕踏踏貓舍,高雄市鳳山區文化西路34號1、2樓,高雄市,鳳山區,ChIJ7etk-tUbbjQRg0jbz9idSKo
咪粿商行,臺中市西屯區福雅路128巷65號1樓、4樓,臺中市,西屯區,ChIJy018w9IXaTQR8S7dRYr6_rw
迦恩寵物造型坊,臺中市潭子區福潭路507巷1號1樓,臺中市,潭子區,ChIJsZXyamIXaTQRGjQy4EW7Y8U
奧迪奧寵物生活旅宿(犬),臺中市北屯區北屯路281之3號2樓,臺中市,北屯區,ChIJu7_b2X4XaTQR6UkT6KwqFi4
洗狗吧寵物美容工作坊,臺中市西區大業路22號1樓、地下1樓,臺中市,西區,ChIJBWhZGwQ9aTQRGQ2cg5Z19xs
普奇寵物企業社,臺北市中山區長安東路二段195號1樓,臺北市,中山區,ChIJoxdWCW-pQjQROSY5knR93II
米特寵物美容旅店,高雄市楠梓區惠正街145號,高雄市,楠梓區,ChIJ1SsGAc8PbjQREnkG6E1tUcg
萬達寵物事業股份有限公司高雄新興分公司,高雄市新興區高雄市新興區復興一路19號及2樓之1至2樓之3,高雄市,新興區,ChIJNYTdqkSpQjQR5VgPsVBSp1Q
點點屋寵物美容坊,臺中市北屯區太原路三段1387號1樓,臺中市,北屯區,ChIJo2W4uA0YaTQRFbUAxt6_8PI
寄居喵精品貓宿,臺北市信義區信義路四段401號5樓,臺北市,信義區,ChIJKX--crKrQjQR4KxzHWaawXI
儷登愛犬美容工作室,臺中市西區精誠路227號1樓,臺中市,西區,ChIJLcqPp6I9aTQRrVCbQ04ywzQ
東森寵物雲股份有限公司西屯青海分公司,臺中市西屯區青海路二段225號,臺中市,西屯區,ChIJ20qWD5sXaTQRvWMVRwComn8
寵尼寵物澡堂,臺中市大甲區開元路11巷8之2號1樓、2樓,臺中市,大甲區,ChIJPRI8LQAPaTQRjcnj5kJ-VGg
沐新犬貓坊,臺北市大安區基隆路二段120號1樓,臺北市,大安區,ChIJoxnPTLirQjQRxAdLhAeIUdM
八比比寵物,臺中市北屯區文昌三街67號1樓,臺中市,北屯區,ChIJb0UJdAAXaTQRI_Am6gj6e_c
金利海貿易有限公司,高雄市楠梓區大學十一街312號,高雄市,楠梓區,ChIJcx8KoQ0PbjQRUYrp8KVyPE4
琦琦寵物生活館,高雄市旗山區復新街28號,高雄市,旗山區,ChIJweV7SVNqbjQROua_536UqfI
九零一寵物美容,桃園市桃園區新埔里經國路221號,桃園市,桃園區,ChIJ-ywQqLIfaDQR3l1jCZ1NNUs
金狗錐狗狗商行,臺北市松山區南京東路五段163-4號1樓,臺北市,松山區,ChIJ-wCcHROrQjQRZBWTY9tfyj4
搖擺狗寵物美容店,臺北市信義區光復南路417-4號,臺北市,信義區,ChIJxw_URMirQjQRmTmjzS5MsCA
樓上遇見貓咖啡,臺北市松山區光復北路38號2樓,臺北市,松山區,ChIJJ4xFg-qrQjQR-YzIcLrx06s
禮來寵物生活館,臺北市大安區基隆路二段144巷2號1樓,臺北市,大安區,ChIJF5gC5M2rQjQRNVDYYkI6w38
愛貓寒舍有限公司,臺北市大安區基隆路二段110號5樓,臺北市,大安區,ChIJGy5f38qrQjQRaB1aR2od8PU
狗狗好乖企業社,臺北市南港區玉成街4號1樓,臺北市,南港區,ChIJ6Sjjnp2rQjQROEhD2imCo0Q
五號寵物店,臺北市內湖區內湖路一段737巷8弄14號1樓,臺北市,內湖區,ChIJd7OhEmOsQjQRjs-TxaBWTBQ
沐娜寵物生活館,桃園市觀音區草漯里長興路230號1樓,桃園市,觀音區,ChIJlxeSfoInaDQRgOfukSyBmRU
豪斯寵物服務有限公司(Gu Gu House 寵物旅館),臺北市中山區敬業一路160號,臺北市,中山區,ChIJb1AdUxCsQjQRQFJFkHJeTrE
哈荳米比商行,臺北市內湖區內湖路二段376巷12號1樓,臺北市,內湖區,ChIJrWknoYatQjQR_UhkgNr5hO4
毛尾巴商行,臺北市大安區大安路一段205號1樓,臺北市,大安區,ChIJU0487O2rQjQRj0hAf-jO9-k
冠佳犬社,桃園市大園區田心里和平西路168號1樓,桃園市,大園區,ChIJB_fXrJggaDQRe8CohwASiLk
均禾貓旅館,桃園市桃園區莊敬里新埔七街168巷12號1樓,桃園市,桃園區,ChIJ46X5LXAfaDQRVern9t6ia7U
傑士宇企業社,臺中市太平區育德路192號1樓,臺中市,太平區,ChIJsbATji8jaTQRTdR-Cis_JB4
萬達寵物事業股份有限公司八德興豐分公司,桃園市八德區興豐里興豐路485號,桃園市,八德區,ChIJNYTdqkSpQjQR5VgPsVBSp1Q
日光森林寵物旅館,臺中市西區柳川西路二段24號3樓,臺中市,西區,ChIJXeLq3Zc9aTQRa0x_Civ3DNI
愛美狗寵物美容館,臺中市西屯區西屯路二段30之2號1樓,臺中市,西屯區,ChIJU97WTjA9aTQR6T8M9sGqSPQ
囍狗寵物,桃園市楊梅區雙榮里民族路五段241號,桃園市,楊梅區,ChIJO-sk-YcjaDQR3JBpTzh7OIY
蘋果寵物美容館,桃園市楊梅區瑞塘里梅獅路二段499號,桃園市,楊梅區,ChIJ77f2bFQjaDQRfxJBQXni4iA
源香寵物旅館,臺南市南區金華路二段57巷10號,臺南市,南區,ChIJCWcERH95bjQRXhvT_j7P7II
菲麗寵物美容室,桃園市楊梅區楊江里新農街6之8號,桃園市,楊梅區,ChIJcSRuOwA7aDQRFsYeokK0620
吉霸寵物美容沙龍,臺南市官田區二鎮里13鄰工社北街62號1樓,臺南市,官田區,ChIJ49d4-KqHbjQR0Y90lCu5ZNE
好有商行,臺中市西區博館路213號2樓,臺中市,西區,ChIJLxRrxCc9aTQRZEfQMmPaNJw
艾希艾貓旅社,臺中市西區美村路一段93號3樓,臺中市,西區,ChIJNTuqQZw9aTQRzeACraTK0PM
誕生貓舍,高雄市三民區大豐二路372號1、2樓,高雄市,三民區,ChIJp3cTYAAFbjQR5-Pv2F9ferg
貝寵閣寵物生活館,高雄市三民區建國二路157號1、2樓,高雄市,三民區,ChIJtzrgdR4FbjQR6sky5Fuwbew
喵嗚貓咪旅館,桃園市桃園區福安里昆明路250號,桃園市,桃園區,ChIJ8xYy2eMeaDQRTPPWbAKHQrQ
貝菓寵物美宿館,桃園市蘆竹區福昌里忠孝西路175巷17號,桃園市,蘆竹區,ChIJCQDj7twfaDQRihdUNIiB6JE
晶鑽寵物旅館,新北市淡水區新北市淡水區坪頂路39-1號1樓,新北市,淡水區,ChIJadbsMQCvQjQRC0NwQZqjZWE
北鼻精品生活館,新北市林口區中山路65號,新北市,林口區,ChIJ-QGduPCmQjQRvEvxYdFq0bw
友狗寵物沙龍店,臺中市神岡區大漢街49號1樓,臺中市,神岡區,ChIJGTN92rwRaTQROzCC8MiJWXo
念慈有限公司,臺中市北屯區昌平路一段304號3樓、4樓,臺中市,北屯區,ChIJw6M9RuEXaTQR7O8SCwG4uGM
東森寵物雲股份有限公司豐原圓環東分公司,臺中市豐原區圓環東路257號1樓,臺中市,豐原區,ChIJcRc36lIbaTQRij6xkFpFfv0
萬達寵物事業股份有限公司台南新市分公司,臺南市新市區新市區新和里3鄰中正路39、39之1、41號,臺南市,新市區,ChIJNYTdqkSpQjQR5VgPsVBSp1Q
洣倪寵物生活館,臺中市西區精誠二十三街16號1樓,臺中市,西區,ChIJlbIFwKI9aTQRAuS3Z7F8ymg
曖豆寵物造型沙龍,臺中市太平區大源路20之17號1樓,臺中市,太平區,ChIJuZPt6fAjaTQRNVfkn9uW4Ec
太樸寵物生活館,桃園市中壢區普仁里中北路51號1樓,桃園市,中壢區,ChIJvQlQ3H4jaDQRKtqPu-HhJWg
舞颯琪企業社,桃園市中壢區仁祥里華安路44號,桃園市,中壢區,ChIJi_dki3ojaDQRAq-mpCJ2baE
小鑫鑫寵物沙龍,臺中市梧棲區永寧路67巷60之3號1樓,臺中市,梧棲區,ChIJw1iqBUMVaTQRHYnbQUvjWCg
漂亮寶貝動物用品社,高雄市旗山區延平二路121號,高雄市,旗山區,ChIJDRNGQlpqbjQRFCt3r58Qc_Y
小森林純貓美容旅館,桃園市八德區興仁里豐德路326號,桃園市,八德區,ChIJVRTayD0ZaDQRaDi3L_cn--A
悠遊狗寵物生活館,桃園市大園區橫峰里致祥三街36號1及2樓,桃園市,大園區,ChIJsxGiZLomaDQRkHqktjNpKCc
泰迪寵物沙龍,桃園市大園區田心里和平西路156號,桃園市,大園區,ChIJBawYEZkgaDQRr_yUhCC4Mqw
狗宿喜有限合夥,臺南市南區南門路341-4號1-2樓,臺南市,南區,ChIJb074Dtp1bjQRMmqI4UrRm-o
中圓寵物股份有限公司中原二館分公司,桃園市中壢區普強里中山東路二段16號,桃園市,中壢區,ChIJhxB1gD8iaDQRODeDiEPM-Wg
法拉利愛犬美容屋,高雄市鳳山區南正二路135號,高雄市,鳳山區,ChIJ9cqurFoDbjQRNOVBAXdUFYA
自在沐寵物美容工作室,臺中市北區博館路70號1樓,臺中市,北區,ChIJFYFcPWQ9aTQRz14JlOE0XqA
河童寵物部屋,臺南市永康區正強里9鄰自強路296號1樓,臺南市,永康區,ChIJ126PpsxwbjQRyQE_9e_dmeo
香郊遊寵物美容,臺南市安南區安南區國安街210巷22號,臺南市,安南區,ChIJrXgMkJN3bjQRc8WST5YJVIc
萬達寵物事業股份有限公司中原分公司,桃園市中壢區普強里中山東路二段1號,桃園市,中壢區,ChIJNYTdqkSpQjQR5VgPsVBSp1Q
東森寵物雲股份有限公司楠梓梓新分公司,高雄市楠梓區楠梓新路99號、101號1樓,高雄市,楠梓區,ChIJI4yoCi0QbjQRaa3rLmwX9_E
歐哈娜寵窩沙龍,高雄市仁武區八德西路1850號,高雄市,仁武區,ChIJne7CCQwFbjQRDemMVeAe_HY
宜鴻商行,高雄市鼓山區中華一路2220號,高雄市,鼓山區,ChIJVzpG0lYEbjQR6ofvP6za-rg
東森寵物雲股份有限公司路竹中山分公司,高雄市路竹區中山路1205、1207、1209號,高雄市,路竹區,ChIJCSNN5eUNbjQREXyK0WHcpAc
東森寵物雲股份有限公司岡山柳橋分公司,高雄市岡山區柳橋西路6、10號,高雄市,岡山區,ChIJadc4SRQNbjQRQlZPTLhV0Yg
享時生活有限公司,臺中市北屯區景賢路103號1樓、2樓,臺中市,北屯區,ChIJKbVEyD8ZaTQR-3HnoXpRWFg
捷勝犬舍,桃園市中壢區自治里強國路53巷12號3樓,桃園市,中壢區,ChIJ8ZDKcgEiaDQRwIB39ki_FnQ
豆貓殿堂,臺南市新營區新營區新東里25鄰東興路135號1樓,臺南市,新營區,ChIJU9TNLwCFbjQRU_RlEV10fho
喵小二貓咪旅館,臺南市北區北區大港街93號,臺南市,北區,ChIJL-lE0Gx3bjQR5aIi7wq8ipw
富達易企業社,高雄市三民區建工路802號,高雄市,三民區,ChIJN9Xb1AsDbjQRlDRLmVofHtw
魔斯凱歐寵物沙龍,臺中市南屯區黎明東街390號1樓,臺中市,南屯區,ChIJt9T0F8I9aTQRMUppHEKTUoA
沐樂寵物澡堂,臺中市大里區永隆路63號1樓,臺中市,大里區,ChIJVQMGXuM9aTQR5t6MBNWXztc
魚中魚樂活有限公司民族分公司,高雄市三民區民族一路610、612號,高雄市,三民區,ChIJLzr5wx4FbjQRge91KuLKohI
貓掌星雲地球總部有限公司,新北市八里區新北市八里區觀海大道95號1樓,新北市,八里區,ChIJ2XxgCAClQjQRjMQjvnULgYc
新八寵物美容,臺中市北屯區松竹路二段215號1樓,臺中市,北屯區,ChIJUR_znpQXaTQRqLQaM6k4i28
百威犬舍,桃園市大園區溪海里3鄰溪洲路69巷70號(溪海里3鄰下溪洲子21-3號門牌整編),桃園市,大園區,ChIJ_____8MgaDQRB6vNLjxTWaE
棉花田寵物商行,桃園市蘆竹區上竹里大竹路426之8號1樓,桃園市,蘆竹區,ChIJtWdcuIcfaDQRaaz3HadXwmY
東森寵物雲股份有限公司三民建工分公司,高雄市三民區建工路351號1、2樓,高雄市,三民區,ChIJfRGMn48FbjQRTJ5VvHzCAmo
汪汪犬旅寵物旅館,臺中市北屯區松竹路二段361號3樓,臺中市,北屯區,ChIJI4ikpxcXaTQRoPt_oh_Pgck
沐森琳寵物商行,臺中市北區梅亭街490號,臺中市,北區,ChIJV__S0-s9aTQR15Qf7vX4i2Q
愛樂寵物店,臺中市南屯區向心南路730號1樓,臺中市,南屯區,ChIJozgomrU9aTQRKqD3M351YQQ
喬樂彼犬貓沙龍坊,新北市汐止區明峰街129號1樓,新北市,汐止區,ChIJadVbEUtTXTQR9QZb2LPhZ_A
狗狗你好寵物美容,臺中市東區進化路272-5號1樓,臺中市,東區,ChIJZZ5adIk9aTQR2RmUWzawciA
東森寵物雲股份有限公司仁武仁雄分公司,高雄市仁武區仁雄路33號,高雄市,仁武區,ChIJOwjz4LEabjQR60h_v9NovSQ
華貴皇族國際專業貓舍,新北市中和區秀朗路3段128巷9弄11號1樓,新北市,中和區,ChIJk9zS8lavQjQRz4Xa9NL4Mp0
樂維格寵物生活工作室,臺中市北區太原路二段203號,臺中市,北區,ChIJqb5SLhcXaTQRExldZ-IYfdM
牛棚寵物沙龍,桃園市中壢區東興里龍岡路一段94號,桃園市,中壢區,ChIJ1by2mk4iaDQRCHuocyfgp_s
東森寵物雲股份有限公司高雄十全分公司,高雄市三民區十全二路114、116號,高雄市,三民區,ChIJfS7Nc_QFbjQRuw4FfPCL4Ro
琥珀貓舍,桃園市楊梅區埔心里興南街40號,桃園市,楊梅區,ChIJabE_OQsjaDQRJlHsMX9hmH0
東森寵物雲股份有限公司永康中華分公司,臺南市永康區安康里15鄰中華路651、653、657號,臺南市,永康區,ChIJYbVHyd92bjQRfg_i699GVrc
東森寵物雲股份有限公司南區新興分公司,臺南市南區新興路509號之2及509號之3,臺南市,南區,ChIJ06Qpi3x1bjQRcleo-ne2hc8
東森寵物雲股份有限公司善化光復分公司,臺南市善化區文昌里7鄰光復路66號1樓,臺南市,善化區,ChIJ40QeSid7bjQRpjt0mub1NFw
東森寵物雲股份有限公司安南海佃分公司,臺南市安南區海佃路二段58、60、62、66號1樓,臺南市,安南區,ChIJywDr1bN3bjQRulVLb8tz5Po
東森寵物雲股份有限公司安平建平分公司,臺南市安平區建平路271號1樓,臺南市,安平區,ChIJYfTEynR2bjQRI-ZBZl80yZA
東森寵物雲股份有限公司北區西門分公司,臺南市北區西門路四段268號,臺南市,北區,ChIJF5fTwPl2bjQRW_7itCG2dug
優有寵物美容生活館,臺南市安平區建平四街18巷18弄12號,臺南市,安平區,ChIJEzKS2Qp2bjQRBbGNcKaZujg
咪谷貓旅館,臺中市西區福人街44巷2號1樓,臺中市,西區,ChIJuSe82NM9aTQRW3rHXgcqpkM
彩虹魚寵物水族百貨館,桃園市桃園區同安里大興西路一段221號1樓,桃園市,桃園區,ChIJk8bpqrIfaDQRcEGUi3ggZMs
中圓寵物股份有限公司南崁分公司,桃園市蘆竹區錦中里南崁路361號1樓,桃園市,蘆竹區,ChIJvVArjK4faDQRLNleQo2lZsI
達特歐寵物旅館,桃園市大園區五權里五青路183巷53號,桃園市,大園區,ChIJ1754PUsgaDQRhy5J6Kpi9-k
金冠霖寵物有限公司,桃園市蘆竹區錦中里南崁路一段24號1樓,桃園市,蘆竹區,ChIJrWWeSnSgQjQRh5AAPb6JysE
好萌好猛寵物有限公司,桃園市中壢區洽溪里永泰路151號,桃園市,中壢區,ChIJoUuhpwAhaDQRieZ4gUV1JtE
寵貝比寵物沙龍,桃園市桃園區春日里大業路 二段137號1樓,桃園市,桃園區,ChIJpU4RG0seaDQRLV-1msKqWNY
親龍水族企業社,桃園市蘆竹區長興里南崁路一段284號,桃園市,蘆竹區,ChIJaWvvRAugQjQRoFIY2uLXB5U
九福寵物店,桃園市桃園區朝陽里民生路464號,桃園市,桃園區,ChIJGX5soP8eaDQR-jh5Cri-nQE
好萌商行,桃園市平鎮區金陵里11鄰振平街221號,桃園市,平鎮區,ChIJmQb4h1MiaDQRU6RQwUalgYg
芭比寵物坊,桃園市桃園區東埔里正康二街103號,桃園市,桃園區,ChIJCc_frKofaDQRiSlAU3JJCvs
喜喜商行,臺中市西區五權七街206號1樓,臺中市,西區,ChIJJaUSHKU9aTQRYnlLXH8n8rQ
寶育愛犬訓練場,臺中市大里區塗城路171巷2號1樓,臺中市,大里區,ChIJPWDkgPwUaTQRHAKAti0_XmY
魚中魚樂活有限公司大墩分公司,臺中市南屯區文心路一段385號1樓,臺中市,南屯區,ChIJEVBXIL49aTQRh8EsuK-sp_I
小森林寵物旅館,桃園市平鎮區義民里環南路二段28號,桃園市,平鎮區,ChIJe38SLzMjaDQRJrlnE2XC27U
毛毛屋寵物美容,臺中市北屯區臺中市北屯區大連路三段191號,臺中市,北屯區,ChIJ25jNlO4XaTQRD14d8F2bQL0
宏昇美容坊,高雄市鳳山區五甲二路592號1樓,高雄市,鳳山區,ChIJg3lsTj8bbjQRMoBaYpMymtQ
樂逗寵物美容店,臺中市太平區大興路178號1樓,臺中市,太平區,ChIJd7xOx8cZaTQRoGP7_ZfdWTY
杏芙貓舍,臺南市永康區台南市永康區大橋里1鄰大橋三街77號,臺南市,永康區,ChIJW9s5dUF3bjQR_1gqduZgTA0
佐佐瑪莉寵物沙龍,臺南市安平區民權路四段381之8號,臺南市,安平區,ChIJfYr517F3bjQRbyG2ZS4NmGs
凱凱寵物生活館,臺南市中西區中西區西門路二段39號,臺南市,中西區,ChIJCYcQ_Np1bjQRiWGE6UIXrjs
凡采寵物坊,臺中市清水區中清路九段508號1樓、2樓,臺中市,清水區,ChIJi1aphZsUaTQRy-VaJxd7qK8
晨露森林寵物旅店,臺中市清水區槺榔里民族路三段117號,臺中市,清水區,ChIJiR2Sj6UXaTQRg5M3v0i10uw
日光寵物旅館,高雄市仁武區大正路312號1樓,高雄市,仁武區,ChIJlzrHVn0FbjQRo6egbKPHGH4
林緁寵物生活館,高雄市鳳山區頂興街211號1樓,高雄市,鳳山區,ChIJx3yRlDEbbjQRAPwsK7_9YB8
犬家福寵物精品店,桃園市桃園區中成里永安路409號1樓,桃園市,桃園區,ChIJlSQUxAcfaDQRGhtLA8MRU3o
狗的窩企業社,高雄市三民區遼寧三街93號1樓,高雄市,三民區,ChIJl4M-mnQFbjQRo_5OEP2h3L0
努塔波企業社,新北市板橋區仁化街42巷5弄1號1樓,新北市,板橋區,ChIJm_OHPyepQjQRFXRoO21-ch0
屋萀貓企業社,新北市三重區自強路1段312巷11號,新北市,三重區,ChIJiUUeWmepQjQRymOPg1WErHw
佐欣寵物工坊,高雄市仁武區仁光路72號,高雄市,仁武區,ChIJofk1z8kbbjQRItkyHpYJ0B8
歐藤寵物沙龍,臺中市西區模範街35之2號1樓,臺中市,西區,ChIJ2Z2fbJk9aTQRcZhVyORfnak
魚中魚樂活有限公司南屯分公司,臺中市南屯區五權西路二段80號1樓,臺中市,南屯區,ChIJY3YYG7s9aTQRG6v5Qboyguc
豆丁寵物美學沙龍,桃園市桃園區大業路二段245號,桃園市,桃園區,ChIJNWlpxkYfaDQRHGGBR_h7RoQ
家有毛孩有限公司,桃園市桃園區保定三街89巷1號,桃園市,桃園區,ChIJZ46CR9AfaDQRnygOsNGZrTI
孩要有你寵物沙龍,桃園市桃園區敬二街23號,桃園市,桃園區,ChIJY6abQ5gfaDQRHPu61Xw_BcI
甜媽幸福寵物,桃園市八德區高明里高城五街22巷5弄3號,桃園市,八德區,ChIJ0Z40dkUfaDQR6YhHKYGeNvU
香腳ㄚ寵物工坊,高雄市前鎮區武慶一路234號1樓,高雄市,前鎮區,ChIJTd2hXnsDbjQRFGX9vQkbkvY
貓花園工作室,臺中市南區美村路二段172號1樓,臺中市,南區,ChIJDZGIH6s9aTQRnNIfQ3MMpS0
樂芙倪精品寵物旅館,臺南市東區裕忠路128之3號,臺南市,東區,ChIJheu1roh3bjQRbFr3ejkecXo
狗崽子寵物沙龍,臺北市北投區中央南路一段42-1號2樓,臺北市,北投區,ChIJm5YSQFKuQjQRjy266llcWMw
秋鳳莊寵物店,臺中市烏日區溪南路一段126巷91弄52號1樓,臺中市,烏日區,ChIJd7znZQU7aTQRGTCOWMSmaPc
意勛寵物綜合服務,高雄市前鎮區梧州街30巷7號,高雄市,前鎮區,ChIJL6tYYtEbbjQRrWzVhCv0yng
小沐浴寵物美容坊,桃園市中壢區桃園市中壢區洽溪里永能路3號,桃園市,中壢區,ChIJXf9oGUYhaDQRmkWcoaThk_g
抱抱熊寵物生活館,桃園市八德區大和里建國路1134號,桃園市,八德區,ChIJz8v-980YaDQRPA3mUYfPz_Y
吉兒溫馨貓館,桃園市桃園區桃園市桃園區忠義里民有六街12號,桃園市,桃園區,ChIJYfDdc1EeaDQRRxSPILF50b4
蝴蝶蘭犬舍,臺中市中區光復路10號1樓,臺中市,中區,ChIJ-S5c0BQ9aTQRQUwr8zG1rsI
摸肚肚企業社,桃園市中壢區青埔里青昇路256號,桃園市,中壢區,ChIJnwohYdAhaDQRaxbYpAXMU70
犬藝匠寵物美容沙龍,臺中市南區五權南路548號1樓,臺中市,南區,ChIJs2x0h4U9aTQRD5MrjON9_Xc
咪寶寵物坊,臺中市西屯區國際街25-1號,臺中市,西屯區,ChIJD2a5-4oVaTQRxz_kvpDS6PY
東森寵物雲股份有限公司臺中大里分公司,臺中市大里區國光路二段441號,臺中市,大里區,ChIJ4QaWCLw9aTQRcARlmZaX2DE
歆詠企業社,臺中市北區山西路一段56號1樓、2樓,臺中市,北區,ChIJSTdT2dcXaTQRe2jw1zxFQnc
岱哥寵物精品,臺北市士林區天母西路3號2樓之1,臺北市,士林區,ChIJwV5ksAmpQjQRl40HZdZal_g
捲毛叔叔寵物美容,桃園市中壢區環中東路二段694、696號1樓、2樓,桃園市,中壢區,ChIJtRJTQ0UiaDQROk6Whqn5mTo
璽喵屋,臺北市松山區八德路四段476號1樓,臺北市,松山區,ChIJa6QObZerQjQRaFP7j4R0MC4
全滿屋寵物生活館,臺北市文山區興隆路二段220巷31弄7號,臺北市,文山區,ChIJZXqLchGqQjQRfbsxfN9w6TQ
小客廳寵物事業有限公司,臺北市內湖區成功路四段30巷19號,臺北市,內湖區,ChIJfaAvPY2sQjQRVcDcoTYQhVo
愛犬當家美容屋,桃園市平鎮區金星里中庸路116巷3號,桃園市,平鎮區,ChIJs7Xl89sjaDQRFl44rEf_szs
喵森有限公司,臺南市東區裕農路375號地下層,臺南市,東區,ChIJ_WuvCb12bjQRblBbWOs7VKk
夏沐沐寵物館,臺中市西屯區永福路118巷11號1樓、地下1樓,臺中市,西屯區,ChIJiR2Sj6UXaTQRg5M3v0i10uw
紡晟寵物工坊,臺中市西區五權路2-25號1樓,臺中市,西區,ChIJS06SmcyrQjQRpxzDQitydFU
艾絲比寵物生活館,臺南市永康區中山東路127號1樓,臺南市,永康區,ChIJ44XNVsN3bjQRcPOCl5f6xmY
麻豆幸福種子寵物沙龍,臺南市麻豆區民生路17-1號2樓,臺南市,麻豆區,ChIJqZNlaih_bjQRPp1uTj1JKYA
有安芯寵物生活館,臺中市太平區新興路30號,臺中市,太平區,ChIJ6-tv84EXaTQRAGZ4Ryc6spc
熊熊家寵物美容,桃園市平鎮區龍興里龍美路39巷2號,桃園市,平鎮區,ChIJn0R4HrIjaDQRhBZ6WlSxNVw
一期一會寵物美學旅館,桃園市中壢區過嶺里松仁路8號,桃園市,中壢區,ChIJCZsJYI4laDQR-qfGu_y73GI
貓貓肉寵物店,臺中市大里區自立路67號2樓,臺中市,大里區,ChIJecmULOw9aTQRwGdd5KqSZEE
家寶寵物店(犬),臺中市大里區內新街47-2號1樓,臺中市,大里區,ChIJFX8IGA89aTQR_NityuoR0tA
花花寵物美容會館,臺中市北區三民路三段285號1樓,臺中市,北區,ChIJTzUtsmA9aTQRNjWKhkZy7Rs
露娜寵物旅館,高雄市三民區義昌路42號,高雄市,三民區,ChIJfYHGeh4FbjQRwKC8byADmLE
悅沐寵物美容精品館,臺中市西屯區西屯路三段164之7號1樓,臺中市,西屯區,ChIJiR2Sj6UXaTQRg5M3v0i10uw
新興幸福種子寵物沙龍,臺南市南區新興路133號1-2樓,臺南市,南區,ChIJdUTyekp1bjQRLPNGYdzyV08
永欣寵物美容坊,臺中市西屯區福林路31號1樓,臺中市,西屯區,ChIJP8RkifsVaTQRP_Ll17Snyl4
黑馬寵物美容,高雄市前鎮區崗山西街295號,高雄市,前鎮區,ChIJvdZFyWwDbjQRFBioxUVmsfA
海灣樂世界股份有限公司,臺中市北屯區東山路二段151之2號1樓、2樓,臺中市,北屯區,ChIJ0ZXouSkZaTQRr95DgPP-JpU
查克音國際有限公司,臺中市西區臺灣大道二段311巷1弄30號,臺中市,西區,ChIJXWQM8-mrQjQRyFLBEgsuCPc
英姿愛犬美容屋,臺南市新營區臺南市新營區新進路二段85號1樓,臺南市,新營區,ChIJU_TP23eGbjQRME9g8B7eDpo
貓奴貓旅館,高雄市左營區文自路164號,高雄市,左營區,ChIJD_G71rAFbjQR1-sXQYHrgIM
維緹寵物有限公司鳳松分店,高雄市鳳山區鳳松路179號1樓,高雄市,鳳山區,ChIJweiQbdwbbjQRff_emZYUWYM
阿帆達寵物生活館,臺南市北區文賢路1162號1樓,臺南市,北區,ChIJdU8E-Sl3bjQRd9bDc4kuyf4
真愛狗屋寵物沙龍,高雄市路竹區中興路260號,高雄市,路竹區,ChIJhx_SfZcMbjQRZR6KLzR5A1Y
第寶澡堂,臺南市中西區金華路三段6號,臺南市,中西區,ChIJoRACeFB3bjQRiOC03XMIwBE
都在貓咪旅館,臺南市中西區民族路三段218號3樓,臺南市,中西區,ChIJlZ49HAd3bjQRVI-hqM6Csec
王美工作室,臺中市西屯區大墩二十街92號,臺中市,西屯區,ChIJ7VwC-p49aTQRZpk4lKO4hc0
八八精緻寵物旅館,臺中市北屯區臺中市北屯區文心路三段987號1樓、2樓、3樓、4樓,臺中市,北屯區,ChIJgYkjnPEXaTQRzWbzHlemmZg
安中寵沐殿企業社,臺南市安南區安中路一段235號,臺南市,安南區,ChIJUcO_QpB3bjQRedk_307W7xo
蔓蔓寵物行號,臺南市永康區臺南市永康區小北路3-2號1樓,臺南市,永康區,ChIJ1daNZZB3bjQRvq8pyy46CUk
四季逗企業社,臺南市東區東平路142號,臺南市,東區,ChIJy0IaGGV1bjQRpNt6AjCEt5Q
東興貝貝寵物有限公司,臺中市南屯區東興路三段253號1樓、2樓,臺中市,南屯區,ChIJpz2tQrg9aTQRRVdBw65FROw
傑盛愛犬訓練學苑,桃園市大溪區仁愛里埔頂六街177號,桃園市,大溪區,ChIJ213VxCkZaDQRZ95P1JDC-5M
日安貓坊,臺中市南區文心南路821號3樓,臺中市,南區,ChIJZw5jsFg9aTQRSD6gXZ1c0dg
鴻賓寵物美容之家,臺中市西區忠誠街132號1樓,臺中市,西區,ChIJt12d0Js9aTQRcN33hdG_Gpw
和旺犬舍,新北市泰山區泰林路3段772巷17號1樓,新北市,泰山區,ChIJ5RE6daOnQjQRbEKZwtl4EeA
日光寵物,桃園市中壢區青埔里領航南路三段83-3號,桃園市,中壢區,ChIJddtvlpkhaDQR5fCBlXeFlyI
一級棒專業寵物美容店,新北市永和區中山路1段79號1樓,新北市,永和區,ChIJL-IoR8KpQjQRuEawov2lISA
莯蓉寵物美容店,臺中市北屯區瀋陽北路20號1樓,臺中市,北屯區,ChIJ35v0Bl8XaTQRE8bJ_M1CivM
白襪子寵物生活館,臺中市北區國強街15號1樓,臺中市,北區,ChIJC2NTDv51bjQRZWPbmLE9Aqg
狗勾寵物造型,臺中市太平區環中東路三段288號1樓,臺中市,太平區,ChIJQ0_MA3cZaTQRvCEzucSScuI
汪喵的旅有限公司,臺中市北屯區軍福十六路372號,臺中市,北屯區,ChIJfVgShoU9aTQRihqjf8MTyJg
涵禹寵物工作室,新北市中和區中原街106號1樓,新北市,中和區,ChIJ0aQVWMepQjQRQDZf-b3LN8k
堉晨寵物實業有限公司,高雄市新興區新田路116號,高雄市,新興區,ChIJ1Re4qlsFbjQRn1QKXpC4na4
威兒森寵物坊,新北市樹林區中正路81號1樓,新北市,樹林區,ChIJj6L71qAdaDQRgRLNwZr9UII
快樂無比寵物美容,臺南市官田區隆田里9鄰文化街62號1樓,臺南市,官田區,ChIJGbso-mp9bjQRJPEKMNAR9pE
東森寵物雲股份有限公司臺中北屯分公司,臺中市北屯區北屯路218號,臺中市,北屯區,ChIJDwE99IkXaTQRvIY-G_NiQIk
朵朵寵愛有家企業社,臺中市北屯區熱河路三段208號1樓、2樓,臺中市,北屯區,ChIJ7SesQQAXaTQRP_CsIipcWno
禧毛寵物美容,臺中市北區五權路500巷6弄12號1樓,臺中市,北區,ChIJtz1_Weo9aTQRB9KircWwrUU
瑋特貓狗生活館,臺中市南屯區大墩十一街648號,臺中市,南屯區,ChIJ5y_hEZc9aTQR1ckMOLzjQaw
莯思寵物美容店,臺中市太平區立文街9號1樓,臺中市,太平區,ChIJG-aDwrMZaTQRTS_5H9YrgzQ
啵希實業有限公司,臺中市南屯區黎明路二段698號1樓、2樓,臺中市,南屯區,ChIJHR81H-89aTQRgwBZjK6NZ0g
肉掌星球寵物生活館,臺中市豐原區圓環東路610之1號1樓、2樓,臺中市,豐原區,ChIJkTefuUkbaTQRF9og7QZg-Xc
浪花寵藝工作室,新北市三峽區長泰街48號1樓,新北市,三峽區,ChIJeza4mE4baDQR9LIJr9aE2DU
愛麗寵物旅館,桃園市龍潭區桃園市龍潭區龍星里中正路331-1號,桃園市,龍潭區,ChIJ67d8slU9aDQREk3OwEMOFt4
台灣皇爵貿易股份有限公司,高雄市楠梓區藍昌路421號2樓,高雄市,楠梓區,ChIJR6JgGyYPbjQRohh1MoQJvyU
行家寵物美容生活坊,桃園市平鎮區湧豐里南豐路190巷4號,桃園市,平鎮區,ChIJV7MrA2MjaDQROuUSjh32SEE
東森寵物雲股份有限公司龜山復興分公司,桃園市龜山區大湖里復興一路349、351、353號,桃園市,龜山區,ChIJf3gf8TanQjQR0eqyeaYnezg
東森寵物雲股份有限公司蘆竹大新分公司,桃園市蘆竹區大竹里大新一街29號1樓,桃園市,蘆竹區,ChIJOV7XXW8haDQRA2cCDuKaJmk
尤菈旅館,臺南市安南區佃西里公學路四段351號,臺南市,安南區,ChIJM4fipqd3bjQR3b5lGslQIzU
三腳阿比狗沙龍,臺中市南區樹義一巷14之3號1樓,臺中市,南區,ChIJz5zx0Vc8aTQRTay2TXMPv-E
樂洗狗寵物生活館,臺北市大同區華亭街57號1樓,臺北市,大同區,ChIJqenV__GpQjQRZWSXMICN8Pk
美森寵物美容工作室,臺中市太平區樹德路16-2號1樓,臺中市,太平區,ChIJSyjDQ1M9aTQRqOWSP93blHQ
喜狗喜貓寵物生活館,臺中市西區南屯路一段10號,臺中市,西區,ChIJoT8bf6c9aTQRsLMRg3SbWYE
品淇時尚寵物美容店,臺中市南屯區大業路595號,臺中市,南屯區,ChIJs0bsR7o9aTQRBYY4Xef_ujc
垛俐寵物美容工作坊,臺中市南屯區河南路四段212號,臺中市,南屯區,ChIJDR8GI5w9aTQR-o3MQUqI87c
狗仔隊寵物名店,臺中市大里區成功路109號1樓,臺中市,大里區,ChIJj4eSebA8aTQRpzxSl_4rR_g
石頭漸層貓舍,新北市永和區中正路417號11樓,新北市,永和區,ChIJKeH63japQjQRvBWr-C0PEIo
六月寵物沙龍,臺中市北屯區旅順路一段64之2號1樓,臺中市,北屯區,ChIJjUVBQVEXaTQRcyhm6catCxs
囍狗寵物澡堂,臺中市北屯區遼陽四街45號1樓,臺中市,北屯區,ChIJi8I9ybgXaTQRCwjCo9UqhMQ
宿喜貓商事,臺北市中正區南昌路二段206號2樓之3,臺北市,中正區,ChIJU5d1ov6pQjQRiLUI6hCKwmw
甜寵汪喵生活館,桃園市大溪區仁善里27鄰仁善街212號,桃園市,大溪區,ChIJUbmhCYUZaDQRU3Pl86uIepU
伏特喵專業貓咪美容,臺中市大雅區臺中市大雅區大雅路312號1樓、2樓,臺中市,大雅區,ChIJBZLJpZ8XaTQROMB7u2-mD4U
狗王之家寵物美容生活館,臺南市永康區崑山里34鄰國光五街41號,臺南市,永康區,ChIJBUVVTip3bjQRi517HQYsy7k
朵啡貓咪幸福屋,臺中市北屯區北屯路439-15號1樓、2樓,臺中市,北屯區,ChIJY00WDnyWbjQRsRu9a0CRHXk
草木逢春有限公司,臺中市東區樂業二路80號,臺中市,東區,ChIJwUkTEc89aTQR1DSOMDg_lLg
寶朵樂寵物美容行旅,臺中市北區益華街138號1樓,臺中市,北區,ChIJJX0ODUcXaTQR_T2B0RdvjYU
萬達寵物事業股份有限公司大里成功分公司,臺中市大里區成功路498號1樓,臺中市,大里區,ChIJNYTdqkSpQjQR5VgPsVBSp1Q
小潔毛寵物旅店,桃園市楊梅區桃園市楊梅區永寧里環南路59號1樓,桃園市,楊梅區,ChIJdbEffN07aDQRCMDfC-f-YwY
寵牠寵物沙龍,臺中市東區臺中市東區東英路295號1樓,臺中市,東區,ChIJc8rW_xw9aTQRxEQn0KDU1j0
毛咖股份有限公司,臺中市西區臺中市西區臺灣大道二段222號,臺中市,西區,ChIJGR2mwyY9aTQRdBGdYr-Wppg
艾森寵物沙龍,桃園市桃園區大林里樹仁三街79號1樓,桃園市,桃園區,ChIJDVa4_sIeaDQR5ELpSrMK2zY
動物派對寵物店,桃園市桃園區新埔里經國路208巷22號,桃園市,桃園區,ChIJObE4J94faDQRjLnKNEUaPJM
熊嘎意寵物美容,臺中市潭子區臺中市潭子區興華一路269號1樓,臺中市,潭子區,ChIJPQHWz8oXaTQRzIogO63KfZ4
寵物夢工廠,臺中市東勢區臺中市東勢區豐勢路546號1樓,臺中市,東勢區,ChIJE-7xoWMdaTQRB1bgxBwzCgQ
花居寵物生活別館,桃園市桃園區長德里中正三街389號1樓、夾層,桃園市,桃園區,ChIJO1CUWdMfaDQR40_Slzingjc
超紘寵物商行,臺中市南屯區文心路一段66號1樓、地下1樓,臺中市,南屯區,ChIJEVBXIL49aTQRA_bdzlbo1Mg
狗時尚寵物沙龍會館,桃園市桃園區會稽里大興路288-1號,桃園市,桃園區,ChIJWdieO0keaDQRzk3N1U2o1Ts
貓王旅店,臺中市西屯區臺中市西屯區大墩十九街152號1樓,臺中市,西屯區,ChIJ7VwC-p49aTQRZpk4lKO4hc0
晨曄寵物店,桃園市桃園區寶山里大興路209號1樓,桃園市,桃園區,ChIJQwYac0weaDQR1UJtM6_ONcc
保平莊柴犬專業犬舍,新北市汐止區大同路二段653號1樓,新北市,汐止區,ChIJQYcizlhTXTQRSmf31wGzP9s
奇優達寵物生活館,桃園市桃園區中路里國際路二段194號2樓,桃園市,桃園區,ChIJUajcCX4faDQR2GFcY2-aomQ
理毛寵物美容坊,臺南市安平區華平里平通路519號1~2樓,臺南市,安平區,ChIJmdxv1UJ3bjQRSLmYIbR99YY
金寶寵物美容坊,臺中市北屯區平德路142巷5號,臺中市,北屯區,ChIJOWYcu0oWaTQRC5UcIL2VAQg
小潘寵物美容旅館,桃園市桃園區北門里民生路495之9號2樓,桃園市,桃園區,ChIJFd43JmsfaDQR3lKrT9oyNNk
壓耳狗狗寵物專門店,臺南市永康區中華二路401號1F,臺南市,永康區,ChIJZUmbEZR3bjQRn8H9PysWrNI
噹寶的家寵物店,新北市中和區員山路174巷7號9號1樓,新北市,中和區,ChIJyerRJ-kDaDQRuqpSnR8ZSaM
旺憂有限公司,臺中市南屯區東興路二段265號,臺中市,南屯區,ChIJ-QnIBzk9aTQRDwY5Szsl6ko
小犬大宅寵物旅店,臺中市南屯區大英街179號1樓、2樓,臺中市,南屯區,ChIJsUQsfK89aTQRU9yLcQWwsV4
摸洗寵物生活旅店,桃園市楊梅區梅溪里新農街二段100號,桃園市,楊梅區,ChIJd1FFV54laDQR4eR5x2QJt4c
快樂尾巴寵物旅館,桃園市桃園區中和里中正路348號1、2樓,桃園市,桃園區,ChIJN1PY0_8eaDQRqRtMAuAB1pM
萬達寵物事業股份有限公司桃園龍安分公司,桃園市桃園區龍鳳里龍安街135號1樓,桃園市,桃園區,ChIJNYTdqkSpQjQR5VgPsVBSp1Q
狗狗打呼寵物旅館,臺中市西屯區臺中市西屯區青海路一段194號2樓,臺中市,西屯區,ChIJi4BFR-g9aTQRhQnGAY47D40
偷偷摸貓舍商行,新北市中和區景平路150之3號,新北市,中和區,ChIJXeyyFsUDaDQRARr9_k9G9YI
你和我寵物沙龍,桃園市八德區瑞興里仁德一路136號,桃園市,八德區,ChIJY32as-sZaDQReFZfJgWhJdg
毛沛屋寵物沙龍,臺中市西區臺中市西區篤行路235號1樓,臺中市,西區,ChIJp7pcgDM9aTQRWrVgTgZ65Z4
逗個貓寵物生活館,臺中市烏日區臺中市烏日區新興路207號1樓、2樓,臺中市,烏日區,ChIJ__gAGO89aTQRuTzycQsFsxI
汪喵歡樂營,桃園市中壢區普慶里中山東路二段311、313號1樓,桃園市,中壢區,ChIJH0nPHoYjaDQRByeSEmkRRlM
維珍股份有限公司,臺中市霧峰區吉峰東路41之3號1樓,臺中市,霧峰區,ChIJBX8YglQjaTQR6z0Csd_QaUk
真愛寵物用品生活館,臺南市東區崇明路109號,臺南市,東區,ChIJ_UrH3px2bjQRiDFL8Ql65JM
東森寵物雲股份有限公司台中軍功分公司,臺中市北屯區軍功路一段603號,臺中市,北屯區,ChIJ7zohOjwZaTQR0GlatELZnbc
希琪生活館,臺中市南屯區臺中市南屯區大業路361號1樓,臺中市,南屯區,ChIJbc-sRoo9aTQRtXRe8Gq5S2o
阿尼牧絲寵物旅館,臺中市烏日區臺中市烏日區高鐵路一段12號1樓、2樓、3樓,臺中市,烏日區,ChIJr8v8PjQ_aTQRvlf2GZNHJRk
溫斯頓貓舍,臺中市北屯區熱河路三段91巷1號1樓,臺中市,北屯區,ChIJoxDTA9UXaTQRCDg2zWW6ENA
東森寵物雲股份有限公司桃園觀音分公司,桃園市觀音區草新里四維路122號1樓,桃園市,觀音區,ChIJY0CaShEnaDQR78ffXlsDcos
最推薦幼犬專賣,高雄市三民區鼎山街372號,高雄市,三民區,ChIJRUJcdlsbbjQRSA_21udLhSM
轉角二號寵物小棧,桃園市桃園區東山里春日路2號,桃園市,桃園區,ChIJV4IieHsfaDQRrIAKd-Cd4VI
自然捲寵物澡堂,臺南市中西區府緯街9巷29之10、11號,臺南市,中西區,ChIJY43rvxkVaTQRvX0IyJxtxp8
沐意盎然寵物沙龍,臺南市南區金華路一段484巷52號,臺南市,南區,ChIJxz-ZVxV1bjQRqDk3NHNiXg8
越宏寵物有限公司,臺中市南屯區文心路一段66號1樓、地下1樓,臺中市,南屯區,ChIJj_6eLzM9aTQRrsuXb_QMAMg
毛字號寵物工作室,臺中市南屯區文心南一路188巷11號1樓,臺中市,南屯區,ChIJGRuk2Gs9aTQR8jMisUSim-o
締曜寵物美學,臺南市安平區建平十一街332號1樓,臺南市,安平區,ChIJX1IQgId3bjQRiHBqiT59N38
陪樂樂寵物館,臺南市永康區永康里14鄰永中街96號,臺南市,永康區,ChIJ2T9ZfFtxbjQRVOYMh-xCSi4
毛後供寵物屋,臺南市新市區新和里25鄰華興街5號1樓,臺南市,新市區,ChIJ3y5NVId7bjQRS3YwbJJuILk
寵兒貝特,新北市三重區自強路5段67號1樓,新北市,三重區,ChIJ06tbpSupQjQRYW_icxgn5pU
興旺日本柴犬專賣店,臺中市沙鹿區臺灣大道七段313號,臺中市,沙鹿區,ChIJF8UtRswVaTQRSenENLGV6xM
咕吉家貓舍,臺中市西屯區上明二街8號,臺中市,西屯區,ChIJUfe1guk9aTQRvjaMIW8PyXM
迪恩斯毛孩工作室,臺中市西區向上路一段17巷2弄21號1樓,臺中市,西區,ChIJwTXs_ic9aTQRNnDuvLSXJIQ
買狗狗寵物店,臺中市北屯區北屯路441之7號1樓,臺中市,北屯區,ChIJIaRd-1oXaTQROdn2Vk0h43Y
萬達寵物事業股份有限公司_林森分公司,臺北市中山區林森北路512號1樓,臺北市,中山區,ChIJNYTdqkSpQjQR5VgPsVBSp1Q
汪汪本鋪,臺中市太平區中興東路264號1樓,臺中市,太平區,ChIJ_XCXpXYjaTQRbdAoqCDgLuo
珈貝寵物店,臺中市大里區新仁七街6巷3號1樓,臺中市,大里區,ChIJZ5mhZRc9aTQRPfpgkT6JqAk
夏卡爾寵物美容,臺中市太平區太平二十街21號1樓,臺中市,太平區,ChIJYYoWtV0jaTQR1fK3jLhHlFM
東森寵物雲股份有限公司臺中中清分公司,臺中市北屯區后庄北路11號1樓、2樓,臺中市,北屯區,ChIJjzqP3zAXaTQRYXbq967o_SI
貝果小貓旅店,臺中市烏日區環河北路258號,臺中市,烏日區,ChIJHcC2xnmpQjQRjRTrwErmYWA
小時光寵物沙龍,臺中市東區東英七街13號1樓,臺中市,東區,ChIJOztAIL49aTQRIe2rRSwoPJ8
汪汪甜八寶寵物美容寄養,桃園市楊梅區瑞溪里梅獅路二段192號1樓,桃園市,楊梅區,ChIJtwyMmvMjaDQRW1w-Yr39Uts
古亭師大書坊,臺北市內湖區成功路四段182巷8弄7號1樓,臺北市,內湖區,ChIJL-vCLIWpQjQRNtS8R7rY7_A
柴町寵物旅舍,桃園市桃園區中正里22鄰文中路10號,桃園市,桃園區,ChIJuSDQvxsfaDQRe86i7FuNdQU
萬達寵物事業股份有限公司八德分公司,桃園市八德區大成里介壽路一段968號、970號,桃園市,八德區,ChIJNYTdqkSpQjQR5VgPsVBSp1Q
牠說寵物生活館,桃園市八德區桃園市八德區大和里金和路85號1樓,桃園市,八德區,ChIJzwFWz5AZaDQR9h1DEVsCiL8
寵物時光館,新北市板橋區文化路1段117號1樓,新北市,板橋區,ChIJP7G50FSpQjQRh_YwVWwwXI4
汪來寵物理容,臺中市南屯區懷德街94號1樓,臺中市,南屯區,ChIJNXZNmsI9aTQRNorvadWNhns
旻利寵物用品社,臺北市大安區光復南路700號1樓,臺北市,大安區,ChIJpT1bWhOrQjQRkjOGQ5fPPMk
卡地亞犬坊,臺中市東區和平街259號1樓、地下1樓,臺中市,東區,ChIJ-5pqWYI9aTQRV4cgWYhIMJI
無二寵物美容工作室,臺中市北屯區青島路三段187-1號2、3樓,臺中市,北屯區,ChIJFYFcPWQ9aTQRz14JlOE0XqA
花羨狗地方寵物店,臺中市北區東光路310號1樓,臺中市,北區,ChIJZ8h6x3A9aTQRtxh0AhOdonc
小毛球寵物坊,臺中市南區臺中市南區國光路443號1樓,臺中市,南區,ChIJk4sZr_c9aTQRuqpS93LGEF8
東森寵物雲股份有限公司龜山巨蛋分公司,桃園市龜山區山德里萬壽路二段1379號,桃園市,龜山區,ChIJres4rvYeaDQRg9QzSaBXUmo
編緣貓企業社,臺中市南區南門路47號1樓,臺中市,南區,ChIJFyHszAY9aTQRDwDp7dVRn5o
貓的旅坊,臺南市東區裕農路691號1-2樓,臺南市,東區,ChIJNeOGh7l2bjQRotcUscNuI2c
東森寵物雲股份有限公司南屯文心分公司,臺中市南屯區文心路一段459號,臺中市,南屯區,ChIJDwE99IkXaTQRvIY-G_NiQIk
