name,address,city,district
貓悅良犬寵物精品店,臺北市大安區基隆路二段110號1樓及2樓,臺北市,大安區
東森寵物雲股份有限公司左營左大分公司,高雄市左營區左營大路161、163號,高雄市,左營區
東森寵物雲股份有限公司楠梓興楠分公司,高雄市楠梓區興楠路60號,高雄市,楠梓區
樂沛寵物,高雄市楠梓區土庫一路10號,高雄市,楠梓區
艾妮寵物沙龍,臺北市萬華區德昌街121號1樓,臺北市,萬華區
晨曦寵物有限公司,桃園市桃園區龍安里龍安街109號,桃園市,桃園區
沐然之森工作坊,臺中市北區錦南街19之18號1樓,臺中市,北區
嘉鈞股份有限公司,臺中市西屯區福科路370號1樓、2樓、3樓、4樓及 372號1樓、2樓、3樓、4樓,臺中市,西屯區
小短腿寵物美容院,新北市八里區八里區頂罟一路56號1樓,新北市,八里區
就愛毛寶貝寵物美容,臺中市大里區德芳路一段144號1樓、2樓,臺中市,大里區
逗逗先生寵物沙龍,新北市永和區得和路178號1樓,新北市,永和區
緹米貓旅館,新北市永和區福和路167號2樓,新北市,永和區
寶貝窩寵物生活館,桃園市蘆竹區錦興里中正路341號1樓,桃園市,蘆竹區
瑞發財貓旅館,臺南市南區金華路一段468號1-2樓,臺南市,南區
玖逗瑪得寵物沙龍,新北市中和區景平路746號1樓,新北市,中和區
吾悠喵旅生活館,新北市中和區中正路210號1樓,新北市,中和區
國寶寵物股份有限公司,臺北市士林區中山北路七段20號、20之1號及22號1樓,臺北市,士林區
毛嶼商行,新北市新店區中興路2段221號,新北市,新店區
帕比寵物,臺南市新營區大宏里8鄰文昌街42之1號,臺南市,新營區
寵萌殿堂 ,新北市板橋區民生路2段234巷2弄13號1樓,新北市,板橋區
樂牧寵物旅館,新北市新莊區建興街20號1樓,新北市,新莊區
樂恆寵物有限公司,新北市永和區中和路421巷3弄1號1樓、2樓,新北市,永和區
糖果屋貓咪旅館,新北市板橋區大觀路2段7巷24號,新北市,板橋區
給貓金幣坊,臺南市中西區五妃街72號1樓及地下層,臺南市,中西區
凱斯實業社,新北市新莊區新興街26號1樓,新北市,新莊區
托托寵物工坊,桃園市八德區桃園市八德區大福里大福街53巷8號,桃園市,八德區
帕比樂寵物企業社,臺中市北屯區柳陽西街118號,臺中市,北屯區
米汪寵毛店,臺中市霧峰區五福西路258號,臺中市,霧峰區
優質幼犬專賣,高雄市鳳山區光復路二段277號1、2樓,高雄市,鳳山區
乾乾咬一口寵物館,高雄市三民區興昌街83巷13號1、2樓,高雄市,三民區
小喬米寵物美容,新北市板橋區長江路2段57號1樓,新北市,板橋區
狗勾寓所商行,新北市板橋區中山里合宜路131號1樓,新北市,板橋區
毛起來住寵物旅館,新北市板橋區板橋區富山街89號1樓,新北市,板橋區
五心興業有限公司,臺中市豐原區圓環東路839號1、2、3樓,臺中市,豐原區
賀嘎宅貓咪旅館,臺南市北區開元路477號1樓及地下層,臺南市,北區
狗狗樂寵物造型沙龍,桃園市桃園區大豐里樹林四街84號1樓,桃園市,桃園區
環球購物中心股份有限公司桃園分公司,桃園市中壢區桃園市中壢區芝芭里高鐵南路二段352號1樓,桃園市,中壢區
享沐企業社,新北市板橋區光武街40號1樓,新北市,板橋區
喵狗幫幼犬寵物店,臺中市大里區臺中市大里區中興路一段320之1號,臺中市,大里區
貝多芬寵物造型生活館,臺北市中山區長安東路一段39-2號1樓,臺北市,中山區
汪堡股份有限公司內湖分店,臺北市內湖區南京東路六段451巷21號及23號1樓,臺北市,內湖區
樂沐寵物美容館,臺中市南區工學路6-2號1樓,臺中市,南區
羅弟家寵物生活館,臺中市西區民興街133號1樓、2樓,臺中市,西區
羊咩咩寵物生活館,高雄市鳳山區文藝街170號,高雄市,鳳山區
法蘭西斯卡寵物美容,高雄市苓雅區福建街258號,高雄市,苓雅區
東興貝貝寵物有限公司,臺中市南屯區東興路三段253號1樓、2樓,臺中市,南屯區
忻成寵物有限公司,臺中市北區臺中市北區忠太東路117號、117之1號,臺中市,北區
汪家寵物旅館,桃園市桃園區華南里4鄰中華路148號1樓,桃園市,桃園區
唯一寵物,桃園市桃園區桃園市桃園區建國里桃鶯路58號,桃園市,桃園區
洗澡吧寵物澡堂,臺北市內湖區成功路四段328號1樓,臺北市,內湖區
毛棧股份有限公司,臺中市西區美村路一段245號1樓、2樓、3樓,臺中市,西區
咕嚕咕嚕雙腸寵美精品旅館,臺中市北區進化北路396之3號1樓、2樓,臺中市,北區
天星實業社,高雄市新興區竹圍路6號,高雄市,新興區
台灣邦尼寵物用品有限公司,臺中市太平區樹德路256號,臺中市,太平區
明星寵物精品館,新北市土城區金城路三段73巷4弄2號1樓,新北市,土城區
宬銘屋寵物生活館(毛毛窩寵物精品旅館),臺北市文山區景隆街48號及48-1號1樓,臺北市,文山區
苙堡寵物生活館,新北市三重區新北市三重區中寮街99號,新北市,三重區
立裘寵物美容,臺中市大里區國光路二段353號1樓,臺中市,大里區
萬達寵物事業股份有限公司汐康分公司,新北市汐止區康寧街519號1樓,新北市,汐止區
吃手手寵物事業有限公司,臺北市中正區濟南路二段35號之1一樓,臺北市,中正區
毛寓所寵物美容旅店,新北市板橋區溪北路30號1樓,新北市,板橋區
喜多寵物美容住宿館,新北市板橋區中山路1段283巷2弄25號1樓,新北市,板橋區
喵了個汪寵物生活館,臺北市北投區中和街275號1樓及2樓,臺北市,北投區
萬達寵物事業股份有限公司台北興隆分公司,臺北市文山區興隆路二段343號及345號1樓,臺北市,文山區
萬達寵物事業股份有限公司台北安和分公司,臺北市大安區安和路二段225號1樓,臺北市,大安區
丹佛企業行,高雄市鳳山區中山東路64之3號1樓,高雄市,鳳山區
萬達寵物事業股份有限公司林口中山分公司,新北市林口區中山路248之1號1樓,新北市,林口區
慶福水族有限公司,臺中市南屯區文心路一段372號1樓、2樓,臺中市,南屯區
佳士德國際貿易股份有限公司,桃園市桃園區文中里延壽街162號2樓,桃園市,桃園區
來電狗寵物水族館,新北市三重區新北市三重區力行路2段99號1樓,新北市,三重區
萬達寵物事業股份有限公司新陽分公司,新北市三重區重陽路3段152號1樓,新北市,三重區
富藝寵物沙龍概念館,高雄市三民區覺民路50號,高雄市,三民區
星都實業股份有限公司,高雄市鼓山區青海路396號(右側),高雄市,鼓山區
萬達寵物事業股份有限公司台南善化分公司,臺南市善化區光文里19鄰忠孝路1之1號,臺南市,善化區
佳美國際有限公司,臺中市南屯區大英街173號1樓、2樓,臺中市,南屯區
貓僕舍寵物商行,臺北市大同區重慶北路三段73號1樓,臺北市,大同區
毛孩森林寵物生活館,臺中市西屯區上石路65號1樓,臺中市,西屯區
心寵有限公司,新北市新莊區福德一街72號及76號1樓,新北市,新莊區
萬達寵物事業股份有限公司新海分公司,新北市板橋區英士路74號1樓,新北市,板橋區
跑跑跳寵物旅館,高雄市楠梓區東昌街23號,高雄市,楠梓區
悠遊寵物有限公司,桃園市觀音區崙坪里福坪路195巷100號1、2、3樓,桃園市,觀音區
喵汪汪澡堂,新北市樹林區中山路3段181號1樓,新北市,樹林區
小蘋果寵物犬舍,臺南市新化區協興里8鄰太平街130及132號1樓,臺南市,新化區
靚靚寵物美容生活館,新北市中和區景平路578號1樓,新北市,中和區
苙田寵物精品生活舘,新北市板橋區南雅南路2段20號1樓,新北市,板橋區
陽陽寵物店,桃園市蘆竹區五福里五福六路81號,桃園市,蘆竹區
荷娜寵物美容,臺北市士林區天母東路50巷20-2號1樓,臺北市,士林區
阿法小姐金典寵物館,新北市板橋區文化路2段410巷32號1樓,新北市,板橋區
庚旺有限公司,臺北市中山區德惠街4號1樓,臺北市,中山區
洗寶貝寵物美容,臺北市大同區重慶北路三段75號1樓,臺北市,大同區
優仕寵物生活館,臺北市大安區羅斯福路三段139號1樓及2樓,臺北市,大安區
東森寵物雲股份有限公司臺中北屯分公司,臺中市北屯區北屯路218號、220號,臺中市,北屯區
東森寵物雲股份有限公司臺中大里分公司,臺中市大里區國光路二段441號,臺中市,大里區
東森寵物雲股份有限公司豐原圓環東分公司,臺中市豐原區圓環東路257號1樓,臺中市,豐原區
東森寵物雲股份有限公司西屯青海分公司,臺中市西屯區青海路二段225號,臺中市,西屯區
東森寵物雲股份有限公司臺中沙鹿分公司,臺中市沙鹿區臺灣大道七段279號、281號,臺中市,沙鹿區
東森寵物雲股份有限公司台中軍功分公司,臺中市北屯區軍功路一段603號,臺中市,北屯區
永浤寵物生活館,高雄市新興區七賢一路508號,高雄市,新興區
貓羅紀有限公司,新北市三重區新北市三重區重陽路2段61號,新北市,三重區
喵屋日和商行,新北市板橋區合宜路13號1樓,新北市,板橋區
家溱喵宅社,新北市林口區文化ㄧ路1段117號1樓,新北市,林口區
東森寵物雲股份有限公司三民建工分公司,高雄市三民區建工路351號1、2樓,高雄市,三民區
毛毛愛狗樂寵物店,高雄市新興區林森一路187號2樓,高雄市,新興區
萌萌狗企業社,新北市新莊區萬安街3號1樓,新北市,新莊區
貓悅居貓旅館,新北市三重區新北市三重區重陽路3段5巷28-2號,新北市,三重區
爵靈企業有限公司(超可愛名犬企業社),臺北市大安區基隆路二段134之1號1樓,臺北市,大安區
尾尾道來寵物股份有限公司,臺中市北屯區崇德十路一段88號,臺中市,北屯區
大魚寵物有限公司十甲分公司,臺中市東區十甲東路616號,臺中市,東區
魚中魚樂活有限公司,臺中市南屯區文心路一段378號27樓之6,臺中市,南屯區
愛逗格寵物沙龍,臺南市善化區坐駕里11鄰建國路19號之11(1樓),臺南市,善化區
咩咩旺寵物美容館,桃園市平鎮區北貴里金陵路三段103之2號1樓,桃園市,平鎮區
犬犬滿福寶犬屋,臺中市清水區海濱路266號,臺中市,清水區
萬達寵物事業股份有限公司台中大里分公司,臺中市大里區國光路二段409號1樓,臺中市,大里區
可麗愛犬美容屋,臺中市北區崇德路一段516號1樓,臺中市,北區
青沐犬舍,臺中市西區四維街20號1樓,臺中市,西區
金犬家莊寵物精品店,新北市八里區龍米路2段12號1樓,新北市,八里區
恩犬商行,新北市新店區環河路14-1號1樓,新北市,新店區
逗貓坊,臺北市信義區永吉路380號1及2樓,臺北市,信義區
承楓企業社,臺北市士林區士東路37號1樓,臺北市,士林區
寵翻天商行,新北市中和區捷運路173號1樓,新北市,中和區
汪福寵物澡堂,高雄市鳳山區瑞竹路75號1樓,高雄市,鳳山區
烤布奇諾有限公司,臺北市中正區和平西路二段64號1樓,臺北市,中正區
晨曦毛旅館,臺中市南區臺中市南區國光路65號,臺中市,南區
茉莉寵物店,桃園市桃園區南豐三街24號1樓,桃園市,桃園區
萬達寵物事業股份有限公司一心分公司,臺中市南屯區公益路二段169號3樓,臺中市,南屯區
貓卜勒有限公司,臺中市西屯區朝馬一街27號1樓,臺中市,西屯區
吉貓寓所,臺北市大安區和平東路二段297號3樓,臺北市,大安區
布朗泰菈寵物沙龍店,臺中市西區美村路一段711號1樓、2樓,臺中市,西區
伊嘉寶貝寵物美容坊,桃園市桃園區寶慶里同德五街268號,桃園市,桃園區
胖狗屋寵物坊,新北市永和區永貞路85號及85-1號1樓,新北市,永和區
愛莉塔寵物館,新北市板橋區南雅西路2段82號1樓,新北市,板橋區
快樂熊寵物美容坊,新北市板橋區民權路67號1樓,新北市,板橋區
甜甜寶貝樂園寵物貿易有限公司,新北市板橋區介壽街100號1樓,新北市,板橋區
狗窩好日子有限公司,臺北市松山區民生東路五段137巷2-5號1樓,臺北市,松山區
比佛利寵物水族時尚館,新北市蘆洲區重陽街99及101號1樓,新北市,蘆洲區
喜樂狗日子有限公司,臺中市西屯區安和路59之2號1樓、2樓、地下1樓,臺中市,西屯區
萬達寵物事業股份有限公司漢口分公司,臺中市北區漢口路四段297號,臺中市,北區
國寶寵物股份有限公司松江分公司,臺北市中山區松江路382號1樓,臺北市,中山區
快樂狗寵物生活館,臺南市永康區安康里17鄰中華路677號,臺南市,永康區
喵團錦簇貓舍,臺北市松山區八德路四段604-1號1樓,臺北市,松山區
嘟嘟好遇見你寵物生活館,新北市新莊區民安西路78巷4號1樓,新北市,新莊區
貝貝寵物有限公司,臺中市南屯區大墩十一街283號,臺中市,南屯區
寵寵慾動寵物美容沙龍館,新北市新莊區中誠街13號1樓,新北市,新莊區
萬達寵物事業股份有限公司板慶分公司,新北市板橋區重慶路110號1樓,新北市,板橋區
雀而喜貓舍有限公司,新北市新莊區新莊區銘德街25、27號1樓,新北市,新莊區
萬達寵物事業股份有限公司永康分公司,臺南市永康區五王里16鄰中華路430號,臺南市,永康區
哈克狗與湯姆貓寵物生活館,高雄市苓雅區四維三路174-5號,高雄市,苓雅區
捲一圈貓旅館,高雄市三民區十全一路2號,高雄市,三民區
超貼心寵物美容旅館,桃園市中壢區興南里延平路352號2樓,桃園市,中壢區
貓頭目貓咪旅館,高雄市左營區重吉路18號,高雄市,左營區
寵樂寵物美容,新北市蘆洲區新北市蘆洲區永樂街75號,新北市,蘆洲區
貓家日子股份有限公司,新北市三重區新北市三重區三民街68號,新北市,三重區
萬達寵物事業股份有限公司_小港漢民分公司,高雄市小港區漢民路299號1樓及2樓,高雄市,小港區
肥娜寵物快剃店,高雄市小港區孔鳳路438之8號1樓,高雄市,小港區
哇卡寵物,臺中市大里區國光路二段626號1樓,臺中市,大里區
毛巧可寵物旅宿,臺中市南區南平路39之5號1樓,臺中市,南區
祺福愛犬美容屋,高雄市左營區裕誠路173號1樓,高雄市,左營區
韻羽股份有限公司,臺北市大安區復興南路一段76號10樓之3,臺北市,大安區
轟轟的家寵物美容,高雄市苓雅區中正一路436號1樓,高雄市,苓雅區
啾咪寵物美容,臺南市東區前鋒路50號,臺南市,東區
米雅寵物工作室,臺南市中西區友愛街359號,臺南市,中西區
家五喵有限公司,新北市汐止區水源路1段190巷9號1樓,新北市,汐止區
底兒商品行,臺中市大里區中興路二段817號1樓、2樓,臺中市,大里區
汪福寵物美容商行,臺北市內湖區文德路208巷20號1樓,臺北市,內湖區
萬達寵物事業股份有限公司新雅分公司,新北市板橋區板橋區南雅南路1段40號1樓,新北市,板橋區
毛寶貝快樂寵物坊,新北市板橋區仁化街137號1樓,新北市,板橋區
花襪子的家寵物生活館,臺北市士林區天母北路38號1樓,臺北市,士林區
金錢貓旅宿,臺中市大甲區龍潭路61號1樓,臺中市,大甲區
淘狗有限公司,臺北市內湖區新明路298巷14弄9號一樓,臺北市,內湖區
老陸企業,高雄市左營區福山里榮總路513號,高雄市,左營區
嗚汪家寵物店,臺中市北屯區環太東路585號1樓,臺中市,北屯區
小毛宅寵物企業社,新北市淡水區新北市淡水區中山北路1段207巷9號,新北市,淡水區
秀狗兒寵物美容,新北市泰山區新北市泰山區明志路３段74巷1號及5號1樓,新北市,泰山區
萬達寵物事業股份有限公司北和分公司,臺北市北投區中和街59號1至4樓,臺北市,北投區
大小姐貓舍,臺北市大安區光復南路700號1樓,臺北市,大安區
快樂喵寵物企業社,桃園市桃園區文中里延壽街144號1樓,桃園市,桃園區
彩萌寵物會館,桃園市桃園區北埔路17巷40號,桃園市,桃園區
快樂寵物精品店,桃園市大園區大園里中山北路88號,桃園市,大園區
萬達寵物事業股份有限公司台南崑大分公司,臺南市永康區崑大路221、223、225號,臺南市,永康區
安心肉墊寵物澡堂,臺中市大里區長春路18號1樓,臺中市,大里區
吉比寵物精品店,新北市三重區新北市三重區力行路1段153巷2號,新北市,三重區
合歡寵物旅館,新北市三峽區溪東路233巷45弄28號1樓,新北市,三峽區
波士頓寵物美學社,臺中市大里區文心南路1316巷2號1樓,臺中市,大里區
捷秀有限公司,臺南市仁德區後壁里7鄰中正路二段224號1樓,臺南市,仁德區
達菲寵物沙龍,高雄市左營區至真路155號,高雄市,左營區
樂活寵物居家生活館,桃園市蘆竹區羊稠里中山北街89號,桃園市,蘆竹區
樂豪寵物貓舍,新北市板橋區中正路348號1樓,新北市,板橋區
醬心寵物旅行館,新北市蘆洲區新北市蘆洲區永平街32巷45弄14號,新北市,蘆洲區
得水集寵股份有限公司,臺北市文山區木柵路二段27號1樓,臺北市,文山區
貓遇貓寓商行,臺南市北區文賢路1122巷13號,臺南市,北區
森沐寵物會館,臺南市中西區成功路291號1樓,臺南市,中西區
萌萌貓企業社,臺南市東區東平路117號,臺南市,東區
寵牠寵物美容,新北市板橋區新北市板橋區德興街37巷16號1樓,新北市,板橋區
毛善有限公司,桃園市龜山區文化一路320號2樓,桃園市,龜山區
咪寵愛商行,高雄市三民區鼎中路170號1樓,高雄市,三民區
萬達寵物事業股份有限公司-頂溪分公司,新北市永和區中山路1段24號1樓,新北市,永和區
艾芠有限公司,臺北市中正區信陽街9號2樓,臺北市,中正區
淘氣族寵物用品店,高雄市三民區自立一路93號,高雄市,三民區
喵星人貓舍幼貓寵物店,新北市中和區中山路三段229巷1號1樓,新北市,中和區
黑丘寵物沙龍,臺南市仁德區後壁里19鄰德善路259號1樓,臺南市,仁德區
咘啦格寵物實業社,新北市土城區土城區中央路4段291號,新北市,土城區
派特餐飲有限公司,臺中市南屯區公益路二段959號之1號2樓,臺中市,南屯區
栗子狗寵物生活館,臺中市東區旱溪東路一段290之1號,臺中市,東區
菩鑫有限公司,高雄市左營區文府路75號1樓,高雄市,左營區
乙珍寵物美容精品百貨,高雄市大寮區進學路1-1號,高雄市,大寮區
萌旅寵物美容旅館,臺南市新市區大營里2鄰豐榮59之21號,臺南市,新市區
萬達寵物事業股份有限公司雙和分公司,新北市永和區中正路185號1樓,新北市,永和區
好寵企業有限公司,臺北市大安區信義路三段75-1號1、2樓,臺北市,大安區
有怪獸企業有限公司,臺中市西屯區市政北一路1號3樓,臺中市,西屯區
林水梨商行,新北市淡水區淡金路38巷33-20號1樓,新北市,淡水區
永樂健康有限公司永和營業所,新北市永和區福和路328及330號1樓,新北市,永和區
毛旅企業社,臺北市中山區台北市中山區長安東路二段232號一樓,臺北市,中山區
寵物家人企業行,高雄市三民區鼎山街276、278號,高雄市,三民區
萬里福田寵物城堡有限公司,臺北市中山區中山北路三段31號3樓,臺北市,中山區
嬌滴滴寵物園,高雄市前鎮區崗山中街50、52號,高雄市,前鎮區
就是愛寵物精品旅館,高雄市左營區新庄仔路409號1、2樓,高雄市,左營區
東森寵物雲股份有限公司小港宏平分公司,高雄市小港區宏平路432、434號,高雄市,小港區
欣薇達寵物精品沙龍,臺北市中山區長安東路二段228號,臺北市,中山區
萬達寵物事業股份有限公司興南分公司,新北市中和區興南路1段43號、45號1樓,新北市,中和區
高屋寵物股份有限公司,臺北市中山區敬業一路128巷8號1樓,臺北市,中山區
張羅企業社,臺北市士林區士東路18號1樓,臺北市,士林區
啵好寵物生活館,臺北市中山區北安路472號1樓,臺北市,中山區
咩皮鍋吉貓屋,高雄市左營區崇實里29鄰先勝路50號1樓,高雄市,左營區
貓掌櫃會館,高雄市前鎮區台鋁南巷8號,高雄市,前鎮區
萬達寵物事業股份有限公司新中分公司,新北市新店區中正路255號1樓,新北市,新店區
唯婕寵物沙龍,桃園市龜山區精忠里光峯路159號,桃園市,龜山區
寵愛有家寵物沙龍,新北市樹林區太平路63號1樓,新北市,樹林區
北歐三狗有限公司,臺北市松山區八德路三段224號1樓及2樓,臺北市,松山區
米古咪古寵物生活館,新北市三重區三重區仁義街347號1樓,新北市,三重區
大安旺旺愛犬屋有限公司,臺北市大安區復興南路一段321號6樓及6樓之2,臺北市,大安區
艾菲雅寵物美容,高雄市仁武區安樂一街169巷105之1號1、2樓,高雄市,仁武區
萬達寵物事業股份有限公司汐新分公司,新北市汐止區新興路3號1樓,新北市,汐止區
曉邑有限公司,臺中市南區有恆街146號4樓,臺中市,南區
周佳名犬屋,臺中市北區天津路二段150號1樓,臺中市,北區
明晞有限公司,臺中市北屯區北華街119號1樓及地下1樓,臺中市,北屯區
煦的幸福空間號,臺中市東區東光園路149號1樓、2樓,臺中市,東區
喵吉拉渡假村,臺北市中正區臺北市中正區金山北路1號13樓,臺北市,中正區
樹洞寵物旅店,臺南市善化區光文里19鄰民生路287號,臺南市,善化區
小苑子寵物美容,新北市板橋區民生路3段108號1樓,新北市,板橋區
魚中魚樂活有限公司八德分公司,桃園市八德區桃園市八德區茄明里中華路263-2號,桃園市,八德區
安宇寵物,桃園市蘆竹區大興八街91號1樓,桃園市,蘆竹區
幸福寵物生活館,臺北市信義區和平東路三段283號1樓,臺北市,信義區
台灣皇爵貿易股份有限公司,高雄市楠梓區後昌路811號1、2樓,高雄市,楠梓區
台灣皇爵貿易股份有限公司自由分公司,高雄市左營區自由三路250之1號,高雄市,左營區
旅行貓咪行,新北市汐止區鄉長路1段21號1樓,新北市,汐止區
漂亮寶貝愛犬美容專坊,高雄市鳳山區大明路128巷1號,高雄市,鳳山區
三中東區啦啦寶都股份有限公司(南館),臺中市東區進德路600號,臺中市,東區
東森寵物雲股份有限公司板橋雨農分公司,新北市板橋區新翠里雨農路54號1樓,新北市,板橋區
東森寵物雲股份有限公司新莊中正分公司,新北市新莊區新莊區中正路102、104號1樓,新北市,新莊區
寵曖狗狗生活館,臺中市中區民族路223號1樓、2樓,臺中市,中區
貓咪安心庇護工作坊,臺中市大里區東明路136號12樓之3,臺中市,大里區
查克音國際有限公司,臺中市西區臺灣大道二段311巷1弄30號1樓,臺中市,西區
東森寵物雲股份有限公司永和得和分公司,新北市永和區得和路409號1樓,新北市,永和區
日升寵物用品店,臺中市豐原區豐原大道一段257號,臺中市,豐原區
汪汪大師寵物店,臺南市東區府連路184號1樓,臺南市,東區
阿德里安實業有限公司,高雄市楠梓區德民路418號,高雄市,楠梓區
九窩寵物旅館,新北市板橋區長江路2段217巷2弄2號1樓,新北市,板橋區
米頡寵物美容,新北市三重區仁愛街709號1樓,新北市,三重區
忠心寵物美容生活館,高雄市三民區大福街239號,高雄市,三民區
熊愛洗寵物美容沙龍,臺中市南屯區忠勇路52-228號1樓,臺中市,南屯區
浴旺森林狗貓生活館,臺中市南屯區五權西路二段365號1樓,臺中市,南屯區
花沐寵物美容精品館,臺中市北屯區松竹路二段259號1樓,臺中市,北屯區
萬達寵物事業股份有限公司台中北屯分公司,臺中市北屯區北屯路279之2號,臺中市,北屯區
臻材有限公司,高雄市左營區華夏路1062號,高雄市,左營區
佳綵寵物精品工坊,臺中市南屯區大光街121號1樓,臺中市,南屯區
宿洗寵物工作室,臺中市清水區新興路142之1號,臺中市,清水區
愛波寵物工作坊,臺中市西屯區福科路910號1樓,臺中市,西屯區
踏踏貓生活館,臺中市大雅區雅環路二段26巷37號2樓之3,臺中市,大雅區
佳晟寵物美容旅館青埔店,桃園市中壢區洽溪里公園路二段250號,桃園市,中壢區
最愛高齡寵物服務企業社,臺中市清水區八德路四段80號,臺中市,清水區
東森寵物雲股份有限公司台南新市分公司,臺南市新市區新市里14鄰中正路365號,臺南市,新市區
米乓肉圓商行,臺中市西屯區西屯路三段宏福三巷2之10號1樓,臺中市,西屯區
毛澡盆寵物生活館,新北市中和區市民街2號1樓,新北市,中和區
撼寶寶寵物新生活館,高雄市楠梓區樂群路259號,高雄市,楠梓區
寵老闆寵物美容,高雄市小港區港平路98號,高雄市,小港區
寶妮寵物美容坊,新北市蘆洲區民義街22巷13號1樓,新北市,蘆洲區
萬達寵物事業股份有限公司台南安南分公司,臺南市安南區北安路三段179號,臺南市,安南區
長春商行,臺中市西屯區西屯路二段17之1號地下1樓,臺中市,西屯區
悠樂寵物有限公司,臺北市大同區平陽街25號1樓,臺北市,大同區
秐橙有限公司,臺北市中山區雙城街49巷9-6號1樓,臺北市,中山區
大爺股份有限公司寶湖分公司,臺北市內湖區民權東路六段166號1樓及2樓,臺北市,內湖區
俊妍手做商行,新北市中和區中安街178巷13弄8號1樓,新北市,中和區
阿毛寵物旅店,高雄市仁武區仁勇東巷230號,高雄市,仁武區
狗苑子寵物沙龍,臺中市大里區大里路128號1樓、2樓,臺中市,大里區
添柴日本柴犬專賣店,臺中市西屯區福雅路81號1樓,臺中市,西屯區
東森寵物雲股份有限公司小港桂陽分公司,高雄市小港區桂陽路115號,高雄市,小港區
萊恩生活有限公司,桃園市楊梅區永寧里環南路240號1樓,桃園市,楊梅區
洞伴樂齡寵物照護企業社,臺中市東區育英路37之21號1樓、2樓,臺中市,東區
狗狗將好狗居有限公司,新北市八里區八里區頂寮三街52巷2號,新北市,八里區
東森寵物雲股份有限公司土城中華分公司,新北市土城區中華路一段235號1樓(土城區中央路一段318巷20號1樓),新北市,土城區
萌寵天下寵物坊,臺南市白河區庄內里7鄰裕農路360號,臺南市,白河區
東森寵物雲股份有限公司仁武仁雄分公司,高雄市仁武區仁雄路33號,高雄市,仁武區
狗城堡寵物沙龍,新北市土城區中央路1段45巷7號1F,新北市,土城區
寵愛窩寵物美容館,新北市土城區學成路156號1樓,新北市,土城區
九八貿易有限公司,高雄市鼓山區文忠路86號,高雄市,鼓山區
愛迪兒寵物美容工作室,臺中市南區美村路二段293巷6號1樓,臺中市,南區
帕彼愛逗寵物精品時尚館,臺南市東區東門路二段240號,臺南市,東區
小毛頭寵物沙龍旅館,桃園市桃園區文中三路60號1樓,桃園市,桃園區
萬達寵物事業股份有限公司大有分公司,桃園市桃園區大有路581號1樓,桃園市,桃園區
洗洗睡寵物美容,桃園市蘆竹區興福街207之2號1樓,桃園市,蘆竹區
艾許寵物沙龍工作室,桃園市桃園區文中里正光一街88號1樓,桃園市,桃園區
庠陞寵物旅館,桃園市八德區永福西街32巷3號,桃園市,八德區
奇宸寵物店,桃園市桃園區明德里中埔六街177號1樓,桃園市,桃園區
沐沐卡夫寵物實業社,桃園市桃園區中成里慈文路635巷23號1樓,桃園市,桃園區
臭寶貝實業社,桃園市桃園區中平路177號1樓,桃園市,桃園區
龍慈寵物工作坊,桃園市中壢區後寮里龍慈路83號1樓,桃園市,中壢區
樓上遇見貓商行,臺北市松山區臺北市松山區南京東路三段256巷47號1樓,臺北市,松山區
東森寵物雲股份有限公司路竹中山分公司,高雄市路竹區中山路1205、1207、1209號,高雄市,路竹區
東森寵物雲股份有限公司岡山柳橋分公司,高雄市岡山區柳橋西路6、10號,高雄市,岡山區
東森寵物雲股份有限公司苓雅大順分公司,高雄市苓雅區大順三路218號1樓,高雄市,苓雅區
東森寵物雲股份有限公司楠梓藍昌分公司,高雄市楠梓區藍昌路421、423、425號 1樓,高雄市,楠梓區
巴蒂寵物旅館,新北市板橋區文化路1段136巷10號1樓,新北市,板橋區
寵愛有加股份有限公司,臺北市大安區安和路二段41號1樓,臺北市,大安區
大魚寵物有限公司,臺中市大里區國光路2段505號1樓,臺中市,大里區
千千寵物美容工作室,臺南市鹽水區岸內里10鄰和平路742號,臺南市,鹽水區
小魔女貓屋一番店,高雄市楠梓區大學十九街158號,高雄市,楠梓區
米默毛孩寓所,臺中市北屯區北屯路447之5號1樓,臺中市,北屯區
飽屋寵物美容,臺中市西屯區大隆路72號2樓,臺中市,西屯區
幸福毛球有限公司,臺中市北屯區南興一路28號1樓,臺中市,北屯區
大魚寵物有限公司文昌分公司,臺中市北屯區文心路四段806號1樓,臺中市,北屯區
貓阿舍寵物旅館,高雄市三民區嫩江街129巷4號1、2樓,高雄市,三民區
貓咪壹零壹寵物精品館,臺中市北區進化北路396之5號1樓,臺中市,北區
派滋威寵物沙龍,新北市板橋區貴興路67號1樓,新北市,板橋區
搖尾巴寵物美容館,高雄市鼓山區鼓山一路137號,高雄市,鼓山區
遇見寵物生活館,桃園市龜山區樂善里樂學一路122號,桃園市,龜山區
握握手寵物工坊,高雄市鳳山區南江街6號,高雄市,鳳山區
誼文寵物生活館,臺北市中山區中山北路三段55巷22號(代表號)等,臺北市,中山區
鳳甲寵物店,高雄市鳳山區南華一路133號,高雄市,鳳山區
新鑫犬舍,臺南市新營區新南里23鄰復興路672之1號,臺南市,新營區
毛言毛語寵物商行,臺中市南屯區春安二街36號,臺中市,南屯區
三中東區啦啦寶都股份有限公司(北館),臺中市東區進德路600號,臺中市,東區
食尚休閒餐飲有限公司,高雄市前金區中華三路6號,高雄市,前金區
皇良寵物生活館,臺北市大同區承德路二段6號1樓,臺北市,大同區
萌點寵物美容工坊,高雄市鳳山區文中街164號,高雄市,鳳山區
好窩犬舍,新北市永和區中正路512號1.2樓,新北市,永和區
貓裡居有限公司,新北市林口區四維路245巷18號1樓,新北市,林口區
萌下巴毛孩企業社,臺中市南區工學北路140號,臺中市,南區
優洗趣有限公司,桃園市中壢區領航南路三段350號,桃園市,中壢區
萬達寵物事業股份有限公司新莊佳瑪分公司,新北市新莊區幸福路716號1樓,新北市,新莊區
毛居寵物生活館,臺南市南區萬年五街248巷1號,臺南市,南區
浣熊寵物美容,高雄市鳳山區瑞順街125巷12號,高雄市,鳳山區
宜家宜犬寵物精品館,臺北市松山區八德路四段259號1樓,臺北市,松山區
綠棧道寵物旅館沙龍,高雄市楠梓區興楠路27號,高雄市,楠梓區
魚中魚樂活有限公司北屯分公司,臺中市北屯區文心路四段319號1樓,臺中市,北屯區
逗米寵物沙龍,臺中市豐原區圓環東路277號1樓,臺中市,豐原區
有你寵物美學沙龍,桃園市桃園區國豐三街203號1樓,桃園市,桃園區
犬太寵物生活館,新北市中和區景新街383巷74號1樓,新北市,中和區
貝貝窩寵物美學生活館,高雄市楠梓區大學二十一路237巷6號,高雄市,楠梓區
美力生寵物生活館,臺南市中西區大同路一段62號1樓,臺南市,中西區
包妮寵物店,高雄市鳳山區大明路185號1樓,高雄市,鳳山區
小尾巴客棧寵物旅館,臺南市安平區安平區慶平路689號2樓,臺南市,安平區
小品養殖行,臺南市仁德區中洲里6鄰中洲路667號1樓,臺南市,仁德區
萌寵生活館,新北市新莊區昌隆街58巷1弄1號1樓,新北市,新莊區
拾壹貓舍有限公司,高雄市鳳山區立德街228號,高雄市,鳳山區
樂兒國際有限公司,臺北市內湖區民權東路六段123巷34弄19號1及2樓,臺北市,內湖區
樂佩有限公司,臺北市中正區仁愛路二段68號1樓,臺北市,中正區
寵物私語店,臺南市安平區健康二街531號1樓,臺南市,安平區
搖滾獸工作室,新北市五股區新北市五股區芳洲一路86號,新北市,五股區
東森寵物雲股份有限公司前金自強一店分公司,高雄市前金區自強一路138號及140號1樓,高雄市,前金區
豪小子寵物精品有限公司,高雄市小港區中安路690之5號1樓,高雄市,小港區
莫莉家寵物美容旅館,新北市中和區景平路59之17號1樓,新北市,中和區
咘鈴寵物館,新北市板橋區大觀路三段142-1號1樓,新北市,板橋區
郁笙有限公司,臺北市南港區成福路82號,臺北市,南港區
朝代寵物有限公司,臺北市大安區基隆路二段232號1樓,臺北市,大安區
東森寵物雲股份有限公司大直北安分公司,臺北市中山區北安路554巷31號1樓及地下1樓,臺北市,中山區
萬達寵物事業股份有限公司五甲二店分公司,高雄市鳳山區五甲一路298號,高雄市,鳳山區
大御倉生物科技有限公司安和分公司,臺北市大安區安和路二段68號1樓及地下1樓,臺北市,大安區
卷毛有限公司,臺中市北屯區敦富五街37號,臺中市,北屯區
咪妮生活館有限公司,新北市新店區新店區中興路3段170號,新北市,新店區
萬達寵物事業股份有限公司前鎮瑞隆分公司,高雄市前鎮區瑞隆路480號,高雄市,前鎮區
逗卡寵物生活館,新北市林口區中山路565號1樓,新北市,林口區
王子與公主寵物美容,高雄市左營區西陵街94號,高雄市,左營區
犬弟寶寵物店,臺中市北屯區平興街2號1樓、2樓,臺中市,北屯區
喵可美學,臺中市西屯區大墩二十街103號1樓、2樓,臺中市,西屯區
花花萌寵屋,臺南市東區中華東路二段185巷16號,臺南市,東區
冠蓉寵物用品店,新北市新店區北新路2段187之1號1樓,新北市,新店區
好日子寵物犬屋,臺中市大里區中興路一段2巷263弄1號1樓,臺中市,大里區
慈愛生物科技股份有限公司,臺南市仁德區仁德里18鄰文華路三段448號2樓,臺南市,仁德區
慈愛生物科技股份有限公司仁德分公司,臺南市仁德區仁德里18鄰文華路三段448號1樓,臺南市,仁德區
花繆繆寵物生活館,新北市林口區文化三路二段115巷16號,新北市,林口區
三天二夜有限公司,臺北市中山區樂群三路73號2樓及75號2樓,臺北市,中山區
狗老爸寵物美容,桃園市中壢區興南里中美路一段42號1樓,桃園市,中壢區
魚中魚水族寵物有限公司,新北市中和區中正路211巷13弄7號1樓,新北市,中和區
真愛寵物美容,高雄市鳳山區自強一路214號,高雄市,鳳山區
好日子寵物美容,臺北市中山區北安路458巷39號1樓,臺北市,中山區
爪子精緻寵物沙龍店,臺北市中山區長春路3巷11弄3號,臺北市,中山區
萬達寵物事業股份有限公司新城分公司,新北市土城區金城路三段160號1樓,新北市,土城區
澡享受寵物沙龍,高雄市鳳山區鳳南路91號1樓,高雄市,鳳山區
噗荳寵物生活館,臺南市中西區南門路179之2號1樓,臺南市,中西區
牠的店,高雄市苓雅區三多二路261號,高雄市,苓雅區
嬌滴滴寵物園,高雄市前鎮區永豐路78-1號,高雄市,前鎮區
晧晧寵物精品,高雄市前鎮區一心二路42號,高雄市,前鎮區
想見妮寵物沙龍,臺南市永康區中山南路490巷2弄10號1樓,臺南市,永康區
醬棒貓旅工作室,臺中市西區自由路一段28-5號1樓,臺中市,西區
華納寵物有限公司,高雄市三民區建工路796號,高雄市,三民區
洗澡趣寵美生活小舖,新北市中和區民利街42號1樓,新北市,中和區
凱特精品貓旅館,新北市淡水區北新里北新路184巷154號1樓,新北市,淡水區
侑柔寵物美學沙龍,新北市土城區裕生路21巷6弄21號,新北市,土城區
一簍毛工作室,臺北市士林區天母西路3號5樓之20,臺北市,士林區
御毛屋寵物世界,臺中市太平區樹孝路429號1樓、2樓、3樓,臺中市,太平區
漁之鄉水族館,高雄市楠梓區右昌街715號,高雄市,楠梓區
佳晟寵物美容旅館,桃園市桃園區西門里民族路199之2號1及2樓,桃園市,桃園區
頂級寵物店,新北市板橋區南雅西路2段146號1樓,新北市,板橋區
芳如寵物美容,新北市新莊區民安西路139巷2號1樓,新北市,新莊區
萌駿寵物美容,高雄市小港區宏平路686號1樓,高雄市,小港區
留守犬有限公司,桃園市龍潭區上林里中豐路上林段358號1、2樓,桃園市,龍潭區
萌庭國際貿易有限公司,桃園市中壢區青埔里領航南路三段288號1樓,桃園市,中壢區
東森寵物雲股份有限公司林園東林東分公司,高雄市林園區東林東路28之1號1樓,高雄市,林園區
芥菜籽寵物輕旅店,臺南市永康區東橋里9鄰東橋十街32號3樓,臺南市,永康區
萬達寵物事業股份有限公司_天母分公司,臺北市士林區臺北市士林區天母西路12之1、12之2、12之3號,臺北市,士林區
毛意盎然有限公司,臺北市大同區民族西路268號1樓,臺北市,大同區
寵霸天寵物美容坊,臺北市信義區忠孝東路5段766號1樓,臺北市,信義區
卡蒂家的貓有限公司台北分公司,臺北市大同區臺北市大同區延平北路二段168號,臺北市,大同區
布露熊寵物美容,高雄市苓雅區河南路128號1樓,高雄市,苓雅區
年生樂商行,新北市板橋區合宜路217號1樓,新北市,板橋區
愛貓仕實業社,新北市土城區廣明街90巷25號1樓,新北市,土城區
逸洤有限公司,臺北市士林區天母東路13號,臺北市,士林區
逸升有限公司,臺北市中山區建國北路二段129號1樓及地下1樓,臺北市,中山區
金福寵物美容屋,高雄市林園區仁愛路40號,高雄市,林園區
貓云殿工作坊,臺北市信義區松仁路285號1樓,臺北市,信義區
萬達寵物事業股份有限公司淡水中正分公司,新北市淡水區中正東路77號1樓,新北市,淡水區
豆宅狗旅館,臺北市文山區木柵路一段328號1樓,臺北市,文山區
平福寵物美容屋,高雄市三民區正興路104號,高雄市,三民區
貓狗同萌有限公司,臺北市中山區新生北路一段138號地下1樓,臺北市,中山區
萬達寵物事業股份有限公司新維分公司,新北市新莊區富國路112號1樓,新北市,新莊區
雅雅愛犬專業用品店,臺北市內湖區臺北市內湖區環山路一段63號1樓,臺北市,內湖區
虎寶貝寵物沙龍,高雄市苓雅區建民路69號1樓,高雄市,苓雅區
放飼寵物工作坊,臺中市沙鹿區賢仁街27號1樓、3樓,臺中市,沙鹿區
玄瑞有限公司,臺中市霧峰區中正路422號1樓,臺中市,霧峰區
安安貓咪寵物工作室,臺中市大里區德芳南一街226號,臺中市,大里區
東森寵物雲股份有限公司歸仁中山分公司,臺南市歸仁區南保里25鄰中山路三段97號1樓,臺南市,歸仁區
豬鼻子寵物旅館,桃園市蘆竹區中興里豪登一街166之1號,桃園市,蘆竹區
維嫺企業社,高雄市鳳山區青年路二段135號1樓,高雄市,鳳山區
狗窩商行,臺北市文山區興隆路四段86號1樓及地下1樓,臺北市,文山區
美樂蒂寵物靚坊,臺南市東區東寧路316號,臺南市,東區
壞壞狗寵物美容住宿,臺南市北區成功路382號之1,臺南市,北區
毛多多生活館,新北市鶯歌區鳳七路290、292號1樓、夾層,新北市,鶯歌區
東洋犬舍,高雄市梓官區忠孝路237-1號,高雄市,梓官區
毛毛兄弟會寵物美容,桃園市平鎮區中庸路35號1樓,桃園市,平鎮區
捲球寵物沙龍館,桃園市中壢區榮安十三街270號1樓,桃園市,中壢區
禹翔寵物美容,桃園市楊梅區秀才路77號1樓,桃園市,楊梅區
慶昇昌有限公司,桃園市平鎮區湧豐里中豐路山頂段80號,桃園市,平鎮區
萬達寵物事業股份有限公司楠梓楠新分公司,高雄市楠梓區楠梓新路233號,高雄市,楠梓區
萌小菲貓舍,臺中市太平區新福路122號1樓、2樓,臺中市,太平區
萬達寵物事業股份有限公司林口仁愛分公司,新北市林口區仁愛路2段506號,新北市,林口區
辛普森寵物概念館,臺北市北投區義理街64號1樓,臺北市,北投區
愛狗狗旅館,臺南市北區西門路四段282號1樓,臺南市,北區
有毛有限公司,臺北市松山區八德路四段649號2樓,臺北市,松山區
極尚貓舍,臺中市大里區向學一路131號3樓,臺中市,大里區
伏特窩寵物旅館,臺中市大雅區中山北路450巷8號,臺中市,大雅區
小步毛舍股份有限公司,臺中市北屯區環太東路503號1樓,臺中市,北屯區
桃樂貝寵物沙龍,臺中市東區台中路131號1樓,臺中市,東區
東森寵物雲股份有限公司桃園蘆竹分公司,桃園市蘆竹區福昌里南昌路266號、南順八街63號,桃園市,蘆竹區
相信專業寵物美容,桃園市八德區福興里長興二路83號,桃園市,八德區
天郝有限公司,桃園市桃園區大興里大興路5號,桃園市,桃園區
維緹寵物有限公司富國分店,高雄市左營區富國路8號,高雄市,左營區
黛比愛犬專業剪藝,臺南市中西區金華路四段103號,臺南市,中西區
萬達寵物事業股份有限公司_台北忠五分公司,臺北市信義區忠孝東路五段201號、203號1樓,臺北市,信義區
黑鼻子寵物服務有限公司,臺北市北投區自強街164號1樓,臺北市,北投區
宏亞寵物沙龍,新北市新店區新店區中央路5號1樓,新北市,新店區
吉弄寵物沙龍,高雄市楠梓區大學南路993號1樓,高雄市,楠梓區
環亞寵物用品有限公司橋頭營業所,高雄市橋頭區典昌路36號,高雄市,橋頭區
維緹寵物有限公司,高雄市新興區五福二路128號,高雄市,新興區
米粒貓舍,臺中市霧峰區中正路230巷25號,臺中市,霧峰區
寶羅寵物精品店,高雄市苓雅區三多二路290號1樓,高雄市,苓雅區
奧莉寵物美容工作室,高雄市林園區忠義三街39號1至2樓,高雄市,林園區
四葉草貓舍,新北市新店區長春路43巷58號1樓,新北市,新店區
艾狗美寵物專業美容,高雄市小港區中安路600號1樓,高雄市,小港區
華寵寵物生活館,桃園市桃園區信光里大連四路16號1樓,桃園市,桃園區
繆思貓咪旅館,臺中市大里區德芳路一段12號1樓、2樓,臺中市,大里區
必勝犬社,臺中市烏日區振興街33-7號,臺中市,烏日區
飛馬寵物用品行,高雄市三民區九如一路980號,高雄市,三民區
喵喵屋,桃園市蘆竹區坑口里海山路一段79號,桃園市,蘆竹區
瑞奇馬汀寵物店,新北市新店區北新路1段123號1樓,新北市,新店區
微笑寵物生活館,高雄市鳳山區誠德街66號,高雄市,鳳山區
家合寵物美容工作坊,高雄市仁武區澄合街272號,高雄市,仁武區
貓膩會館,臺北市大安區光復南路702號1樓,臺北市,大安區
伴伴寵物美容,臺北市北投區中正街68號1樓,臺北市,北投區
乖狗狗寵物坊,高雄市鳳山區中山西路173號,高雄市,鳳山區
中圓寵物股份有限公司,桃園市桃園區同安里中正路836號,桃園市,桃園區
漢克哈士奇寵物名店,桃園市楊梅區桃園市楊梅區東流里中山南路688號1、2樓,桃園市,楊梅區
星特寵物生活館,臺中市西屯區朝馬路26號1樓、2樓,臺中市,西屯區
貓掌印別館,臺中市西區自由路一段40之6號1樓,臺中市,西區
魚中魚樂活有限公司樹林分公司,新北市樹林區中正路103號1樓,新北市,樹林區
派特屋有限公司,新北市新店區如意街1巷8號1樓,新北市,新店區
聽貓說貓咪旅館,新北市土城區中正路67巷33號1樓,新北市,土城區
卡澄寵物美容,新北市土城區福仁街14號,新北市,土城區
安佐樂寵物館,臺南市東區小東路248之2號1樓,臺南市,東區
熊汪寵物美容,高雄市苓雅區正義路150號,高雄市,苓雅區
哈米寵物生活舘,新北市土城區學府路一段98巷17號1樓,新北市,土城區
萌寵企業社,新北市土城區永豐路13巷26號1樓,新北市,土城區
格萊雅寵物美學館,新北市土城區廣興街27號1樓,新北市,土城區
筑夢寵物美容,新北市土城區明峯街6巷35號1樓,新北市,土城區
布逗熊寵物店,新北市新店區新店區三民路32號,新北市,新店區
貝帝寵物精品館,新北市深坑區北深路2段55巷12弄3號1樓,新北市,深坑區
得意寵物用品店,新北市新店區北新路二段187號1樓,新北市,新店區
喵的地球總部喵天地寵物沙龍,新北市新店區寶慶街81號1樓,新北市,新店區
親穎水族設計館,新北市鶯歌區鶯桃路496號1樓,新北市,鶯歌區
幸運草貓舍,新北市鶯歌區鶯桃路594號1樓,新北市,鶯歌區
瀟灑寵物美容,新北市永和區仁愛路287號1樓,新北市,永和區
香永寵物美容坊,新北市三峽區大德路8號1樓,新北市,三峽區
阿默寵物美學,新北市三峽區三峽區國學街1號1樓,新北市,三峽區
雪之犬寵物美容店,新北市樹林區中華路153號1樓,新北市,樹林區
瑪莎寵物美學,新北市樹林區佳園路3段486號1樓,新北市,樹林區
愛神寵物美容店,新北市土城區清水路88號,新北市,土城區
雅典娜寵物沙龍,新北市永和區國光路37號1樓,新北市,永和區
晟藍有限公司,新北市土城區青和街333號,新北市,土城區
晟藍有限公司青和分公司,新北市土城區土城區青和街329號1樓,新北市,土城區
萬達寵物事業股份有限公司台中西屯分公司,臺中市西屯區臺中市西屯區大隆路140號,臺中市,西屯區
呂館寵物生活館,臺中市大里區中興路二段249巷1號,臺中市,大里區
犬家寵物美容旅館,臺中市大里區西榮路260巷35號,臺中市,大里區
頑皮狗寵物店,高雄市大寮區鳳屏一路195、197號,高雄市,大寮區
田蓉貿易有限公司,高雄市鳳山區建國路二段118、120號,高雄市,鳳山區
太妃工坊,臺南市東區東安路82號1樓,臺南市,東區
貓家貓旅館,高雄市左營區重上街145號,高雄市,左營區
免睏寵物樂園,桃園市中壢區青埔里高鐵北路二段97號1、2、3樓,桃園市,中壢區
優蜜兒專業寵物美容,臺中市北屯區文心路四段960號,臺中市,北屯區
旺憂有限公司忠明分公司,臺中市北區忠明路331號、333號、335號,臺中市,北區
噗滿貓舍,臺中市西屯區中清路二段1250巷5號1樓,臺中市,西屯區
草妮瑪寵物美容,新北市板橋區溪崑二街6號1樓,新北市,板橋區
吉的寶澡堂,新北市板橋區溪北路148號1樓,新北市,板橋區
馨動寵物坊,新北市板橋區文化路1段46巷8號1樓,新北市,板橋區
蜜蜜基地寵物美容商行,新北市板橋區中正路250巷8號,新北市,板橋區
橘子毛實業社,新北市板橋區松柏街1巷13號1樓,新北市,板橋區
貓後苑有限公司,新北市板橋區四川路1段59號2樓,新北市,板橋區
貓肥家貓咪旅館,新北市板橋區文化路2段45號1樓,新北市,板橋區
普羅寵物生活館,新北市板橋區四川路一段174號1樓,新北市,板橋區
萬達寵物事業股份有限公司台南新營分公司,臺南市新營區新營區三民路152之17號,臺南市,新營區
泰迪幼犬寵物犬舍,臺南市永康區龍埔里7鄰自強路646號1-2樓,臺南市,永康區
水喬寵物美容造型,新北市板橋區永豐街51號1樓,新北市,板橋區
酷妮家寵物美容SPA館,新北市新莊區中興街26號1樓,新北市,新莊區
芋妮貓寵物生活館,臺北市南港區重陽路125巷16號1樓,臺北市,南港區
新頑皮族寵物用品社,高雄市前鎮區一心一路36號,高雄市,前鎮區
超級愛狗寵物沙龍,高雄市左營區民族一路1018號,高雄市,左營區
順竩有限公司,臺北市北投區復興四路16之1號1樓,臺北市,北投區
宅貓商行,臺北市中山區民生東路二段3號1樓,臺北市,中山區
寵沐殿企業社,臺南市安平區健康路三段315號1樓,臺南市,安平區
約伯行旅,新北市板橋區民族路129巷12弄15號,新北市,板橋區
喜得貓社,臺北市大安區基隆路二段102號1樓,臺北市,大安區
白喵宿舍,臺中市豐原區豐原大道三段286巷58弄88號,臺中市,豐原區
森蕊寵物有限公司,臺南市永康區東橋里11鄰東橋一路300號,臺南市,永康區
高冷貓旅館貓住宿,臺南市北區北成路72號1樓,臺南市,北區
甜美果寵物沙龍企業社,新北市淡水區新市三路二段289號,新北市,淡水區
噯銤寵物美容用品店,桃園市蘆竹區福興里奉化路266號1樓,桃園市,蘆竹區
懶洋洋寵物沙龍,高雄市楠梓區大學三十一街173號1樓,高雄市,楠梓區
佳佳寵物店,臺中市北屯區梅川西路四段285號,臺中市,北屯區
小毛廬企業社,臺南市北區開元路148巷43弄19號1樓,臺南市,北區
澎澎寵物旅宿,臺中市清水區港都一路98號2樓,臺中市,清水區
植沐寵物沙龍,臺南市新化區豐榮里2鄰正新路102號1樓,臺南市,新化區
小可愛寵物店,新北市板橋區中正路360巷15號1樓,新北市,板橋區
有間寵物店 ,新北市板橋區中山路1段206巷97號1樓,新北市,板橋區
宜加寵物生活館,新北市新莊區中正路380號1樓,新北市,新莊區
連夢露寵物美容室,臺北市大同區承德路一段83號1樓,臺北市,大同區
日巷工作室,臺北市南港區南港路一段287巷2弄6號1樓,臺北市,南港區
安若科技有限公司,桃園市平鎮區復旦里民族路二段193巷57號,桃園市,平鎮區
美美狗寵物美容館,臺中市西屯區至善路38巷1號,臺中市,西屯區
汪了個喵寵物美容,高雄市楠梓區卓越路159號,高雄市,楠梓區
熊寶貝寵物精剪,高雄市三民區九如一路307號1樓,高雄市,三民區
迷漾狗寵物,高雄市大寮區鳳林三路696號,高雄市,大寮區
澎澎時光寵物美容,高雄市苓雅區光華一路311號,高雄市,苓雅區
永淳企業社,高雄市三民區覺民路6號,高雄市,三民區
萬達寵物事業股份有限公司_鼎山分公司,高雄市三民區鼎山街255號,高雄市,三民區
皮老闆寵物旅館,高雄市三民區哈爾濱街29號2樓,高雄市,三民區
僑美寵物美容量販,高雄市路竹區中山路786號,高雄市,路竹區
親禾寵物高鐵會館,高雄市左營區大中二路262號,高雄市,左營區
小守居企業社,臺中市太平區立文街217號,臺中市,太平區
萬達寵物事業股份有限公司國光分公司,新北市板橋區國光路61號1樓,新北市,板橋區
東森寵物雲股份有限公司左營左大分公司,高雄市左營區左營大路161、163號,高雄市,左營區
窩牛寵物旅館,高雄市鼓山區瑞豐街134號,高雄市,鼓山區
汪芙企業社,高雄市三民區明賢街42號,高雄市,三民區
相浴寵物沙龍,高雄市楠梓區惠豐街190號,高雄市,楠梓區
旺太郎寵物沙龍,高雄市苓雅區正義路237號,高雄市,苓雅區
豬窩寵物美容,新北市中和區民德路60號1樓,新北市,中和區
滴塔寵物美容館,新北市中和區板南路170號1樓,新北市,中和區
尚悠寵物坊,新北市永和區永貞路443號1樓,新北市,永和區
蓁心好寵旅店,高雄市鳳山區新富路10號,高雄市,鳳山區
浪寶貝寵物美容,高雄市旗山區東新街58號1樓,高雄市,旗山區
寵美空間寵物美容,高雄市三民區北平二街5巷30號,高雄市,三民區
啊財那裡寵物沙龍,高雄市鳳山區大東二路143號,高雄市,鳳山區
放心寵物店,高雄市前鎮區一心一路216號,高雄市,前鎮區
寵物派對美容生活館,高雄市鳳山區自由路165-1號,高雄市,鳳山區
沐沐寵物美容,高雄市鳳山區五甲二路334號1樓,高雄市,鳳山區
貝比寵物生活館,高雄市苓雅區三多三路40號,高雄市,苓雅區
小蕃薯寵物美容工作室,高雄市楠梓區德賢路248巷11弄7號,高雄市,楠梓區
萬達寵物事業股份有限公司金龍分公司,臺北市內湖區內湖路三段3號1樓及地下1樓、5號地下1樓,臺北市,內湖區
哈利寵物精緻美容,臺北市中山區林森北路643號1樓,臺北市,中山區
就甘心寵物美容旅館,臺北市中山區新生北路二段60巷16號4樓,臺北市,中山區
俏妞寵物生活坊,臺北市南港區興中路68巷15號,臺北市,南港區
奇果寵物美容生活館,臺北市信義區永吉路30巷100號1樓,臺北市,信義區
毛小孩美寵興業有限公司,臺北市大安區信義路四段293號2樓,臺北市,大安區
有狗真好工作室,臺北市中正區中華路二段475號1樓,臺北市,中正區
吳星慧寵物生活館,臺北市中山區中山北路三段53之8號1樓,臺北市,中山區
就是貓工作坊,臺北市文山區木柵路3段85巷23弄18號1樓,臺北市,文山區
喵喵屋,臺北市松山區八德路四段618號3樓,臺北市,松山區
米香尼寵物美容店,臺北市中山區中山北路二段59巷3弄7號1樓,臺北市,中山區
小花貓寵物生活館,臺北市文山區景興路223號,臺北市,文山區
愛犬小屋,臺北市松山區民生東路五段36巷6弄5之1號1樓,臺北市,松山區
貓語花香坊,臺北市中山區復興南路一段36-2號2樓,臺北市,中山區
樂福犬寵物生活館,臺北市文山區保儀路21號,臺北市,文山區
一起寵物生活館,臺北市中正區廈門街125號一樓,臺北市,中正區
耀晟寵物坊,臺北市大安區基隆路二段130號1樓,臺北市,大安區
金吉旺寵物有限公司,臺北市大安區基隆路二段104號1樓,臺北市,大安區
慵懶貓寵物旅館,臺北市中山區新生北路三段82號1樓,臺北市,中山區
美樂蒂寵物美容用品館,臺北市士林區延平北路五段208號1樓,臺北市,士林區
吉寵企業社,臺北市大安區基隆路二段126號1樓,臺北市,大安區
端溜桃貓屋,新北市新莊區福壽街142巷15號1樓,新北市,新莊區
狗狗公園快樂狗旅館,新北市淡水區中山北路1段247巷80號1樓,新北市,淡水區
伊芯寵物有限公司,臺北市信義區和平東路三段361號1樓,臺北市,信義區
有吉寵物店,臺北市中山區龍江路200之4號1樓及2樓,臺北市,中山區
聊聊貓旅館,新北市新莊區中和街155巷30號1樓,新北市,新莊區
南京寵物坊,新北市板橋區縣民大道3段400號1樓,新北市,板橋區
貓愛貓殿堂,新北市板橋區龍泉街124巷2號,新北市,板橋區
兆綸寵物精緻旅店,新北市板橋區館前西路120號2、3樓,新北市,板橋區
酷寶貝寵物美容工作坊,新北市新莊區中和街125巷6號1樓,新北市,新莊區
萬達寵物事業股份有限公司文化分公司,新北市板橋區板橋區文化路2段501號1樓,新北市,板橋區
喵棧行,高雄市楠梓區藍昌路285號,高雄市,楠梓區
喬的貓舍,臺南市安平區育平路252號,臺南市,安平區
暖暖寵物澡堂,臺中市西區西屯路一段133-1號1樓、地下1樓,臺中市,西區
繽狗寵物生活館,高雄市三民區大豐二路403號1樓,高雄市,三民區
小狗慢慢寵物美容,臺中市北屯區松山街88號1樓,臺中市,北屯區
波米屋寵物旅館,臺中市南屯區龍富路三段251號1樓,臺中市,南屯區
泰羽旺有限公司,臺中市北屯區太原路三段1365號1樓,臺中市,北屯區
汪悠谷寵物住宿生活館,臺中市南屯區文昌街357號1樓,臺中市,南屯區
貝克漢寵物生活館,高雄市前鎮區七雄街92號1樓,高雄市,前鎮區
小犬座寵物旅館,臺南市中西區海安路一段30號,臺南市,中西區
毛茸茸寵物沙龍,臺南市安南區安和路一段41號,臺南市,安南區
幸福寵物自助澡堂舘,臺南市南區福吉二街88號,臺南市,南區
DoDo寵物沙龍旅館,桃園市觀音區桃園市觀音草漯區里德一街92號1樓,桃園市,觀音區
美露寵物旅館,高雄市三民區民本街12號,高雄市,三民區
中圓寵物股份有限公司八德分公司,桃園市八德區瑞發里介壽路二段1076號,桃園市,八德區
嚕卡毛孩工作室,高雄市前金區成功一路352號,高雄市,前金區
長鴻寵物館,新北市中和區景平路396號1樓,新北市,中和區
哈基咪寵物生活館,臺南市南區灣裡路324巷2號,臺南市,南區
茱莉寵物美容工作室,高雄市苓雅區林森二路92號,高雄市,苓雅區
狗狗好棒寵物沙龍,高雄市左營區榮總路141巷25號,高雄市,左營區
巧耘寵物美容,高雄市左營區高雄市左營區新光里新庄仔路45-4號,高雄市,左營區
狗腳印寵物工作室,高雄市仁武區仁雄路42之18號,高雄市,仁武區
狗自在家庭式寄養,高雄市苓雅區凱旋二路61號1樓2樓,高雄市,苓雅區
佩泊商行,高雄市苓雅區福德三路321號,高雄市,苓雅區
毛絨絨寵物澡堂,高雄市前鎮區民權二路613號,高雄市,前鎮區
星寵閣企業社,高雄市左營區至聖路306號,高雄市,左營區
毛小窩寵物生活館,高雄市三民區龍江街47巷18號2樓,高雄市,三民區
狗妹妹寵物坊,高雄市鳳山區五權路25號,高雄市,鳳山區
狗太陽寵物精品沙龍,高雄市前金區光復一街32號,高雄市,前金區
歐比寵物生活館,高雄市前鎮區二聖一路87號,高雄市,前鎮區
樂寵窩寵物美容,高雄市鼓山區青松街25號,高雄市,鼓山區
魚中魚樂活有限公司華夏分公司,高雄市左營區華夏路1340號,高雄市,左營區
丹紫京寵物沙龍坊,高雄市楠梓區樂群路198號,高雄市,楠梓區
泡泡沐寵物沙龍旅館,高雄市鳳山區北昌三街102號1樓,高雄市,鳳山區
渵屋創意工作室,高雄市鳳山區新昌街32號,高雄市,鳳山區
家蓁寵物美容,高雄市鳳山區新生街一段17號1樓,高雄市,鳳山區
沐町寵物美容生活館,高雄市三民區覺民路25號1樓,高雄市,三民區
喵窩企業社,高雄市岡山區大仁北路121巷1弄29-2號1、2樓,高雄市,岡山區
法鬥學園犬舍,高雄市橋頭區佛神路13號,高雄市,橋頭區
奈斯澎澎寵物沙龍,高雄市前鎮區高雄市前鎮區永豐路107號,高雄市,前鎮區
祝妮皮安企業社,高雄市苓雅區武漢街113-4號,高雄市,苓雅區
品宇寵物綜合服務,高雄市左營區重立路232巷21號,高雄市,左營區
豬窩寵物沙龍旅館,高雄市三民區興昌街26號,高雄市,三民區
初心寵物美容,高雄市左營區重信路391號1樓,高雄市,左營區
之勁商行,高雄市前鎮區文林街43號,高雄市,前鎮區
八八寵物沙龍館,高雄市三民區大慶街88號,高雄市,三民區
汪汪掀被寵物沙龍,高雄市鳳山區北文街92號1樓,高雄市,鳳山區
帕菲犬貓園,新北市新莊區新北大道7段726號1樓,新北市,新莊區
珍寶寵物沙龍,高雄市鳳山區新康街185號1樓,高雄市,鳳山區
萬達寵物事業股份有限公司_青年分公司,高雄市鳳山區青年路二段450、452號,高雄市,鳳山區
迷妳寵物店,高雄市新興區復興一路14之3號,高雄市,新興區
愛沐貓旅館,高雄市新興區民生一路14號,高雄市,新興區
丹晅寵物沙龍旅館,高雄市鳳山區高雄市鳳山區海涵路492號,高雄市,鳳山區
勤喬有限公司,高雄市三民區察哈爾一街9號,高雄市,三民區
一叁六寵物美容,高雄市鼓山區華豐街71號,高雄市,鼓山區
棉花糖寵物生活坊,高雄市岡山區岡山南路1巷21號1、2樓,高雄市,岡山區
朵妮寵物創意美學館,高雄市小港區高雄市小港區新昌街26-8號1樓,高雄市,小港區
棉花糖寵物旅館,高雄市美濃區光明路169號,高雄市,美濃區
毛逗寵物精品沙龍,高雄市左營區明華一路11號,高雄市,左營區
米妮美樂寵物沙龍,高雄市左營區民族一路1182號,高雄市,左營區
緣真寵物名店,高雄市美濃區中正路二段75號,高雄市,美濃區
原野登山體育社,高雄市左營區後昌路605號,高雄市,左營區
熊大心寵物精品旅館,高雄市鼓山區鼓山二路110號,高雄市,鼓山區
貓米設計寵物背包客工作室,高雄市鳳山區高雄市鳳山區五甲三路295巷85號,高雄市,鳳山區
寵悠活鮮食宿,高雄市左營區廍後街10之1號1樓,高雄市,左營區
小太陽寵物美容,高雄市鳳山區文聖街126號,高雄市,鳳山區
五吉寵物旅館,高雄市大寮區永仁街18號,高雄市,大寮區
我的狗寵物美容住宿,高雄市三民區高雄市三民區民族一路525號,高雄市,三民區
寵物王朝有限公司大社分公司,高雄市大社區旗楠路88號,高雄市,大社區
幸運草寵物美容,高雄市前鎮區二聖二路13號,高雄市,前鎮區
喵起來住館,高雄市新興區復興二路344號2樓,高雄市,新興區
我與狗寵物旅館,高雄市小港區桂陽路175巷1弄23號,高雄市,小港區
沛思寵物沙龍,高雄市鼓山區青海路340號,高雄市,鼓山區
杜魯爸爸寵物美容,高雄市鳳山區高雄市鳳山區建國路三段267巷30號,高雄市,鳳山區
萬達寵物事業股份有限公司高雄岡山分公司,高雄市岡山區高雄市岡山區岡燕路40、42號及高雄市岡山區民有路44、46號,高雄市,岡山區
塔塔寵物美學,高雄市楠梓區樂群路131號,高雄市,楠梓區
寵物王朝有限公司,高雄市橋頭區成功南路148巷1號1樓,高雄市,橋頭區
富貴寵物澡堂,高雄市大寮區鳳林四路435之1號,高雄市,大寮區
唯樂寵物旅館,高雄市三民區民族一路782之8號,高雄市,三民區
寵物王朝有限公司岡山分公司,高雄市岡山區中山北路187號1樓,高雄市,岡山區
卡哇伊貓貓,高雄市左營區重清路256號,高雄市,左營區
卡特寵物用品有限公司,高雄市梓官區大舍南路65號,高雄市,梓官區
秀燕寵物生活館,高雄市左營區新庄仔路556號3樓,高雄市,左營區
寵物當家用品店,高雄市苓雅區四維一路105號,高雄市,苓雅區
貓茸茸寵物旅館,高雄市前鎮區高雄市前鎮區民權二路615號,高雄市,前鎮區
狗來樂寵物美容,高雄市仁武區八德南路100巷172號,高雄市,仁武區
麥可寵物世界店,高雄市左營區左營大路2-30號,高雄市,左營區
自遊自宅寵物住宿,高雄市左營區文學路655號,高雄市,左營區
謝謝妮寵物美坊,高雄市苓雅區高雄市苓雅區中興街53號,高雄市,苓雅區
洗洗睡寵物沙龍,高雄市楠梓區大學二十六街199號1樓,高雄市,楠梓區
貓裡居有限公司文三分公司,新北市林口區新北市林口區文化三路一段402巷2號2樓,新北市,林口區
貓之森寵物生活館,高雄市楠梓區慶昌街43巷1弄7號,高雄市,楠梓區
慢飛寵物美學,臺南市東區樹林街一段207號1樓,臺南市,東區
玩美小獸沙龍,臺北市中山區新生北路三段69號1樓,臺北市,中山區
堤柇有限公司,新北市板橋區龍翠里文聖街194號1. B1樓,新北市,板橋區
朵菈寵物生活館,新北市新莊區思源路166巷41號1樓,新北市,新莊區
福氣寵物店,新北市新莊區中平路334號1樓,新北市,新莊區
頭等艙寵物生活館,新北市新莊區後港一路76巷12弄2號1樓,新北市,新莊區
毛澡堂寵物沙龍,新北市新莊區公園路27號1樓,新北市,新莊區
維拉薇菈寵物精品店,新北市新莊區幸福東路115號1樓,新北市,新莊區
雅典犬舍,臺南市鹽水區橋南里16鄰南門路80巷20弄14號,臺南市,鹽水區
極光森林貓舍,新北市新莊區新崑路109號3樓,新北市,新莊區
小米毛澡堂,新北市新莊區中港路406巷2號1樓,新北市,新莊區
享日子寵物旅館,新北市新莊區昌盛街65巷2弄2號1樓,新北市,新莊區
好好寵物有限公司,新北市新莊區中央路108號1、2樓,新北市,新莊區
澎澎寵物旅館,新北市板橋區新生街29巷15弄2號1樓,新北市,板橋區
亞尼客寵物美容店,新北市板橋區大觀路3段142號1樓,新北市,板橋區
中圓寵物股份有限公司中壢分公司,桃園市中壢區金華里新生路286號,桃園市,中壢區
齊拉有限公司,新北市淡水區新北市新北市淡水區新民街31號,新北市,淡水區
露西寵物店,新北市三重區重新路4段136號1樓,新北市,三重區
享窩窩貓旅工作室,新北市板橋區長江路1段136巷10號1樓,新北市,板橋區
朵貓貓寵物工作室,新北市板橋區金門街372巷28號1樓,新北市,板橋區
狗趣兒寵物旅館,新北市林口區林口區文化三路1段617巷163號1樓,新北市,林口區
哈寶寵物美容館,新北市三重區重陽路1段60巷25號1樓,新北市,三重區
小不點寵物店,新北市板橋區萬安街53巷32號1樓,新北市,板橋區
享時光貓旅工作室,新北市板橋區新海路391巷2號1樓,新北市,板橋區
星貝貝寵物旅館,新北市板橋區莊敬路228號1樓,新北市,板橋區
東森寵物雲股份有限公司板橋雨農分公司,新北市板橋區新翠里雨農路54號1樓,新北市,板橋區
沐絲寵物美容坊,新北市蘆洲區蘆洲區永康街35號1樓,新北市,蘆洲區
喵毛屋有限公司,新北市板橋區民生路三段178號1樓,新北市,板橋區
寵愛汪喵企業社,新北市三重區忠孝路2段79號,新北市,三重區
貝果貝果,臺南市中西區南門路159號及159之1號,臺南市,中西區
毛孩慢步照護美容工作坊,臺南市東區林森路二段192巷13號,臺南市,東區
玖玖寵物美姿莊園坊,新北市林口區文化北路1段262號1樓,新北市,林口區
貓這裡手作工作室,臺南市東區崇德二十二街52號1樓,臺南市,東區
喬咪寵物美容,臺南市北區中華北路二段211號1樓,臺南市,北區
貓漾寵物生活館,臺南市安南區安南區同安路195巷40號,臺南市,安南區
一三三寵物沙龍旅館,新北市林口區四維路116號1樓,新北市,林口區
天麗寵物坊,新北市三芝區中山路1段88巷11號,新北市,三芝區
洛芙寵物精品店,新北市三重區吉祥街6號1樓,新北市,三重區
好喵寵物店,新北市林口區文化三路2段275號1樓,新北市,林口區
好運吧精緻寵物旅店,新北市淡水區大仁街33號1樓,新北市,淡水區
乖乖狗寵物店,新北市泰山區中華街18巷10號1樓,新北市,泰山區
欣愛寵物坊,新北市三重區中正南路81號1樓,新北市,三重區
毛孩渡假生活館,新北市林口區文化北路1段208號1樓,新北市,林口區
萌萌噠寵物美容,新北市泰山區新北市泰山區仁武街21號1樓,新北市,泰山區
中圓寵物股份有限公司林口分公司,新北市林口區忠孝路372號1樓,新北市,林口區
糖狗貓寵物沙龍,臺南市北區長榮路五段8之1號1樓,臺南市,北區
棲心寵物旅宿,臺南市安南區安南區長和路一段370號,臺南市,安南區
大大寵物旅館,新北市汐止區汐萬路一段19號1樓及地下室1樓,新北市,汐止區
護寵者聯萌寵物沙龍,臺南市南區三官路177號1樓,臺南市,南區
旺旺旺寵物生活館,臺南市北區西門路四段512、516號1樓,臺南市,北區
三福寵物用品店,新北市泰山區明志路一段488號1樓,新北市,泰山區
晟欣商行,臺南市東區崇善七街52號1樓,臺南市,東區
月光貓旅館,臺南市東區崇善路565號3樓,臺南市,東區
珍艾寵物館,臺南市東區東門路二段9號,臺南市,東區
絨毛小狗寵物美學,臺南市東區自由路一段177號1樓,臺南市,東區
心花朵朵開實業社,臺南市東區小東路364號1樓,臺南市,東區
寶貝園寵物生活館,臺南市東區長東街30號1樓,臺南市,東區
旺寶寵物生活館,臺南市東區東門路二段452號1-2樓,臺南市,東區
大魚寵物有限公司崇明分公司,臺南市東區崇明路511號,臺南市,東區
我的寵物精品生活時尚沙龍館,臺南市北區大興街46之1號1樓,臺南市,北區
好的寵物沙龍,新北市中和區自立路163號1樓,新北市,中和區
貓咪船長寵物旅館,臺南市安南區安中路一段130巷16之3號,臺南市,安南區
鑫嘉福寵物生活館,臺南市安南區溪東一街1號1樓,臺南市,安南區
貓卡卡貓咪文旅,臺南市安南區安和路五段356號,臺南市,安南區
寶貝洞寵物生活館,臺南市安南區長溪路一段242之1號,臺南市,安南區
田美寵物生活百貨,臺南市安平區文平路468號1-2樓,臺南市,安平區
凱弟寵物澡堂,臺南市安平區建平八街108巷40號,臺南市,安平區
波樂工坊,臺南市安平區永華十一街17巷33號1樓,臺南市,安平區
福貍工作室,臺南市安平區國平路5號1樓,臺南市,安平區
史溫托爾寵物店,臺南市安平區永華路二段660號1樓,臺南市,安平區
齊齊狗狗寄宿,臺南市南區大德街141巷18號2樓,臺南市,南區
桃樂斯寵物遊樂園,臺南市南區健康路二段251號,臺南市,南區
貓宅一生企業社,臺南市南區新興路160號,臺南市,南區
寵愛寵物生活館,臺南市永康區中華一路20號1樓,臺南市,永康區
捲尾巴寵物旅店,新北市永和區永平路300號1樓,新北市,永和區
悠洗寵物美容工作室,新北市汐止區明峰街53號1樓,新北市,汐止區
幸福種子寵物沙龍,臺南市永康區塩行里6鄰中正南路636號,臺南市,永康區
可愛谷寵物生活館,新北市中和區南山路273號1樓,新北市,中和區
萬達寵物事業股份有限公司東門分公司,臺南市東區東門路二段365巷26號,臺南市,東區
萬達寵物事業股份有限公司安平分公司,臺南市安平區華平路263號及265號,臺南市,安平區
喜恩精緻寵物美容館,臺南市永康區西橋里5鄰中華西街21巷8之1號1樓,臺南市,永康區
星期一貓旅舍,臺南市永康區大橋里5鄰大橋一街103巷218號,臺南市,永康區
甜蜜貓工作室,新北市永和區永和路2段228號3樓,新北市,永和區
環球購物中心股份有限公司中和分公司,新北市中和區中山路三段120號1樓,新北市,中和區
犬之湯屋寵物館,新北市中和區安樂路50號1樓,新北市,中和區
犬賓行,新北市汐止區鄉長路一段23號1樓,新北市,汐止區
比樂寵物精緻沙龍,臺南市歸仁區南興里1鄰民生北街140號,臺南市,歸仁區
萬達寵物事業股份有限公司台南歸仁分公司,臺南市歸仁區中山路二段222號,臺南市,歸仁區
雪麗犬舍,臺南市麻豆區新建里8鄰新生南路84號,臺南市,麻豆區
蔻蔻寵物沙龍,臺南市佳里區文新里6鄰文化路411號,臺南市,佳里區
呼嚕嚕貓旅寵物精品工作室,新北市三重區三重區重新路3段26號3樓,新北市,三重區
麻吉寵物沙龍,新北市三重區中正北路380巷2號1樓,新北市,三重區
沐寓寵物精緻旅館,新北市林口區新北市林口區民族路26號,新北市,林口區
佳和寵物用品公司,新北市淡水區民權路153號地下1樓,新北市,淡水區
饅頭音樂工作室,新北市林口區文化一路1段190巷8-1號,新北市,林口區
私房貓旅堂有限公司,新北市三重區五華街218號1樓,新北市,三重區
達詩股份有限公司,新北市三芝區後厝里土地公坑73-7、73-8號,新北市,三芝區
萬達寵物事業股份有限公司蘆洲門市部,新北市蘆洲區蘆洲區長榮路71號1樓,新北市,蘆洲區
寵沐企業社,新北市林口區民享路46號1樓及B1,新北市,林口區
福貓寵物旅館,新北市蘆洲區永安南路2段98號1樓,新北市,蘆洲區
酷毛寵物旅館,新北市林口區新北市林口區文化三路2段115巷68號1樓,新北市,林口區
鑫恩貓舍,新北市三重區新北市三重區三和路3段151巷39號,新北市,三重區
鋒毛孩寵物旅館,新北市三重區永安北路2段107號1樓,新北市,三重區
麻糬阿木工作室,新北市蘆洲區蘆洲區中山一路120巷19號1樓,新北市,蘆洲區
毛到家有限公司,新北市林口區民族路89號,新北市,林口區
晶鑽樂狗寵物生活館,新北市林口區文化北路1段60巷8號,新北市,林口區
侍寵派有限公司,新北市淡水區新市三路2段247號1樓,新北市,淡水區
秋味犬教育工作室,臺南市白河區河東里7鄰糞箕湖179號,臺南市,白河區
趴趴雞寵物生活館,新北市中和區成功路99之1號1樓,新北市,中和區
喜樂狗寵物美容生活館,新北市林口區文化三路一段617巷183號,新北市,林口區
艾莉亞寵物精品美容,新北市永和區得和路82號1樓,新北市,永和區
球球幼犬寵物店,新北市中和區中正路641號1樓,新北市,中和區
雪莉寵物生活館,臺南市東區崇德路785之8、9號,臺南市,東區
瑪恩寵物生活館,臺南市新營區民權里9鄰民權路106號,臺南市,新營區
啪啾寵物旅館,新北市永和區永貞路53號1樓,新北市,永和區
萬達寵物事業股份有限公司福德分公司,新北市三重區福德北路74號1樓,新北市,三重區
大魚寵物有限公司永康分公司,臺南市永康區安康里13鄰中華路707號,臺南市,永康區
有珈寵物美容坊,新北市蘆洲區集賢路224巷39之1號1樓,新北市,蘆洲區
奇巧手寵物用品店,臺南市安平區文平路215號,臺南市,安平區
錢櫃愛犬美容屋郡緯分店,臺南市中西區郡緯街39之1號,臺南市,中西區
錢櫃愛犬美容屋,臺南市安平區華平路698號1樓,臺南市,安平區
愛諾寵物生活館,臺南市中西區臨安路一段16號,臺南市,中西區
中美寵物生活館,臺南市東區府連路314號2樓,臺南市,東區
凱特莉寵物沙龍,桃園市蘆竹區南崁里南祥路21號,桃園市,蘆竹區
樂時頤國際企業有限公司,新北市汐止區明峰街7號1樓,新北市,汐止區
橘舍寵物沙龍旅館,新北市汐止區秀峰路144號1樓,新北市,汐止區
東森寵物雲股份有限公司麻豆興中分公司,臺南市麻豆區晉江里8鄰興中路164號,臺南市,麻豆區
阿棚喵貓屋,臺中市西屯區逢甲路20巷36號1樓,臺中市,西屯區
歐歐兔股份有限公司(犬),臺中市南屯區文心南二路398號1樓、地下1樓,臺中市,南屯區
福福貓有限公司,臺北市萬華區武昌街二段53號3樓,臺北市,萬華區
有間貓旅有限公司,臺北市松山區南京東路五段137之1號(2樓),臺北市,松山區
吹毛球痴洗澡吧,臺北市信義區松山路315之1號1樓,臺北市,信義區
米屋寵物美容,臺北市北投區北投路二段19號1樓,臺北市,北投區
玉月光村股份有限公司,臺北市信義區基隆路二段117號2樓,臺北市,信義區
愛玩犬寵美屋,臺北市北投區中正街69號1樓及2樓,臺北市,北投區
禾鑫寵物企業社,臺北市萬華區青年路172號1樓,臺北市,萬華區
茱式企業社,臺北市文山區三福街1號1樓,臺北市,文山區
羅娜寵兒有限公司,臺北市松山區民生東路五段206之2號1樓,臺北市,松山區
班森班比商行,臺北市南港區八德路四段917號1樓,臺北市,南港區
洗毛球寵物美容工作坊,臺北市文山區興隆路二段244巷32號1樓,臺北市,文山區
嘟波寵物自在生活坊,臺北市中山區民權東路一段38巷18弄1號5樓,臺北市,中山區
大爺股份有限公司寶吉分公司,臺北市內湖區民權東路六段123巷20弄5號1樓,臺北市,內湖區
喵喵屋有限公司,臺北市大安區建國南路二段19號1樓,臺北市,大安區
翻肚肚寵物美容,臺北市松山區民生東路五段202號之1一樓,臺北市,松山區
愛玩家犬貓寵物社,臺北市大安區光復南路686之1號1樓,臺北市,大安區
汪堡股份有限公司,臺北市中山區敬業一路46號1樓,臺北市,中山區
軒墨工作室,臺北市南港區向陽路162巷100號2樓,臺北市,南港區
蕙昌寵物企業社,臺北市中山區明水路549號1樓,臺北市,中山區
唯依寵物美學企業社,臺北市大安區基隆路二段162之4號1樓,臺北市,大安區
亞勵興業有限公司,臺北市內湖區成功路二段412號1樓,臺北市,內湖區
咕咕碁有限公司,臺北市內湖區東湖路7巷29號地下室,臺北市,內湖區
喜寶棧有限公司,臺北市中正區中華路二段307巷40號及42號1樓,臺北市,中正區
巧菲時尚寵物沙龍,臺北市士林區福國路63號1樓,臺北市,士林區
狗狗日常寵物旅館,臺北市文山區羅斯福路六段85號1樓及2樓,臺北市,文山區
永樂健康有限公司文山營業所,臺北市文山區興隆路一段261號1樓,臺北市,文山區
萬旺商行,臺北市松山區八德路四段512號1樓,臺北市,松山區
五個蹼生活館,臺北市中正區羅斯福路三段92號1樓,臺北市,中正區
豆恩凱寵物精品有限公司,臺北市文山區木新路二段1號1樓,臺北市,文山區
愛貓成癮有限公司,臺北市信義區莊敬路342號2樓,臺北市,信義區
寵愛之綴寵物美容工作室,臺北市大安區潮州街143號1樓,臺北市,大安區
貓室友工作室,臺北市士林區文林路512-1號1、2樓,臺北市,士林區
國寶寵物股份有限公司吉林分公司,臺北市中山區吉林路178號1、2、3樓,臺北市,中山區
菈菈寵物美容精品屋,臺北市文山區興隆路一段96號1樓,臺北市,文山區
我們和孩子們幸福的寵物沙龍,臺北市中山區長安東路二段220號1樓,臺北市,中山區
萬達寵物事業股份有限公司內湖康樂分公司,臺北市內湖區康樂街116之3號1樓,臺北市,內湖區
星沐精緻寵物美容,臺北市松山區民權東路三段156號1樓,臺北市,松山區
九能寵物用品有限公司,臺北市中山區林森北路413號8樓之21,臺北市,中山區
東森寵物雲股份有限公司,臺北市士林區文林路66號1樓,臺北市,士林區
東森寵物雲股份有限公司通化分公司,臺北市大安區通化街26之7號1樓,臺北市,大安區
咘咘寵物生活坊,新北市中和區中和區安平路64號,新北市,中和區
老闆家貓舍,桃園市桃園區大仁路32號1樓,桃園市,桃園區
我最重要的寵物館,臺中市沙鹿區興安路12號1樓,臺中市,沙鹿區
宅貓寓所貓旅館,新北市中和區中山路3段20號1樓,新北市,中和區
惦記寵物美容,臺南市安南區公學路二段275巷68號,臺南市,安南區
珈寶貝寵物店,高雄市大寮區鳳屏一路185巷2號,高雄市,大寮區
英倫王子悠閒時光工作室,臺中市西屯區逢甲路227之1號,臺中市,西屯區
歐米菲寵物沙龍旅館,臺中市霧峰區四德路228號1樓、2樓,臺中市,霧峰區
柴柴家,桃園市龜山區迴龍里龍鳳街29巷9號,桃園市,龜山區
萬達寵物事業股份有限公司_仁武仁忠分公司,高雄市仁武區仁忠路149號,高雄市,仁武區
咖啡貓犬舍,臺南市永康區埔園里37鄰永大路三段453號1樓,臺南市,永康區
珊寶寵物店,臺中市北屯區松義街146號,臺中市,北屯區
藝淋寵物美容坊,臺中市西屯區西屯路三段159之11巷1號,臺中市,西屯區
貓膩會館,高雄市鼓山區明誠四路112號1樓,高雄市,鼓山區
寶寶好宅寵物生活館,臺中市北屯區北平路四段100號1樓,臺中市,北屯區
苗琳寵物沙龍,桃園市龜山區桃園市龜山區中興里萬壽路二段1209-2號1樓,桃園市,龜山區
大爺股份有限公司,臺北市內湖區民權東路六段170號1、2樓,臺北市,內湖區
東森寵物雲股份有限公司小港宏平分公司,高雄市小港區宏平路432、434號,高雄市,小港區
撩貓逗狗寵物生活坊,桃園市平鎮區廣興里延平路二段28號,桃園市,平鎮區
東森寵物雲股份有限公司東區中華東分公司,臺南市東區中華東路三段193號,臺南市,東區
懶狗狗寵物沙龍,高雄市楠梓區右昌街124號,高雄市,楠梓區
東森寵物雲股份有限公司楠梓興楠分公司,高雄市楠梓區興楠路60號,高雄市,楠梓區
東森寵物雲股份有限公司小港桂陽分公司,高雄市小港區桂陽路115號,高雄市,小港區
東森寵物雲股份有限公司苓雅大順分公司,高雄市苓雅區大順三路218號1樓,高雄市,苓雅區
萬福寵物商行,高雄市前鎮區二聖二路16號1樓、2樓,高雄市,前鎮區
萬達寵物事業股份有限公司內壢文化分公司,桃園市中壢區復興里文化二路95號,桃園市,中壢區
旺達寵物生活館,臺中市北屯區東山路二段141號1、2樓,臺中市,北屯區
喵德渡假貓旅館,桃園市桃園區南華里南華街93巷41號1樓,桃園市,桃園區
卷毛寵物沙龍,高雄市鳳山區文藝街58號,高雄市,鳳山區
東森寵物雲股份有限公司佳里新生分公司,臺南市佳里區建南里5鄰新生路357號,臺南市,佳里區
東森寵物雲股份有限公司新營民生分公司,臺南市新營區新北里2鄰民生路167號,臺南市,新營區
東森寵物雲股份有限公司台南關廟分公司,臺南市關廟區南雄路二段462號,臺南市,關廟區
東森寵物雲股份有限公司仁德中山分公司,臺南市仁德區仁義里22鄰中山路491號1樓,臺南市,仁德區
萬達寵物事業股份有限公司高雄美術分公司,高雄市鼓山區明誠四路112號2樓,高雄市,鼓山區
剪刀手寵物美容沙龍,臺中市北區崇德路一段474號,臺中市,北區
晴虹貓咪美容有限公司,臺中市南區南陽街90號1樓、2樓,臺中市,南區
御達寵物店,臺中市北區梅川西路四段185號,臺中市,北區
旺將寵物精品沙龍店,臺中市北區大仁街62號1樓,臺中市,北區
比比狗寵物旅宿,臺中市豐原區豐東路382號2樓,臺中市,豐原區
朵樂詩寵物美容店,臺中市北屯區景和街346號1樓,臺中市,北屯區
白金寵物店,臺南市佳里區六安里2鄰進學路16號,臺南市,佳里區
東森寵物雲股份有限公司前鎮瑞隆分公司,高雄市前鎮區瑞隆路401號,高雄市,前鎮區
樂曖貓狗生活館,臺中市南區忠孝路3號,臺中市,南區
萬達寵物事業股份有限公司台中太平分公司,臺中市太平區臺中市太平區樹孝路8之4號1樓,臺中市,太平區
沐貓工作坊,高雄市苓雅區武昌路70巷71號1樓,高雄市,苓雅區
韋米雲樂寵物生活用品店,臺中市西區精誠九街10號,臺中市,西區
毛孩你好寵物生活館,臺中市南屯區益昌二街111號2樓,臺中市,南屯區
澄佳開發有限公司,臺中市南屯區東興路一段475號1樓,臺中市,南屯區
鸚粹斯特工作坊,臺南市後壁區頂安里6鄰頂寮105號之24,臺南市,後壁區
相信貓科技有限公司,桃園市龜山區樂善一路5號2樓,桃園市,龜山區
亞威寵物館,高雄市茄萣區高雄市茄萣區濱海路二段78巷12號,高雄市,茄萣區
寵物愛達人用品企業社,臺北市松山區八德路四段174號1樓,臺北市,松山區
毛孩愛達人用品企業社,臺北市松山區健康路260號1樓,臺北市,松山區
阿曼達寵物旅館,桃園市平鎮區金星里上海路311號,桃園市,平鎮區
糖狗屋寵物生活館,臺南市新營區民權里2鄰中山路174號,臺南市,新營區
貓躍寵物工作室,臺中市東區自強南街5巷32號1樓、2樓,臺中市,東區
夏克貝迪寵物有限公司,臺中市北區文昌東二街11號,臺中市,北區
幸福貓村貓旅館,臺中市北屯區大連路一段198號1樓,臺中市,北屯區
老蘇傷殘老狗安養社,高雄市鳥松區松埔北巷4-68號,高雄市,鳥松區
熊樣寵物旅館,高雄市鼓山區明誠三路600號1樓,高雄市,鼓山區
大柴小熊寵物美容,臺中市北屯區平德路82巷5號1樓,臺中市,北屯區
啾啾寵物美容店,臺中市北屯區松竹路二段383之5號1樓,臺中市,北屯區
東森寵物雲股份有限公司台南新市分公司,臺南市新市區新市里中正路365號,臺南市,新市區
東森寵物雲股份有限公司臺中沙鹿分公司,臺中市沙鹿區臺灣大道七段279號、281號,臺中市,沙鹿區
霏霏寵物度假會館,臺中市北屯區和福路66號2樓,臺中市,北屯區
嘟比寵物沙龍,臺中市西屯區國安一路39號,臺中市,西屯區
黃金時代寵物美容坊,臺中市南屯區大墩十四街181號,臺中市,南屯區
圓圓愛犬屋,臺中市北區中清路一段210號1樓,臺中市,北區
汪大爺寵物美容館,臺中市東區大振街30號1樓,臺中市,東區
阿布寵物生活館,臺南市永康區復華里35鄰復國一路461號,臺南市,永康區
毛宅一起寵物美容旅店,桃園市大園區桃園市大園區田心里華興路一段13號,桃園市,大園區
歐品邁國際有限公司,臺北市中山區明水路672巷36號1樓,臺北市,中山區
跨樂提有限公司,臺北市松山區八德路二段429號2-4樓,臺北市,松山區
星安貓寵物旅館,新北市永和區環河東路1段76號1樓,新北市,永和區
東森寵物雲股份有限公司鳳山青年分公司,高雄市鳳山區青年路二段62之5號,高雄市,鳳山區
東森寵物雲股份有限公司前金自立分公司,高雄市前金區自立二路91、93號,高雄市,前金區
北歐犬舍有限公司,臺北市大安區新生南路二段60之1和60之2號,臺北市,大安區
呼嚕踏踏貓舍,高雄市鳳山區文化西路34號1、2樓,高雄市,鳳山區
咪粿商行,臺中市西屯區福雅路128巷65號1樓、4樓,臺中市,西屯區
迦恩寵物造型坊,臺中市潭子區福潭路507巷1號1樓,臺中市,潭子區
奧迪奧寵物生活旅宿(犬),臺中市北屯區北屯路281之3號2樓,臺中市,北屯區
洗狗吧寵物美容工作坊,臺中市西區大業路22號1樓、地下1樓,臺中市,西區
普奇寵物企業社,臺北市中山區長安東路二段195號1樓,臺北市,中山區
米特寵物美容旅店,高雄市楠梓區惠正街145號,高雄市,楠梓區
萬達寵物事業股份有限公司高雄新興分公司,高雄市新興區高雄市新興區復興一路19號及2樓之1至2樓之3,高雄市,新興區
點點屋寵物美容坊,臺中市北屯區太原路三段1387號1樓,臺中市,北屯區
寄居喵精品貓宿,臺北市信義區信義路四段401號5樓,臺北市,信義區
儷登愛犬美容工作室,臺中市西區精誠路227號1樓,臺中市,西區
東森寵物雲股份有限公司西屯青海分公司,臺中市西屯區青海路二段225號,臺中市,西屯區
寵尼寵物澡堂,臺中市大甲區開元路11巷8之2號1樓、2樓,臺中市,大甲區
沐新犬貓坊,臺北市大安區基隆路二段120號1樓,臺北市,大安區
八比比寵物,臺中市北屯區文昌三街67號1樓,臺中市,北屯區
金利海貿易有限公司,高雄市楠梓區大學十一街312號,高雄市,楠梓區
琦琦寵物生活館,高雄市旗山區復新街28號,高雄市,旗山區
九零一寵物美容,桃園市桃園區新埔里經國路221號,桃園市,桃園區
金狗錐狗狗商行,臺北市松山區南京東路五段163-4號1樓,臺北市,松山區
搖擺狗寵物美容店,臺北市信義區光復南路417-4號,臺北市,信義區
樓上遇見貓咖啡,臺北市松山區光復北路38號2樓,臺北市,松山區
禮來寵物生活館,臺北市大安區基隆路二段144巷2號1樓,臺北市,大安區
愛貓寒舍有限公司,臺北市大安區基隆路二段110號5樓,臺北市,大安區
狗狗好乖企業社,臺北市南港區玉成街4號1樓,臺北市,南港區
五號寵物店,臺北市內湖區內湖路一段737巷8弄14號1樓,臺北市,內湖區
沐娜寵物生活館,桃園市觀音區草漯里長興路230號1樓,桃園市,觀音區
豪斯寵物服務有限公司(Gu Gu House 寵物旅館),臺北市中山區敬業一路160號,臺北市,中山區
哈荳米比商行,臺北市內湖區內湖路二段376巷12號1樓,臺北市,內湖區
毛尾巴商行,臺北市大安區大安路一段205號1樓,臺北市,大安區
冠佳犬社,桃園市大園區田心里和平西路168號1樓,桃園市,大園區
均禾貓旅館,桃園市桃園區莊敬里新埔七街168巷12號1樓,桃園市,桃園區
傑士宇企業社,臺中市太平區育德路192號1樓,臺中市,太平區
萬達寵物事業股份有限公司八德興豐分公司,桃園市八德區興豐里興豐路485號,桃園市,八德區
日光森林寵物旅館,臺中市西區柳川西路二段24號3樓,臺中市,西區
愛美狗寵物美容館,臺中市西屯區西屯路二段30之2號1樓,臺中市,西屯區
富匠寵物生活館,高雄市左營區至聖路73號,高雄市,左營區
囍狗寵物,桃園市楊梅區雙榮里民族路五段241號,桃園市,楊梅區
蘋果寵物美容館,桃園市楊梅區瑞塘里梅獅路二段499號,桃園市,楊梅區
源香寵物旅館,臺南市南區金華路二段57巷10號,臺南市,南區
菲麗寵物美容室,桃園市楊梅區楊江里新農街6之8號,桃園市,楊梅區
吉霸寵物美容沙龍,臺南市官田區二鎮里13鄰工社北街62號1樓,臺南市,官田區
好有商行,臺中市西區博館路213號2樓,臺中市,西區
艾希艾貓旅社,臺中市西區美村路一段93號3樓,臺中市,西區
誕生貓舍,高雄市三民區大豐二路372號1、2樓,高雄市,三民區
貝寵閣寵物生活館,高雄市三民區建國二路157號1、2樓,高雄市,三民區
喵嗚貓咪旅館,桃園市桃園區福安里昆明路250號,桃園市,桃園區
貝菓寵物美宿館,桃園市蘆竹區福昌里忠孝西路175巷17號,桃園市,蘆竹區
晶鑽寵物旅館,新北市淡水區新北市淡水區坪頂路39-1號1樓,新北市,淡水區
北鼻精品生活館,新北市林口區中山路65號,新北市,林口區
友狗寵物沙龍店,臺中市神岡區大漢街49號1樓,臺中市,神岡區
念慈有限公司,臺中市北屯區昌平路一段304號3樓、4樓,臺中市,北屯區
東森寵物雲股份有限公司豐原圓環東分公司,臺中市豐原區圓環東路257號1樓,臺中市,豐原區
萬達寵物事業股份有限公司台南新市分公司,臺南市新市區新市區新和里3鄰中正路39、39之1、41號,臺南市,新市區
洣倪寵物生活館,臺中市西區精誠二十三街16號1樓,臺中市,西區
曖豆寵物造型沙龍,臺中市太平區大源路20之17號1樓,臺中市,太平區
太樸寵物生活館,桃園市中壢區普仁里中北路51號1樓,桃園市,中壢區
舞颯琪企業社,桃園市中壢區仁祥里華安路44號,桃園市,中壢區
小鑫鑫寵物沙龍,臺中市梧棲區永寧路67巷60之3號1樓,臺中市,梧棲區
漂亮寶貝動物用品社,高雄市旗山區延平二路121號,高雄市,旗山區
小森林純貓美容旅館,桃園市八德區興仁里豐德路326號,桃園市,八德區
悠遊狗寵物生活館,桃園市大園區橫峰里致祥三街36號1及2樓,桃園市,大園區
泰迪寵物沙龍,桃園市大園區田心里和平西路156號,桃園市,大園區
狗宿喜有限合夥,臺南市南區南門路341-4號1-2樓,臺南市,南區
中圓寵物股份有限公司中原二館分公司,桃園市中壢區普強里中山東路二段16號,桃園市,中壢區
法拉利愛犬美容屋,高雄市鳳山區南正二路135號,高雄市,鳳山區
自在沐寵物美容工作室,臺中市北區博館路70號1樓,臺中市,北區
河童寵物部屋,臺南市永康區正強里9鄰自強路296號1樓,臺南市,永康區
香郊遊寵物美容,臺南市安南區安南區國安街210巷22號,臺南市,安南區
萬達寵物事業股份有限公司中原分公司,桃園市中壢區普強里中山東路二段1號,桃園市,中壢區
東森寵物雲股份有限公司楠梓梓新分公司,高雄市楠梓區楠梓新路99號、101號1樓,高雄市,楠梓區
歐哈娜寵窩沙龍,高雄市仁武區八德西路1850號,高雄市,仁武區
宜鴻商行,高雄市鼓山區中華一路2220號,高雄市,鼓山區
東森寵物雲股份有限公司路竹中山分公司,高雄市路竹區中山路1205、1207、1209號,高雄市,路竹區
東森寵物雲股份有限公司岡山柳橋分公司,高雄市岡山區柳橋西路6、10號,高雄市,岡山區
享時生活有限公司,臺中市北屯區景賢路103號1樓、2樓,臺中市,北屯區
捷勝犬舍,桃園市中壢區自治里強國路53巷12號3樓,桃園市,中壢區
豆貓殿堂,臺南市新營區新營區新東里25鄰東興路135號1樓,臺南市,新營區
喵小二貓咪旅館,臺南市北區北區大港街93號,臺南市,北區
富達易企業社,高雄市三民區建工路802號,高雄市,三民區
魔斯凱歐寵物沙龍,臺中市南屯區黎明東街390號1樓,臺中市,南屯區
沐樂寵物澡堂,臺中市大里區永隆路63號1樓,臺中市,大里區
魚中魚樂活有限公司民族分公司,高雄市三民區民族一路610、612號,高雄市,三民區
貓掌星雲地球總部有限公司,新北市八里區新北市八里區觀海大道95號1樓,新北市,八里區
新八寵物美容,臺中市北屯區松竹路二段215號1樓,臺中市,北屯區
百威犬舍,桃園市大園區溪海里3鄰溪洲路69巷70號(溪海里3鄰下溪洲子21-3號門牌整編),桃園市,大園區
棉花田寵物商行,桃園市蘆竹區上竹里大竹路426之8號1樓,桃園市,蘆竹區
東森寵物雲股份有限公司三民建工分公司,高雄市三民區建工路351號1、2樓,高雄市,三民區
汪汪犬旅寵物旅館,臺中市北屯區松竹路二段361號3樓,臺中市,北屯區
沐森琳寵物商行,臺中市北區梅亭街490號,臺中市,北區
愛樂寵物店,臺中市南屯區向心南路730號1樓,臺中市,南屯區
喬樂彼犬貓沙龍坊,新北市汐止區明峰街129號1樓,新北市,汐止區
狗狗你好寵物美容,臺中市東區進化路272-5號1樓,臺中市,東區
東森寵物雲股份有限公司仁武仁雄分公司,高雄市仁武區仁雄路33號,高雄市,仁武區
華貴皇族國際專業貓舍,新北市中和區秀朗路3段128巷9弄11號1樓,新北市,中和區
樂維格寵物生活工作室,臺中市北區太原路二段203號,臺中市,北區
牛棚寵物沙龍,桃園市中壢區東興里龍岡路一段94號,桃園市,中壢區
東森寵物雲股份有限公司高雄十全分公司,高雄市三民區十全二路114、116號,高雄市,三民區
琥珀貓舍,桃園市楊梅區埔心里興南街40號,桃園市,楊梅區
東森寵物雲股份有限公司永康中華分公司,臺南市永康區安康里15鄰中華路651、653、657號,臺南市,永康區
東森寵物雲股份有限公司南區新興分公司,臺南市南區新興路509號之2及509號之3,臺南市,南區
東森寵物雲股份有限公司善化光復分公司,臺南市善化區文昌里7鄰光復路66號1樓,臺南市,善化區
東森寵物雲股份有限公司安南海佃分公司,臺南市安南區海佃路二段58、60、62、66號1樓,臺南市,安南區
東森寵物雲股份有限公司安平建平分公司,臺南市安平區建平路271號1樓,臺南市,安平區
東森寵物雲股份有限公司北區西門分公司,臺南市北區西門路四段268號,臺南市,北區
優有寵物美容生活館,臺南市安平區建平四街18巷18弄12號,臺南市,安平區
沐居寵物精緻美容,臺南市新營區臺南市新營區埤寮里6鄰中正路500巷86號1樓,臺南市,新營區
咪谷貓旅館,臺中市西區福人街44巷2號1樓,臺中市,西區
彩虹魚寵物水族百貨館,桃園市桃園區同安里大興西路一段221號1樓,桃園市,桃園區
中圓寵物股份有限公司南崁分公司,桃園市蘆竹區錦中里南崁路361號1樓,桃園市,蘆竹區
達特歐寵物旅館,桃園市大園區五權里五青路183巷53號,桃園市,大園區
金冠霖寵物有限公司,桃園市蘆竹區錦中里南崁路一段24號1樓,桃園市,蘆竹區
好萌好猛寵物有限公司,桃園市中壢區洽溪里永泰路151號,桃園市,中壢區
寵貝比寵物沙龍,桃園市桃園區春日里大業路 二段137號1樓,桃園市,桃園區
親龍水族企業社,桃園市蘆竹區長興里南崁路一段284號,桃園市,蘆竹區
九福寵物店,桃園市桃園區朝陽里民生路464號,桃園市,桃園區
好萌商行,桃園市平鎮區金陵里11鄰振平街221號,桃園市,平鎮區
芭比寵物坊,桃園市桃園區東埔里正康二街103號,桃園市,桃園區
喜喜商行,臺中市西區五權七街206號1樓,臺中市,西區
寶育愛犬訓練場,臺中市大里區塗城路171巷2號1樓,臺中市,大里區
魚中魚樂活有限公司大墩分公司,臺中市南屯區文心路一段385號1樓,臺中市,南屯區
小森林寵物旅館,桃園市平鎮區義民里環南路二段28號,桃園市,平鎮區
毛毛屋寵物美容,臺中市北屯區臺中市北屯區大連路三段191號,臺中市,北屯區
宏昇美容坊,高雄市鳳山區五甲二路592號1樓,高雄市,鳳山區
樂逗寵物美容店,臺中市太平區大興路178號1樓,臺中市,太平區
杏芙貓舍,臺南市永康區台南市永康區大橋里1鄰大橋三街77號,臺南市,永康區
佐佐瑪莉寵物沙龍,臺南市安平區民權路四段381之8號,臺南市,安平區
凱凱寵物生活館,臺南市中西區中西區西門路二段39號,臺南市,中西區
凡采寵物坊,臺中市清水區中清路九段508號1樓、2樓,臺中市,清水區
晨露森林寵物旅店,臺中市清水區槺榔里民族路三段117號,臺中市,清水區
日光寵物旅館,高雄市仁武區大正路312號1樓,高雄市,仁武區
林緁寵物生活館,高雄市鳳山區頂興街211號1樓,高雄市,鳳山區
犬家福寵物精品店,桃園市桃園區中成里永安路409號1樓,桃園市,桃園區
狗的窩企業社,高雄市三民區遼寧三街93號1樓,高雄市,三民區
努塔波企業社,新北市板橋區仁化街42巷5弄1號1樓,新北市,板橋區
屋萀貓企業社,新北市三重區自強路1段312巷11號,新北市,三重區
佐欣寵物工坊,高雄市仁武區仁光路72號,高雄市,仁武區
歐藤寵物沙龍,臺中市西區模範街35之2號1樓,臺中市,西區
魚中魚樂活有限公司南屯分公司,臺中市南屯區五權西路二段80號1樓,臺中市,南屯區
豆丁寵物美學沙龍,桃園市桃園區大業路二段245號,桃園市,桃園區
家有毛孩有限公司,桃園市桃園區保定三街89巷1號,桃園市,桃園區
孩要有你寵物沙龍,桃園市桃園區敬二街23號,桃園市,桃園區
甜媽幸福寵物,桃園市八德區高明里高城五街22巷5弄3號,桃園市,八德區
香腳ㄚ寵物工坊,高雄市前鎮區武慶一路234號1樓,高雄市,前鎮區
貓花園工作室,臺中市南區美村路二段172號1樓,臺中市,南區
樂芙倪精品寵物旅館,臺南市東區裕忠路128之3號,臺南市,東區
狗崽子寵物沙龍,臺北市北投區中央南路一段42-1號2樓,臺北市,北投區
秋鳳莊寵物店,臺中市烏日區溪南路一段126巷91弄52號1樓,臺中市,烏日區
意勛寵物綜合服務,高雄市前鎮區梧州街30巷7號,高雄市,前鎮區
小沐浴寵物美容坊,桃園市中壢區桃園市中壢區洽溪里永能路3號,桃園市,中壢區
抱抱熊寵物生活館,桃園市八德區大和里建國路1134號,桃園市,八德區
吉兒溫馨貓館,桃園市桃園區桃園市桃園區忠義里民有六街12號,桃園市,桃園區
蝴蝶蘭犬舍,臺中市中區光復路10號1樓,臺中市,中區
摸肚肚企業社,桃園市中壢區青埔里青昇路256號,桃園市,中壢區
犬藝匠寵物美容沙龍,臺中市南區五權南路548號1樓,臺中市,南區
咪寶寵物坊,臺中市西屯區國際街25-1號,臺中市,西屯區
東森寵物雲股份有限公司臺中大里分公司,臺中市大里區國光路二段441號,臺中市,大里區
歆詠企業社,臺中市北區山西路一段56號1樓、2樓,臺中市,北區
岱哥寵物精品,臺北市士林區天母西路3號2樓之1,臺北市,士林區
捲毛叔叔寵物美容,桃園市中壢區環中東路二段694、696號1樓、2樓,桃園市,中壢區
璽喵屋,臺北市松山區八德路四段476號1樓,臺北市,松山區
全滿屋寵物生活館,臺北市文山區興隆路二段220巷31弄7號,臺北市,文山區
小客廳寵物事業有限公司,臺北市內湖區成功路四段30巷19號,臺北市,內湖區
愛犬當家美容屋,桃園市平鎮區金星里中庸路116巷3號,桃園市,平鎮區
喵森有限公司,臺南市東區裕農路375號地下層,臺南市,東區
夏沐沐寵物館,臺中市西屯區永福路118巷11號1樓、地下1樓,臺中市,西屯區
紡晟寵物工坊,臺中市西區五權路2-25號1樓,臺中市,西區
艾絲比寵物生活館,臺南市永康區中山東路127號1樓,臺南市,永康區
麻豆幸福種子寵物沙龍,臺南市麻豆區民生路17-1號2樓,臺南市,麻豆區
有安芯寵物生活館,臺中市太平區新興路30號,臺中市,太平區
熊熊家寵物美容,桃園市平鎮區龍興里龍美路39巷2號,桃園市,平鎮區
一期一會寵物美學旅館,桃園市中壢區過嶺里松仁路8號,桃園市,中壢區
貓貓肉寵物店,臺中市大里區自立路67號2樓,臺中市,大里區
家寶寵物店(犬),臺中市大里區內新街47-2號1樓,臺中市,大里區
花花寵物美容會館,臺中市北區三民路三段285號1樓,臺中市,北區
露娜寵物旅館,高雄市三民區義昌路42號,高雄市,三民區
悅沐寵物美容精品館,臺中市西屯區西屯路三段164之7號1樓,臺中市,西屯區
新興幸福種子寵物沙龍,臺南市南區新興路133號1-2樓,臺南市,南區
永欣寵物美容坊,臺中市西屯區福林路31號1樓,臺中市,西屯區
黑馬寵物美容,高雄市前鎮區崗山西街295號,高雄市,前鎮區
海灣樂世界股份有限公司,臺中市北屯區東山路二段151之2號1樓、2樓,臺中市,北屯區
查克音國際有限公司,臺中市西區臺灣大道二段311巷1弄30號,臺中市,西區
英姿愛犬美容屋,臺南市新營區臺南市新營區新進路二段85號1樓,臺南市,新營區
貓奴貓旅館,高雄市左營區文自路164號,高雄市,左營區
維緹寵物有限公司鳳松分店,高雄市鳳山區鳳松路179號1樓,高雄市,鳳山區
阿帆達寵物生活館,臺南市北區文賢路1162號1樓,臺南市,北區
真愛狗屋寵物沙龍,高雄市路竹區中興路260號,高雄市,路竹區
第寶澡堂,臺南市中西區金華路三段6號,臺南市,中西區
都在貓咪旅館,臺南市中西區民族路三段218號3樓,臺南市,中西區
王美工作室,臺中市西屯區大墩二十街92號,臺中市,西屯區
八八精緻寵物旅館,臺中市北屯區臺中市北屯區文心路三段987號1樓、2樓、3樓、4樓,臺中市,北屯區
安中寵沐殿企業社,臺南市安南區安中路一段235號,臺南市,安南區
蔓蔓寵物行號,臺南市永康區臺南市永康區小北路3-2號1樓,臺南市,永康區
四季逗企業社,臺南市東區東平路142號,臺南市,東區
東興貝貝寵物有限公司,臺中市南屯區東興路三段253號1樓、2樓,臺中市,南屯區
傑盛愛犬訓練學苑,桃園市大溪區仁愛里埔頂六街177號,桃園市,大溪區
貓均悅坊,臺中市西區忠勤街98號2樓,臺中市,西區
日安貓坊,臺中市南區文心南路821號3樓,臺中市,南區
鴻賓寵物美容之家,臺中市西區忠誠街132號1樓,臺中市,西區
和旺犬舍,新北市泰山區泰林路3段772巷17號1樓,新北市,泰山區
日光寵物,桃園市中壢區青埔里領航南路三段83-3號,桃園市,中壢區
一級棒專業寵物美容店,新北市永和區中山路1段79號1樓,新北市,永和區
莯蓉寵物美容店,臺中市北屯區瀋陽北路20號1樓,臺中市,北屯區
白襪子寵物生活館,臺中市北區國強街15號1樓,臺中市,北區
狗勾寵物造型,臺中市太平區環中東路三段288號1樓,臺中市,太平區
汪喵的旅有限公司,臺中市北屯區軍福十六路372號,臺中市,北屯區
涵禹寵物工作室,新北市中和區中原街106號1樓,新北市,中和區
堉晨寵物實業有限公司,高雄市新興區新田路116號,高雄市,新興區
威兒森寵物坊,新北市樹林區中正路81號1樓,新北市,樹林區
快樂無比寵物美容,臺南市官田區隆田里9鄰文化街62號1樓,臺南市,官田區
東森寵物雲股份有限公司臺中北屯分公司,臺中市北屯區北屯路218號,臺中市,北屯區
朵朵寵愛有家企業社,臺中市北屯區熱河路三段208號1樓、2樓,臺中市,北屯區
禧毛寵物美容,臺中市北區五權路500巷6弄12號1樓,臺中市,北區
瑋特貓狗生活館,臺中市南屯區大墩十一街648號,臺中市,南屯區
莯思寵物美容店,臺中市太平區立文街9號1樓,臺中市,太平區
啵希實業有限公司,臺中市南屯區黎明路二段698號1樓、2樓,臺中市,南屯區
肉掌星球寵物生活館,臺中市豐原區圓環東路610之1號1樓、2樓,臺中市,豐原區
浪花寵藝工作室,新北市三峽區長泰街48號1樓,新北市,三峽區
愛麗寵物旅館,桃園市龍潭區桃園市龍潭區龍星里中正路331-1號,桃園市,龍潭區
台灣皇爵貿易股份有限公司,高雄市楠梓區藍昌路421號2樓,高雄市,楠梓區
行家寵物美容生活坊,桃園市平鎮區湧豐里南豐路190巷4號,桃園市,平鎮區
東森寵物雲股份有限公司龜山復興分公司,桃園市龜山區大湖里復興一路349、351、353號,桃園市,龜山區
東森寵物雲股份有限公司蘆竹大新分公司,桃園市蘆竹區大竹里大新一街29號1樓,桃園市,蘆竹區
尤菈旅館,臺南市安南區佃西里公學路四段351號,臺南市,安南區
三腳阿比狗沙龍,臺中市南區樹義一巷14之3號1樓,臺中市,南區
樂洗狗寵物生活館,臺北市大同區華亭街57號1樓,臺北市,大同區
美森寵物美容工作室,臺中市太平區樹德路16-2號1樓,臺中市,太平區
喜狗喜貓寵物生活館,臺中市西區南屯路一段10號,臺中市,西區
品淇時尚寵物美容店,臺中市南屯區大業路595號,臺中市,南屯區
垛俐寵物美容工作坊,臺中市南屯區河南路四段212號,臺中市,南屯區
狗仔隊寵物名店,臺中市大里區成功路109號1樓,臺中市,大里區
石頭漸層貓舍,新北市永和區中正路417號11樓,新北市,永和區
六月寵物沙龍,臺中市北屯區旅順路一段64之2號1樓,臺中市,北屯區
囍狗寵物澡堂,臺中市北屯區遼陽四街45號1樓,臺中市,北屯區
宿喜貓商事,臺北市中正區南昌路二段206號2樓之3,臺北市,中正區
甜寵汪喵生活館,桃園市大溪區仁善里27鄰仁善街212號,桃園市,大溪區
伏特喵專業貓咪美容,臺中市大雅區臺中市大雅區大雅路312號1樓、2樓,臺中市,大雅區
狗王之家寵物美容生活館,臺南市永康區崑山里34鄰國光五街41號,臺南市,永康區
朵啡貓咪幸福屋,臺中市北屯區北屯路439-15號1樓、2樓,臺中市,北屯區
草木逢春有限公司,臺中市東區樂業二路80號,臺中市,東區
寶朵樂寵物美容行旅,臺中市北區益華街138號1樓,臺中市,北區
萬達寵物事業股份有限公司大里成功分公司,臺中市大里區成功路498號1樓,臺中市,大里區
小潔毛寵物旅店,桃園市楊梅區桃園市楊梅區永寧里環南路59號1樓,桃園市,楊梅區
綠蹼商號,臺中市西區福人街61號3樓,臺中市,西區
寵牠寵物沙龍,臺中市東區臺中市東區東英路295號1樓,臺中市,東區
毛咖股份有限公司,臺中市西區臺中市西區臺灣大道二段222號,臺中市,西區
艾森寵物沙龍,桃園市桃園區大林里樹仁三街79號1樓,桃園市,桃園區
動物派對寵物店,桃園市桃園區新埔里經國路208巷22號,桃園市,桃園區
熊嘎意寵物美容,臺中市潭子區臺中市潭子區興華一路269號1樓,臺中市,潭子區
寵物夢工廠,臺中市東勢區臺中市東勢區豐勢路546號1樓,臺中市,東勢區
花居寵物生活別館,桃園市桃園區長德里中正三街389號1樓、夾層,桃園市,桃園區
超紘寵物商行,臺中市南屯區文心路一段66號1樓、地下1樓,臺中市,南屯區
狗時尚寵物沙龍會館,桃園市桃園區會稽里大興路288-1號,桃園市,桃園區
貓王旅店,臺中市西屯區臺中市西屯區大墩十九街152號1樓,臺中市,西屯區
晨曄寵物店,桃園市桃園區寶山里大興路209號1樓,桃園市,桃園區
保平莊柴犬專業犬舍,新北市汐止區大同路二段653號1樓,新北市,汐止區
奇優達寵物生活館,桃園市桃園區中路里國際路二段194號2樓,桃園市,桃園區
理毛寵物美容坊,臺南市安平區華平里平通路519號1~2樓,臺南市,安平區
金寶寵物美容坊,臺中市北屯區平德路142巷5號,臺中市,北屯區
小潘寵物美容旅館,桃園市桃園區北門里民生路495之9號2樓,桃園市,桃園區
壓耳狗狗寵物專門店,臺南市永康區中華二路401號1F,臺南市,永康區
噹寶的家寵物店,新北市中和區員山路174巷7號9號1樓,新北市,中和區
旺憂有限公司,臺中市南屯區東興路二段265號,臺中市,南屯區
小犬大宅寵物旅店,臺中市南屯區大英街179號1樓、2樓,臺中市,南屯區
摸洗寵物生活旅店,桃園市楊梅區梅溪里新農街二段100號,桃園市,楊梅區
快樂尾巴寵物旅館,桃園市桃園區中和里中正路348號1、2樓,桃園市,桃園區
萬達寵物事業股份有限公司桃園龍安分公司,桃園市桃園區龍鳳里龍安街135號1樓,桃園市,桃園區
狗狗打呼寵物旅館,臺中市西屯區臺中市西屯區青海路一段194號2樓,臺中市,西屯區
偷偷摸貓舍商行,新北市中和區景平路150之3號,新北市,中和區
你和我寵物沙龍,桃園市八德區瑞興里仁德一路136號,桃園市,八德區
毛沛屋寵物沙龍,臺中市西區臺中市西區篤行路235號1樓,臺中市,西區
逗個貓寵物生活館,臺中市烏日區臺中市烏日區新興路207號1樓、2樓,臺中市,烏日區
汪喵歡樂營,桃園市中壢區普慶里中山東路二段311、313號1樓,桃園市,中壢區
維珍股份有限公司,臺中市霧峰區吉峰東路41之3號1樓,臺中市,霧峰區
真愛寵物用品生活館,臺南市東區崇明路109號,臺南市,東區
東森寵物雲股份有限公司台中軍功分公司,臺中市北屯區軍功路一段603號,臺中市,北屯區
希琪生活館,臺中市南屯區臺中市南屯區大業路361號1樓,臺中市,南屯區
阿尼牧絲寵物旅館,臺中市烏日區臺中市烏日區高鐵路一段12號1樓、2樓、3樓,臺中市,烏日區
溫斯頓貓舍,臺中市北屯區熱河路三段91巷1號1樓,臺中市,北屯區
東森寵物雲股份有限公司桃園觀音分公司,桃園市觀音區草新里四維路122號1樓,桃園市,觀音區
最推薦幼犬專賣,高雄市三民區鼎山街372號,高雄市,三民區
轉角二號寵物小棧,桃園市桃園區東山里春日路2號,桃園市,桃園區
自然捲寵物澡堂,臺南市中西區府緯街9巷29之10、11號,臺南市,中西區
沐意盎然寵物沙龍,臺南市南區金華路一段484巷52號,臺南市,南區
越宏寵物有限公司,臺中市南屯區文心路一段66號1樓、地下1樓,臺中市,南屯區
毛字號寵物工作室,臺中市南屯區文心南一路188巷11號1樓,臺中市,南屯區
締曜寵物美學,臺南市安平區建平十一街332號1樓,臺南市,安平區
陪樂樂寵物館,臺南市永康區永康里14鄰永中街96號,臺南市,永康區
毛後供寵物屋,臺南市新市區新和里25鄰華興街5號1樓,臺南市,新市區
寵兒貝特,新北市三重區自強路5段67號1樓,新北市,三重區
興旺日本柴犬專賣店,臺中市沙鹿區臺灣大道七段313號,臺中市,沙鹿區
咕吉家貓舍,臺中市西屯區上明二街8號,臺中市,西屯區
迪恩斯毛孩工作室,臺中市西區向上路一段17巷2弄21號1樓,臺中市,西區
買狗狗寵物店,臺中市北屯區北屯路441之7號1樓,臺中市,北屯區
萬達寵物事業股份有限公司_林森分公司,臺北市中山區林森北路512號1樓,臺北市,中山區
汪汪本鋪,臺中市太平區中興東路264號1樓,臺中市,太平區
珈貝寵物店,臺中市大里區新仁七街6巷3號1樓,臺中市,大里區
夏卡爾寵物美容,臺中市太平區太平二十街21號1樓,臺中市,太平區
東森寵物雲股份有限公司臺中中清分公司,臺中市北屯區后庄北路11號1樓、2樓,臺中市,北屯區
貝果小貓旅店,臺中市烏日區環河北路258號,臺中市,烏日區
小時光寵物沙龍,臺中市東區東英七街13號1樓,臺中市,東區
汪汪甜八寶寵物美容寄養,桃園市楊梅區瑞溪里梅獅路二段192號1樓,桃園市,楊梅區
古亭師大書坊,臺北市內湖區成功路四段182巷8弄7號1樓,臺北市,內湖區
柴町寵物旅舍,桃園市桃園區中正里22鄰文中路10號,桃園市,桃園區
萬達寵物事業股份有限公司八德分公司,桃園市八德區大成里介壽路一段968號、970號,桃園市,八德區
牠說寵物生活館,桃園市八德區桃園市八德區大和里金和路85號1樓,桃園市,八德區
寵物時光館,新北市板橋區文化路1段117號1樓,新北市,板橋區
汪來寵物理容,臺中市南屯區懷德街94號1樓,臺中市,南屯區
旻利寵物用品社,臺北市大安區光復南路700號1樓,臺北市,大安區
卡地亞犬坊,臺中市東區和平街259號1樓、地下1樓,臺中市,東區
無二寵物美容工作室,臺中市北屯區青島路三段187-1號2、3樓,臺中市,北屯區
花羨狗地方寵物店,臺中市北區東光路310號1樓,臺中市,北區
小毛球寵物坊,臺中市南區臺中市南區國光路443號1樓,臺中市,南區
東森寵物雲股份有限公司龜山巨蛋分公司,桃園市龜山區山德里萬壽路二段1379號,桃園市,龜山區
編緣貓企業社,臺中市南區南門路47號1樓,臺中市,南區
貓的旅坊,臺南市東區裕農路691號1-2樓,臺南市,東區
東森寵物雲股份有限公司南屯文心分公司,臺中市南屯區文心路一段459號,臺中市,南屯區
