name,address,city,district
緹米貓旅館,新北市永和區福和路167號2樓,新北市,永和區
瑞發財貓旅館,臺南市南區金華路一段468號1-2樓,臺南市,南區
吾悠喵旅生活館,新北市中和區中正路210號1樓,新北市,中和區
樂牧寵物旅館,新北市新莊區建興街20號1樓,新北市,新莊區
糖果屋貓咪旅館,新北市板橋區大觀路2段7巷24號,新北市,板橋區
毛起來住寵物旅館,新北市板橋區板橋區富山街89號1樓,新北市,板橋區
賀嘎宅貓咪旅館,臺南市北區開元路477號1樓及地下層,臺南市,北區
汪家寵物旅館,桃園市桃園區華南里4鄰中華路148號1樓,桃園市,桃園區
咕嚕咕嚕雙腸寵美精品旅館,臺中市北區進化北路396之3號1樓、2樓,臺中市,北區
宬銘屋寵物生活館(毛毛窩寵物精品旅館),臺北市文山區景隆街48號及48-1號1樓,臺北市,文山區
毛寓所寵物美容旅店,新北市板橋區溪北路30號1樓,新北市,板橋區
喜多寵物美容住宿館,新北市板橋區中山路1段283巷2弄25號1樓,新北市,板橋區
跑跑跳寵物旅館,高雄市楠梓區東昌街23號,高雄市,楠梓區
貓悅居貓旅館,新北市三重區新北市三重區重陽路3段5巷28-2號,新北市,三重區
晨曦毛旅館,臺中市南區臺中市南區國光路65號,臺中市,南區
捲一圈貓旅館,高雄市三民區十全一路2號,高雄市,三民區
超貼心寵物美容旅館,桃園市中壢區興南里延平路352號2樓,桃園市,中壢區
貓頭目貓咪旅館,高雄市左營區重吉路18號,高雄市,左營區
毛巧可寵物旅宿,臺中市南區南平路39之5號1樓,臺中市,南區
金錢貓旅宿,臺中市大甲區龍潭路61號1樓,臺中市,大甲區
佳晟寵物美容旅館中正店,桃園市桃園區西門里中正路416之1號1、2樓及地下室,桃園市,桃園區
合歡寵物旅館,新北市三峽區溪東路233巷45弄28號1樓,新北市,三峽區
醬心寵物旅行館,新北市蘆洲區新北市蘆洲區永平街32巷45弄14號,新北市,蘆洲區
汪汪小犬旅店,臺中市沙鹿區南陽路301號1樓、地下1樓及303號1樓、地下1樓,臺中市,沙鹿區
萌旅寵物美容旅館,臺南市新市區大營里2鄰豐榮59之21號,臺南市,新市區
毛旅企業社,臺北市中山區台北市中山區長安東路二段232號一樓,臺北市,中山區
就是愛寵物精品旅館,高雄市左營區新庄仔路409號1、2樓,高雄市,左營區
樹洞寵物旅店,臺南市善化區光文里19鄰民生路287號,臺南市,善化區
旅行貓咪行,新北市汐止區鄉長路1段21號1樓,新北市,汐止區
九窩寵物旅館,新北市板橋區長江路2段217巷2弄2號1樓,新北市,板橋區
宿洗寵物工作室,臺中市清水區新興路142之1號,臺中市,清水區
佳晟寵物美容旅館青埔店,桃園市中壢區洽溪里公園路二段250號,桃園市,中壢區
阿毛寵物旅店,高雄市仁武區仁勇東巷230號,高雄市,仁武區
小毛頭寵物沙龍旅館,桃園市桃園區文中三路60號1樓,桃園市,桃園區
庠陞寵物旅館,桃園市八德區永福西街32巷3號,桃園市,八德區
巴蒂寵物旅館,新北市板橋區文化路1段136巷10號1樓,新北市,板橋區
貓阿舍寵物旅館,高雄市三民區嫩江街129巷4號1、2樓,高雄市,三民區
毛毛之家寵物旅店,高雄市鳥松區松埔路3巷2-15號,高雄市,鳥松區
綠棧道寵物旅館沙龍,高雄市楠梓區興楠路27號,高雄市,楠梓區
小尾巴客棧寵物旅館,臺南市安平區安平區慶平路689號2樓,臺南市,安平區
莫莉家寵物美容旅館,新北市中和區景平路59之17號1樓,新北市,中和區
醬棒貓旅工作室,臺中市西區自由路一段28-5號1樓,臺中市,西區
凱特精品貓旅館,新北市淡水區北新里北新路184巷154號1樓,新北市,淡水區
佳晟寵物美容旅館,桃園市桃園區西門里民族路199之2號1及2樓,桃園市,桃園區
芥菜籽寵物輕旅店,臺南市永康區東橋里9鄰東橋十街32號3樓,臺南市,永康區
豆宅狗旅館,臺北市文山區木柵路一段328號1樓,臺北市,文山區
豬鼻子寵物旅館,桃園市蘆竹區中興里豪登一街166之1號,桃園市,蘆竹區
壞壞狗寵物美容住宿,臺南市北區成功路382號之1,臺南市,北區
愛狗狗旅館,臺南市北區西門路四段282號1樓,臺南市,北區
伏特窩寵物旅館,臺中市大雅區中山北路450巷8號,臺中市,大雅區
繆思貓咪旅館,臺中市大里區德芳路一段12號1樓、2樓,臺中市,大里區
阿捧寵物旅館,臺中市大里區環中東路六段508號3樓、4樓,臺中市,大里區
聽貓說貓咪旅館,新北市土城區中正路67巷33號1樓,新北市,土城區
犬家寵物美容旅館,臺中市大里區西榮路260巷35號,臺中市,大里區
貓家貓旅館,高雄市左營區重上街145號,高雄市,左營區
貓肥家貓咪旅館,新北市板橋區文化路2段45號1樓,新北市,板橋區
約伯行旅,新北市板橋區民族路129巷12弄15號,新北市,板橋區
白喵宿舍,臺中市豐原區豐原大道三段286巷58弄88號,臺中市,豐原區
高冷貓旅館貓住宿,臺南市北區北成路72號1樓,臺南市,北區
澎澎寵物旅宿,臺中市清水區港都一路98號2樓,臺中市,清水區
皮老闆寵物旅館,高雄市三民區哈爾濱街29號2樓,高雄市,三民區
窩牛寵物旅館,高雄市鼓山區瑞豐街134號,高雄市,鼓山區
蓁心好寵旅店,高雄市鳳山區新富路10號,高雄市,鳳山區
就甘心寵物美容旅館,臺北市中山區新生北路二段60巷16號4樓,臺北市,中山區
慵懶貓寵物旅館,臺北市中山區新生北路三段82號1樓,臺北市,中山區
狗狗公園快樂狗旅館,新北市淡水區中山北路1段247巷80號1樓,新北市,淡水區
聊聊貓旅館,新北市新莊區中和街155巷30號1樓,新北市,新莊區
兆綸寵物精緻旅店,新北市板橋區館前西路120號2、3樓,新北市,板橋區
波米屋寵物旅館,臺中市南屯區龍富路三段251號1樓,臺中市,南屯區
汪悠谷寵物住宿生活館,臺中市南屯區文昌街357號1樓,臺中市,南屯區
小犬座寵物旅館,臺南市中西區海安路一段30號,臺南市,中西區
DoDo寵物沙龍旅館,桃園市觀音區桃園市觀音草漯區里德一街92號1樓,桃園市,觀音區
美露寵物旅館,高雄市三民區民本街12號,高雄市,三民區
泡泡沐寵物沙龍旅館,高雄市鳳山區北昌三街102號1樓,高雄市,鳳山區
豬窩寵物沙龍旅館,高雄市三民區興昌街26號,高雄市,三民區
愛沐貓旅館,高雄市新興區民生一路14號,高雄市,新興區
丹晅寵物沙龍旅館,高雄市鳳山區高雄市鳳山區海涵路492號,高雄市,鳳山區
棉花糖寵物旅館,高雄市美濃區光明路169號,高雄市,美濃區
熊大心寵物精品旅館,高雄市鼓山區鼓山二路110號,高雄市,鼓山區
寵悠活鮮食宿,高雄市左營區廍後街10之1號1樓,高雄市,左營區
五吉寵物旅館,高雄市大寮區永仁街18號,高雄市,大寮區
我的狗寵物美容住宿,高雄市三民區高雄市三民區民族一路525號,高雄市,三民區
喵起來住館,高雄市新興區復興二路344號2樓,高雄市,新興區
我與狗寵物旅館,高雄市小港區桂陽路175巷1弄23號,高雄市,小港區
唯樂寵物旅館,高雄市三民區民族一路782之8號,高雄市,三民區
貓茸茸寵物旅館,高雄市前鎮區高雄市前鎮區民權二路615號,高雄市,前鎮區
自遊自宅寵物住宿,高雄市左營區文學路655號,高雄市,左營區
享日子寵物旅館,新北市新莊區昌盛街65巷2弄2號1樓,新北市,新莊區
澎澎寵物旅館,新北市板橋區新生街29巷15弄2號1樓,新北市,板橋區
享窩窩貓旅工作室,新北市板橋區長江路1段136巷10號1樓,新北市,板橋區
狗趣兒寵物旅館,新北市林口區林口區文化三路1段617巷163號1樓,新北市,林口區
享時光貓旅工作室,新北市板橋區新海路391巷2號1樓,新北市,板橋區
星貝貝寵物旅館,新北市板橋區莊敬路228號1樓,新北市,板橋區
一三三寵物沙龍旅館,新北市林口區四維路116號1樓,新北市,林口區
好運吧精緻寵物旅店,新北市淡水區大仁街33號1樓,新北市,淡水區
棲心寵物旅宿,臺南市安南區安南區長和路一段370號,臺南市,安南區
大大寵物旅館,新北市汐止區汐萬路一段19號1樓及地下室1樓,新北市,汐止區
月光貓旅館,臺南市東區崇善路565號3樓,臺南市,東區
貓咪船長寵物旅館,臺南市安南區安中路一段130巷16之3號,臺南市,安南區
貓卡卡貓咪文旅,臺南市安南區安和路五段356號,臺南市,安南區
齊齊狗狗寄宿,臺南市南區大德街141巷18號2樓,臺南市,南區
捲尾巴寵物旅店,新北市永和區永平路300號1樓,新北市,永和區
星期一貓旅舍,臺南市永康區大橋里5鄰大橋一街103巷218號,臺南市,永康區
呼嚕嚕貓旅寵物精品工作室,新北市三重區三重區重新路3段26號3樓,新北市,三重區
沐寓寵物精緻旅館,新北市林口區新北市林口區民族路26號,新北市,林口區
私房貓旅堂有限公司,新北市三重區五華街218號1樓,新北市,三重區
福貓寵物旅館,新北市蘆洲區永安南路2段98號1樓,新北市,蘆洲區
酷毛寵物旅館,新北市林口區新北市林口區文化三路2段115巷68號1樓,新北市,林口區
鋒毛孩寵物旅館,新北市三重區永安北路2段107號1樓,新北市,三重區
啪啾寵物旅館,新北市永和區永貞路53號1樓,新北市,永和區
橘舍寵物沙龍旅館,新北市汐止區秀峰路144號1樓,新北市,汐止區
有間貓旅有限公司,臺北市松山區南京東路五段137之1號(2樓),臺北市,松山區
狗狗日常寵物旅館,臺北市文山區羅斯福路六段85號1樓及2樓,臺北市,文山區
宅貓寓所貓旅館,新北市中和區中山路3段20號1樓,新北市,中和區
歐米菲寵物沙龍旅館,臺中市霧峰區四德路228號1樓、2樓,臺中市,霧峰區
奧迪奧寵物生活旅宿,臺中市北屯區北屯路281之3號1樓、3樓,臺中市,北屯區
睦眠貓旅店,高雄市三民區金山路178號,高雄市,三民區
喵德渡假貓旅館,桃園市桃園區南華里南華街93巷41號1樓,桃園市,桃園區
比比狗寵物旅宿,臺中市豐原區豐東路382號2樓,臺中市,豐原區
阿曼達寵物旅館,桃園市平鎮區金星里上海路311號,桃園市,平鎮區
幸福貓村貓旅館,臺中市北屯區大連路一段198號1樓,臺中市,北屯區
熊樣寵物旅館,高雄市鼓山區明誠三路600號1樓,高雄市,鼓山區
毛宅一起寵物美容旅店,桃園市大園區桃園市大園區田心里華興路一段13號,桃園市,大園區
貓奴貓旅館,高雄市左營區文自路164號,高雄市,左營區
星安貓寵物旅館,新北市永和區環河東路1段76號1樓,新北市,永和區
奧迪奧寵物生活旅宿(犬),臺中市北屯區北屯路281之3號2樓,臺中市,北屯區
米特寵物美容旅店,高雄市楠梓區惠正街145號,高雄市,楠梓區
寄居喵精品貓宿,臺北市信義區信義路四段401號5樓,臺北市,信義區
豪斯寵物服務有限公司(Gu Gu House 寵物旅館),臺北市中山區敬業一路160號,臺北市,中山區
均禾貓旅館,桃園市桃園區莊敬里新埔七街168巷12號1樓,桃園市,桃園區
小貓貓園貓旅,臺南市南區大同路二段750巷104號,臺南市,南區
日光森林寵物旅館,臺中市西區柳川西路二段24號3樓,臺中市,西區
欣麟寵物住宿美容,高雄市三民區九如一路381巷10號1、2樓,高雄市,三民區
源香寵物旅館,臺南市南區金華路二段57巷10號,臺南市,南區
艾希艾貓旅社,臺中市西區美村路一段93號3樓,臺中市,西區
喵嗚貓咪旅館,桃園市桃園區福安里昆明路250號,桃園市,桃園區
貝菓寵物美宿館,桃園市蘆竹區福昌里忠孝西路175巷17號,桃園市,蘆竹區
晶鑽寵物旅館,新北市淡水區新北市淡水區坪頂路39-1號1樓,新北市,淡水區
小森林純貓美容旅館,桃園市八德區興仁里豐德路326號,桃園市,八德區
狗宿喜有限合夥,臺南市南區南門路341-4號1-2樓,臺南市,南區
喵小二貓咪旅館,臺南市北區北區大港街93號,臺南市,北區
汪汪犬旅寵物旅館,臺中市北屯區松竹路二段361號3樓,臺中市,北屯區
咪谷貓旅館,臺中市西區福人街44巷2號1樓,臺中市,西區
達特歐寵物旅館,桃園市大園區五權里五青路183巷53號,桃園市,大園區
小森林寵物旅館,桃園市平鎮區義民里環南路二段28號,桃園市,平鎮區
晨露森林寵物旅店,臺中市清水區槺榔里民族路三段117號,臺中市,清水區
日光寵物旅館,高雄市仁武區大正路312號1樓,高雄市,仁武區
樂芙倪精品寵物旅館,臺南市東區裕忠路128之3號,臺南市,東區
一期一會寵物美學旅館,桃園市中壢區過嶺里松仁路8號,桃園市,中壢區
露娜寵物旅館,高雄市三民區義昌路42號,高雄市,三民區
貓旅宅企業社,臺中市北屯區松竹路二段86巷41號1樓、2樓,臺中市,北屯區
貓奴貓旅館,高雄市左營區文自路164號,高雄市,左營區
都在貓咪旅館,臺南市中西區民族路三段218號3樓,臺南市,中西區
八八精緻寵物旅館,臺中市北屯區臺中市北屯區文心路三段987號1樓、2樓、3樓、4樓,臺中市,北屯區
汪喵的旅有限公司,臺中市北屯區軍福十六路372號,臺中市,北屯區
愛麗寵物旅館,桃園市龍潭區桃園市龍潭區龍星里中正路331-1號,桃園市,龍潭區
尤菈旅館,臺南市安南區佃西里公學路四段351號,臺南市,安南區
宿喜貓商事,臺北市中正區南昌路二段206號2樓之3,臺北市,中正區
寶朵樂寵物美容行旅,臺中市北區益華街138號1樓,臺中市,北區
小潔毛寵物旅店,桃園市楊梅區桃園市楊梅區永寧里環南路59號1樓,桃園市,楊梅區
貓王旅店,臺中市西屯區臺中市西屯區大墩十九街152號1樓,臺中市,西屯區
小潘寵物美容旅館,桃園市桃園區北門里民生路495之9號2樓,桃園市,桃園區
小犬大宅寵物旅店,臺中市南屯區大英街179號1樓、2樓,臺中市,南屯區
摸洗寵物生活旅店,桃園市楊梅區梅溪里新農街二段100號,桃園市,楊梅區
快樂尾巴寵物旅館,桃園市桃園區中和里中正路348號1、2樓,桃園市,桃園區
狗狗打呼寵物旅館,臺中市西屯區臺中市西屯區青海路一段194號2樓,臺中市,西屯區
阿尼牧絲寵物旅館,臺中市烏日區臺中市烏日區高鐵路一段12號1樓、2樓、3樓,臺中市,烏日區
貝果小貓旅店,臺中市烏日區環河北路258號,臺中市,烏日區
柴町寵物旅舍,桃園市桃園區中正里22鄰文中路10號,桃園市,桃園區
貓的旅坊,臺南市東區裕農路691號1-2樓,臺南市,東區
