name,address,city,district,place_id
101台北貓醫院,臺北市中山區建國北路3段101號,臺北市,中山區,ChIJScJh3VepQjQRKVxXNc4py4g
一心獸醫院,臺中市北區錦華街56號,臺中市,北區,ChIJU1s0U2c9aTQRwsIjkxT240o
一嘉動物醫院,高雄市苓雅區興中一路383號,高雄市,苓雅區,ChIJ64N-ioIEbjQRnt-Lag40nGU
乙泰動物醫院,臺中市太平區旱溪東路一段600號,臺中市,太平區,ChIJq9dPxe0XaTQR4qfvKOaiVXE
九個果子動物醫院,臺南市安南區國安街229號,臺南市,安南區,ChIJ51PIwI53bjQRnsMlDjcphcs
二人三毛動物醫院,臺南市安南區海佃路一段213巷26號,臺南市,安南區,ChIJNSPAiRJ3bjQRj9iphhvm7jE
人人動物醫院,臺中市西區公正路146號,臺中市,西區,ChIJK_6B2Z49aTQRQDHj8n1pg9M
人人動物醫院,高雄市大寮區鳳林三路827號,高雄市,大寮區,ChIJDyeD-p0bbjQRWOSLl-EmnXI
人人動物醫院,桃園市龍潭區北龍路122號,桃園市,龍潭區,ChIJVwkN_uI8aDQRsbBO_6P3Iks
人人動物醫院八德介壽院,桃園市八德區介壽路二段296號,桃園市,八德區,ChIJYXczOywfaDQRAl-BQfr2uH4
人人動物醫院大園分院,桃園市大園區華興路21號1樓,桃園市,大園區,ChIJbfWimpAhaDQRuxdcOazk1vk
人人動物醫院平鎮分院,桃園市平鎮區金陵路二段298號,桃園市,平鎮區,ChIJcad_XUUiaDQR5PQ__lopY4Q
人人動物醫院埔心分院,桃園市楊梅區永美路274號,桃園市,楊梅區,ChIJjd77B5MjaDQR5VZqHjCjZ94
人愛動物醫院,臺中市太平區中山路四段223號,臺中市,太平區,ChIJl4Vg_U89aTQRdK54MSPw0oc
人愛動物醫院,高雄市新興區六合一路28、30號,高雄市,新興區,ChIJ29J_VpIEbjQRcribd3bghOs
力晨動物醫院,臺南市東區裕忠路27號,臺南市,東區,ChIJ9eUT8sB2bjQRXvFw4fJbodE
十銓動物醫院,高雄市楠梓區右昌街787號,高雄市,楠梓區,ChIJAaK9VfYEbjQRFi-YMTAOo5s
三三動物診所,臺中市梧棲區大庄里民和路一段46號,臺中市,梧棲區,ChIJ1wyU2cIUaTQRV5nwNOPwkmI
三多花花動物醫院,高雄市前鎮區三多二路477號,高雄市,前鎮區,ChIJG-LWk0oFbjQRovlNm80Exlk
三和台大動物醫院,高雄市苓雅區光華一路23號,高雄市,苓雅區,ChIJ1SHuJpkEbjQROenIVz7UEDU
三峽奇緣動物醫院,新北市三峽區中園街126之23號1樓及126之22號1樓,新北市,三峽區,ChIJwaz9JsMbaDQRopiqAUQfkTo
三逢家畜醫院,台南市白河區蓮潭里北埔五十號,台南市,白河區,ChIJ2b3SxKCRbjQRTaNEp4KvxBo
上和動物醫院,新北市永和區福和路75號,新北市,永和區,ChIJ3b289-6pQjQRbAiSrbRQuWM
上弦動物醫院,新北市林口區忠福路129號,新北市,林口區,ChIJb6aXDcynQjQRDGcy7FkmgDg
上品動物醫院,新北市中和區中山路2段167號,新北市,中和區,ChIJxYZBFdepQjQRj4VecrElswc
上哲動物醫院,新北市淡水區中正東路1段3巷2號,新北市,淡水區,ChIJ9ZHATfavQjQR9VqrpVpt_ac
上博動物醫院,台南市新化區建國街7號,台南市,新化區,ChIJNdnem3BwbjQR5r_g247w4Qs
上揚動物醫院,高雄市苓雅區林森二路7之2號,高雄市,苓雅區,ChIJR8jtxoIEbjQRYWS73Mz0S6I
上群動物醫院,臺南市東區東寧路318號,臺南市,東區,ChIJrV5gEJZ2bjQRYcTUXSF8k_c
上群動物醫院,臺北市大安區延吉街72之20號,臺北市,大安區,ChIJk07hgcarQjQRN_IuIK75Hq4
上群動物醫院,臺中市北區健行路76號,臺中市,北區,ChIJzxht1l89aTQR0VHAOwhgeEg
凡賽爾動物醫院,高雄市鳳山區五甲二路399號,高雄市,鳳山區,ChIJSfAILk4DbjQR56tqQBdOuyg
凡賽爾賽鴿動物醫院,臺中市西屯區重慶路8號,臺中市,西屯區,ChIJ32v9now9aTQR2cq-cEdUJxM
凡賽爾賽鴿寵物鳥醫院,臺北市大同區民族西路53號1樓,臺北市,大同區,ChIJrQ_lHEapQjQR2_o6C59frVM
士林獸醫院,臺北市士林區中正路379號1樓,臺北市,士林區,ChIJK_3cjbuuQjQReqRSk5ei5-g
大毛小毛動物醫院,高雄市三民區文濱路62號,高雄市,三民區,ChIJqaKswi0bbjQRywszDj636aI
大台北動物醫院,桃園市桃園區永安路854號,桃園市,桃園區,ChIJe4KNJKcfaDQRWKmbh4mNK7Y
大生動物醫院,臺中市大里區新興路137號,臺中市,大里區,ChIJfRcp9fI8aTQRKfQT2CwS6Jc
大禾動物醫院,桃園市桃園區建國路218號1樓,桃園市,桃園區,ChIJE2aUBh4faDQRbiUHVgrLQ3c
大安動物醫院,臺北市中正區新生南路1段162號1樓,臺北市,中正區,ChIJleIT6DqpQjQRGJ4YBxYeVmw
大安動物醫院,臺中市東區十甲路230號,臺中市,東區,ChIJXcvP-049aTQRBRXljTOh0Kw
大安動物醫院,桃園市桃園區三民路一段24號,桃園市,桃園區,ChIJ4WJPNfYeaDQRv88i6q33sug
大安動物醫院公館分院,臺北市中正區羅斯福路4段162號1樓,臺北市,中正區,ChIJEz5U6ZqpQjQR9kG3FQXQY78
大佳動物醫院,臺中市西屯區四川路97號,臺中市,西屯區,ChIJ394Xr449aTQRejRIE1W4T9c
大直動物醫院,臺北市中山區北安路468號1樓,臺北市,中山區,ChIJBQxMSwatQjQRfc63-2rrYEU
大社毛毛動物醫院,高雄市大社區中山路114號,高雄市,大社區,ChIJ56DgBAARbjQRSZM5Ob7n6Lc
大社家畜醫院,高雄市大社區三民路244號,高雄市,大社區,ChIJvQrRJCkQbjQRs0ZvjQaqyqc
大原動物醫院,臺中市南屯區黎明路二段165號,臺中市,南屯區,ChIJ99XD4zg9aTQREv5N1pPyNRc
大桔動物醫院,桃園市中壢區莊敬路119號,桃園市,中壢區,ChIJd1l6iSYjaDQR1YdcQhQ3aoI
大眾動物醫院,高雄市岡山區大義二路72號,高雄市,岡山區,ChIJpUTRJZ0ObjQReJSW3wRUlUM
大揚動物醫院,高雄市鼓山區華榮路240-6號,高雄市,鼓山區,ChIJr0WXAaoFbjQRt9uJ4xIXk2U
大敦寵物醫院,臺中市西區精誠一街2號,臺中市,西區,ChIJjSKohpE9aTQRZZEdtd7LAk8
大湖動物醫院,臺北市內湖區成功路5段10號1樓,臺北市,內湖區,ChIJyZzPmeusQjQRfSQ6YDusZaE
大雅動物醫院,台中市大雅區中清路3段1045號,台中市,大雅區,ChIJY6KTxvMWaTQRXRAZe_qKud0
大順動物醫院,高雄市苓雅區大順三路230號,高雄市,苓雅區,ChIJU0TMK8cEbjQRrBl0q87tA8Y
大愛動物醫院,台南市歸仁區中山路3段146號,台南市,歸仁區,ChIJQbkPemNxbjQRCEXrw5xI8NI
大愛動物醫院,臺南市北區和緯路二段516號,臺南市,北區,ChIJTW0kB_h2bjQR0tXnW43J1NE
大新動物醫院,新北市五股區新五路2段369號,新北市,五股區,ChIJLal_MQCnQjQRGmLdqD7dPhw
大業動物醫院,桃園市平鎮區延平路二段二九四號,桃園市,平鎮區,ChIJr24b264jaDQRSFLPSCNY9ko
大業動物醫院,臺北市士林區延平北路5段314號,臺北市,士林區,ChIJBZgW0FOvQjQRokQFh1Qtk-U
大群動物醫院,臺北市文山區羅斯福路6段136號1樓,臺北市,文山區,ChIJU5vwbAGqQjQRKoQ7nDjiN_Q
大群動物醫院,台南市麻豆區保安里8鄰文昌路17-5號,台南市,麻豆區,ChIJ54QNT9V9bjQRGvyZZGEiN9I
大曜動物醫院,新北市土城區學成路46號,新北市,土城區,ChIJr8xGk8kCaDQRsVA3tKypcRM
大豐獸醫院,高雄市路竹區大社路172號一樓,高雄市,路竹區,ChIJt3WnVqUNbjQRu2yInifNjSk
大灣動物醫院,台南市永康區大灣路610號1樓,台南市,永康區,ChIJOQZVbSVxbjQRjuwqr8i0VjE
小小尾巴動物醫院,新北市淡水區新市三路2段265號,新北市,淡水區,ChIJq1kXVXu7QjQRBTgls9Z-EaE
小小貓動物醫院,臺北市中山區朱崙街91號1樓,臺北市,中山區,ChIJM5HNgAasQjQRWLBoLszeMnk
小丹尼寵物醫院,臺中市北屯區文心路四段217號1樓,臺中市,北屯區,ChIJEdQo3KYXaTQRzyRWVe82ZMs
小毛屋動物醫院,臺南市東區台南市東門路三段47之1號,臺南市,東區,ChIJYUVzis13bjQRaT-U-PoF-Qo
小水豚非犬貓動物醫院,新北市新莊區幸福東路140號1樓,新北市,新莊區,ChIJm5eaLNGpQjQRG65J7OGzgas
小王子動物醫院,臺北市松山區八德路4段123號1樓,臺北市,松山區,ChIJj3QgfGOpQjQRdpxHE7F1cIE
小王子動物醫院復健分院,臺北市松山區八德路4段123號1樓,臺北市,松山區,ChIJj3QgfGOpQjQRdpxHE7F1cIE
小王子貓專科醫院,臺北市大安區建國南路2段197號,臺北市,大安區,ChIJvabuMXmrQjQRN1zL9UmgUQw
小布動物醫院,臺北市南港區永吉路548號,臺北市,南港區,ChIJ1eB9ghKrQjQRMffe_JI8-FQ
小米動物醫院,桃園市桃園區同安街383號,桃園市,桃園區,ChIJYVpVW7EfaDQRZJopQwyyrDs
小果苗動物醫院,桃園市桃園區南平路512號,桃園市,桃園區,ChIJtazqInMfaDQRyoU5wZ_DWjg
小狐狸動物醫院,臺中市北屯區太順路91號,臺中市,北屯區,ChIJZTyGXW4ZaTQRJwCzV6MsDUI
小島動物醫院,臺中市西區三民西路83號,臺中市,西區,ChIJIaO0aiY9aTQRicw6BelugHY
小栩動物醫院,桃園市楊梅區中山北路一段494巷90號,桃園市,楊梅區,ChIJd_GcRnslaDQRRvmyW_ia_vQ
小野菊動物醫院,新北市三峽區學府路32號,新北市,三峽區,ChIJv8fO6QscaDQRWFm0plE3brQ
小傢伙動物醫院,新北市五股區成泰路1段44號,新北市,五股區,ChIJPU1SPCWmQjQRGtKrF_lfwoY
小森林動物醫院,新北市三重區集英路68號,新北市,三重區,ChIJuRUJo9SoQjQRJiXFO_MzAko
小港東林動物醫院,高雄市小港區沿海一路299號一樓,高雄市,小港區,ChIJxc1mALIdbjQR0Yewc62LCJY
小新動物醫院,高雄市鼓山區華榮路621號,高雄市,鼓山區,ChIJe5fIrqgFbjQRiyMDdCVOlJk
小腳印動物醫院,台中市北區太原路三段78-5號,台中市,北區,ChIJ__-de-oXaTQR4R0rf72MKzw
小鳴動物醫院,高雄市前鎮區廣西路288號一樓、二樓,高雄市,前鎮區,ChIJJVXL544FbjQRMIvXpFvsBMk
小樹動物醫院,高雄市左營區孟子路583號,高雄市,左營區,ChIJqwPZ3sEFbjQRg6Te3gPcSuM
小鯢特殊寵物專科醫院,臺南市永康區永明街59號,臺南市,永康區,ChIJS8gSRgBxbjQRDSYXsaklKHw
山佳動物醫院,新北市樹林區中山路3段77號,新北市,樹林區,ChIJY65nUf8caDQR8V4DtjWkUbE
山豬動物醫院,臺南市安平區平通路525號,臺南市,安平區,ChIJURP4KCZ3bjQRS8c_vX2GgbI
不萊梅特殊寵物專科醫院,臺北市大同區民權西路227號、237之8號1樓,臺北市,大同區,ChIJ05JoBT-pQjQRbAJe2dutcy8
中一動物醫院,臺中市大里區西榮路201號,臺中市,大里區,ChIJQf5my-c8aTQRL9YzdYH9b2E
中山犬醫院,臺中市豐原區成功路85號,臺中市,豐原區,ChIJU5GyvaoQaTQRuYls9jYubdc
中山動物醫院,高雄市鳳山區中山路41號,高雄市,鳳山區,ChIJGQ_8NUEbbjQRNAjeZp_v7jA
中山動物醫院,臺北市松山區民權東路3段140巷5號1樓及106巷3弄8號1樓,臺北市,松山區,ChIJ-YktOeWrQjQRpwdHURA7ORw
中山動物醫院,臺中市沙鹿區台灣大道七段1000號,臺中市,沙鹿區,ChIJp9JfLuUUaTQR7HMUAEQ_JOg
中山動物醫院,桃園市中壢區延平路583號,桃園市,中壢區,ChIJz1JcfkkiaDQRuB1zhg2uRDw
中友犬貓專科醫院,新北市新店區中正路19號,新北市,新店區,ChIJTUS5A_MBaDQRymBuxeJp2tw
中心動物醫院,臺中市太平區中山路四段180號,臺中市,太平區,ChIJ33Y9LlA9aTQRDGOvGX6VdKc
中日動物醫院,新北市中和區中山路3段2號1樓,新北市,中和區,ChIJDVNPYkKpQjQREYuwRWzYaJI
中台動物醫院,臺中市北區中清路一段693號,臺中市,北區,ChIJb1MP39MXaTQRLrB6YqFhDk8
中央動物醫院,桃園市中壢區中央西路2段84號,桃園市,中壢區,ChIJ7SLfWrUjaDQRExGAYukLkFY
中正犬貓醫院,臺北市中正區重慶南路3段60-4號2樓,臺北市,中正區,ChIJ3YQGjJepQjQRS0_b0YNFZMg
中和杜瑪動物醫院,新北市中和區中原街136號,新北市,中和區,ChIJvbks8r-pQjQRw3eboQC9oys
中信動物醫院,桃園市中壢區環中東路二段380號,桃園市,中壢區,ChIJZciGd0QiaDQR7ChHV9nkYxQ
中研動物醫院,臺北市南港區研究院路1段36號,臺北市,南港區,ChIJFw0Bw1mrQjQRjl2Pifer4Yw
中科動物醫院,臺中市西屯區玉門路74號,臺中市,西屯區,ChIJh6FeQ_oVaTQR1oJLAHUmVDY
中美獸醫院,臺中市南屯區大墩六街207號,臺中市,南屯區,ChIJ5wV35Ls9aTQRZUJvGcXwjbg
中美獸醫院,臺南市東區府連路314號,臺南市,東區,ChIJ3UkQ3YR2bjQRTEx4wmDIrG0
中美獸醫院和緯院,臺南市北區和緯路2段231號,臺南市,北區,ChIJnftp_Vd2bjQRYRgDxN3N8Qk
中英動物醫院,台北市北投區中央北路一段149、151號,台北市,北投區,ChIJbSjKolGuQjQRn1dEEuNw93E
中原動物醫院,桃園市中壢區環北路447號,桃園市,中壢區,ChIJFYA3FDAiaDQRqSX7jr5nQ8E
中泰家畜醫院,桃園市中壢區中華路一段408號,桃園市,中壢區,ChIJZZd-gvghaDQRrQ2qwbGO1ik
中泰動物醫院,臺中市豐原區圓環南路117號,臺中市,豐原區,ChIJH0oyO6oQaTQRX0SJnPr2Z4o
中華動物醫院,桃園市蘆竹區中正路223號,桃園市,蘆竹區,ChIJ286gv9gfaDQRZbp8AUn_TXs
中華動物醫院,台中市大甲區新政路2-2號,台中市,大甲區,ChIJkQwFVg8PaTQRgRHVMh-ROtk
中華愛犬醫院,臺中市大里區中興路二段657號,臺中市,大里區,ChIJZfiB0N88aTQRH3fM9oFtv6k
中盟動物醫院,新北市永和區中正路113號,新北市,永和區,ChIJUxpbZ-CpQjQRt7ingNPxtmc
中興河堤動物醫院,高雄市三民區明吉路32號,高雄市,三民區,ChIJfae67hsFbjQRmHhSlt9QpHQ
中興動物醫院,桃園市中壢區民族路164號,桃園市,中壢區,ChIJve9mmbYjaDQRX7PlwnXqko0
中興動物醫院,高雄市三民區大豐二路118之1號,高雄市,三民區,ChIJjXLOX3UFbjQReEDMzCoJ1Ok
中興動物醫院,台南市新營區新進路一０八號,台南市,新營區,ChIJU_K74HeGbjQRbNZXOzVCGgQ
中興農十六動物醫院,高雄市鼓山區大順一路935號,高雄市,鼓山區,ChIJ__ikUf8EbjQRsOOAQcelhLg
丹尼爾動物醫院,桃園市八德區介壽路一段248-1號,桃園市,八德區,ChIJURiZ7iUfaDQRTMyfOP-1c9Q
丹堤動物醫院,臺北市北投區知行路208-2號1樓,臺北市,北投區,ChIJm6BKlGyvQjQRmR-ENddNBKY
五甲動物醫院,高雄市鳳山區鳳南路197號,高雄市,鳳山區,ChIJea__o1EDbjQRZkT2JRMsP7k
五股動物醫院,新北市五股區民義路1段34號,新北市,五股區,ChIJTeeJHL2nQjQRHLB75cY9e0k
五信動物醫院,新北市中和區連城路358號1樓,新北市,中和區,ChIJlVmt_IQCaDQRHnCrCsnaRUo
五洲動物醫院,臺北市大安區新生南路1段137-2、137-3號1樓,臺北市,大安區,ChIJV5ZzHn-pQjQRUo32jSxCK_0
五洲獸醫院,新北市板橋區民權路250號,新北市,板橋區,ChIJpaAsXRuoQjQR3RfFfeWUdxo
五福動物醫院,臺中市西區五權路2-191-8號,臺中市,西區,ChIJ-zIpZ7w9aTQR9dwjosSOeSA
五權動物醫院,臺中市北區五權路390號,臺中市,北區,ChIJ8z4UjWU9aTQRvF8g8qw9QJw
仁仁動物醫院,高雄市苓雅區和平二路367號,高雄市,苓雅區,ChIJtxnYiaEEbjQR1PG4xPOs6Lo
仁心動物醫院,新北市中和區南華路60號,新北市,中和區,ChIJ4fFqxHcCaDQRgHPw4exMRjI
仁安動物醫院,高雄市仁武區中華路205號,高雄市,仁武區,ChIJN9xoiwQQbjQR0Et1jIYuesA
仁佑動物醫院,臺南市新營區太子路53巷7弄40號,臺南市,新營區,ChIJfQ-G6n-GbjQRTVJuTgGj93g
仁美動物醫院,臺南市安南區北安路2段196號,臺南市,安南區,ChIJKSzp4_52bjQRo2sv6qUrQUY
仁集動物醫院,高雄市左營區民族一路1028-13號,高雄市,左營區,ChIJybV63mkFbjQRFvt41sqaChE
仁慈動物醫院,台北市中山區北安路458巷19號,台北市,中山區,ChIJq8xtfQWsQjQRDFEpAiqj3QA
仁愛犬醫院,臺中市東區進化路122號,臺中市,東區,ChIJhcoi9EM9aTQR8yuo4mAc_as
仁愛動物醫院,新北市板橋區民族路179號,新北市,板橋區,ChIJ9Yq1uB-oQjQRhxbdpDJFL9Q
仁愛動物醫院,高雄市鳳山區保泰路258號,高雄市,鳳山區,ChIJh6Vt2FoDbjQR8EwyN8MSZQU
仁愛動物醫院,臺北市大安區仁愛路4段228-5號1樓,臺北市,大安區,ChIJMSCMEACrQjQR-zV-rF5PCsU
仁愛動物醫院,桃園市八德區介壽路2段1087號,桃園市,八德區,ChIJMfaN7eUYaDQR5ih_PLck9V4
仁喆動物醫院,新北市林口區仁愛路二段172號,新北市,林口區,ChIJd8MvBt6mQjQRDEB985AQvn8
元氣動物醫院,桃園市桃園區三民路三段381號,桃園市,桃園區,ChIJt5G1Rh0faDQRuNaeaz6dLS8
元氣動物醫院南崁分院,桃園市蘆竹區中正路352號,桃園市,蘆竹區,ChIJiz560HWgQjQRUheRiqkd-V8
元碩動物醫院,高雄市阿蓮區中山路235號,高雄市,阿蓮區,ChIJE1pNN7FybjQRJFYFjMgENsE
元薾動物醫院,臺中市北屯區軍福七路5號,臺中市,北屯區,ChIJd50LGTwZaTQRmdgGMvp6NDU
六甲家畜醫院,台南市六甲區甲東村曾文街49-3號,台南市,六甲區,ChIJ4QBqGm6IbjQRGY_-AwdCBSM
六順動物醫院,臺中市西屯區烈美街173號,臺中市,西屯區,ChIJP8OJDxgWaTQRgHt3Ia5DrTo
勾勾動物醫院,臺北市南港區重陽路144號,臺北市,南港區,ChIJZaglMgCrQjQRkc2iSig-MPc
友信動物醫院,桃園市中壢區廣安街十號,桃園市,中壢區,ChIJNa0wFzYiaDQReal9tR0H24Q
友愛動物醫院,臺南市中西區府前路二段66號,臺南市,中西區,ChIJxbyc1Hp2bjQRYOBpUWTuRCY
天一動物醫院,桃園市中壢區中華路一段426號,桃園市,中壢區,ChIJxRWGeAIiaDQRqsxEszIXGN8
天仁動物醫院,高雄市前鎮區草衙一路17號,高雄市,前鎮區,ChIJscBD3T0DbjQRIhMNJWBJ4qU
天母家畜醫院,臺北市士林區中山北路6段431之3號1樓,臺北市,士林區,ChIJ_dtV3YWuQjQRRv1SN4Z7YT8
天恩雅動物醫院,臺中市太平區長龍路三段255巷17號,臺中市,太平區,ChIJfXqeCwCrQjQRP-gajLxuQ0A
天富家畜診所,臺中市龍井區沙田路四段272號,臺中市,龍井區,ChIJ9XT4qeg_aTQRR4GMqbktpAI
天富動物診所,臺南市鹽水區中正路105號,臺南市,鹽水區,ChIJo7uQMxqEbjQR17aJX0p3HXk
天興動物醫院,臺中市西屯區青海路二段225號,臺中市,西屯區,ChIJ99TsAYk9aTQR87FuyKa2f2E
太原動物醫院,臺中市北屯區北祥街8號,臺中市,北屯區,ChIJ58NIPxsXaTQR6IvJQ601wUc
太陽動物醫院,新北市林口區文化三路2段87號,新北市,林口區,ChIJqcfDwIKnQjQRszUAPklpUM4
太僕動物醫院,桃園市龍潭區中興路三九二巷十二號,桃園市,龍潭區,ChIJmfl_dQA9aDQRsovcgz2ElhI
太僕動物醫院,臺北市中山區龍江路260號,臺北市,中山區,ChIJRTpxt-OrQjQRSeWl6PptYaI
巴斯德動物醫院,臺南市中西區西賢街61號,臺南市,中西區,ChIJ9w-7hhN2bjQR7irrbuAaaUc
心心動物診所,高雄市左營區博愛二路202號,高雄市,左營區,ChIJgR3HEF4FbjQR38LDAH4uqMQ
心禾動物醫院,臺南市中西區府連路31號,臺南市,中西區,ChIJBT81d-V3bjQR-7-01NhnYMk
心美動物醫院,臺中市南屯區五權西路二段539號,臺中市,南屯區,ChIJEVBXIL49aTQRM9A7Pe4XauQ
心恩動物醫院,新北市永和區竹林路150號1樓,新北市,永和區,ChIJmQIqfgCpQjQRnF-FBumBDP0
心宿動物醫院,桃園市龜山區樂善二路517號,桃園市,龜山區,ChIJaWxxDwCnQjQRSVAD8ZEDFKw
心傳動物醫院,臺北市大安區和平東路2段339號,臺北市,大安區,ChIJw0QOw9urQjQRPOx3Tybrfdg
心樂動物醫院,高雄市岡山區成功路25號,高雄市,岡山區,ChIJO8-GdAcNbjQRBLM9X0hGyS8
心橋動物醫院,新北市新店區寶強路2-1號1樓,新北市,新店區,ChIJGWpVEAABaDQRW0bbw8c4oRk
文山動物醫院,高雄市三民區澄清路529號,高雄市,三民區,ChIJO54w5SwbbjQRDqBMRRIkNpI
文心全國動物醫院,臺中市北屯區文心路四段323號,臺中市,北屯區,ChIJ5cVIJ9sXaTQR-o9Fau86ffE
文心動物醫院,高雄市楠梓區惠民路153號,高雄市,楠梓區,ChIJSyTEPnUPbjQReov_YEy0GDo
文心貓專科醫院,高雄市鼓山區中華一路289號地下室、一樓,高雄市,鼓山區,ChIJp5oEUAAFbjQRAVBAi2mOaFc
文清動物醫院,臺中市大雅區民生路一段290號,臺中市,大雅區,ChIJC2EJy-gWaTQRn5VCOk0yWKA
方濟動物醫院,高雄市苓雅區復興二路13之3號,高雄市,苓雅區,ChIJ17Bz-pwEbjQRtREVXxbOXO0
日安動物醫院,桃園市桃園區永安路267號,桃園市,桃園區,ChIJd_wbtgYfaDQRgDhaeW8Itpk
日健動物綜合醫院,臺北市松山區光復北路6-2號,臺北市,松山區,ChIJjbPZgK2rQjQRHApcHY8qzRU
日祥動物醫院,新北市林口區中正路504號,新北市,林口區,ChIJC6GdEeWmQjQRX4tzvr4H4pQ
木沐家動物醫院,臺中市北屯區松竹路二段186號1、2樓,臺中市,北屯區,ChIJyaHt18YXaTQRxFuqHeH20Rc
毛大夫動物診所,臺中市南屯區保安十街117號,臺中市,南屯區,ChIJJZJhpW0_aTQRiXpGok7lMQs
毛毛動物診所,臺中市烏日區新興路111號,臺中市,烏日區,ChIJWVu9txs8aTQRGJLdqMGxSao
毛毛動物醫院,臺南市歸仁區民權三街32號,臺南市,歸仁區,ChIJX0lF6GtxbjQRsxYF0dYtx48
毛宇宙動物醫院,新北市土城區員林街71巷2號,新北市,土城區,ChIJx4vVn6IdaDQRaL3uGe4Fhl4
毛克利動物醫院,臺中市北屯區文心路四段690號,臺中市,北屯區,ChIJGVf8a98XaTQRaxt6wI7efEA
毛果動物診所,桃園市八德區正福二街17號10樓之8,桃園市,八德區,ChIJURiZ7iUfaDQRTMyfOP-1c9Q
毛孩子動物醫院,新北市三重區福德北路71號,新北市,三重區,ChIJ2cJZMCOpQjQR2rvUUPOqVAs
毛星球犬貓專科醫院,高雄市左營區自由二路415號,高雄市,左營區,ChIJ2bk3KQUFbjQR0V6olzBbPXM
毛派樂動物醫院,臺北市大安區建國南路2段151巷47號1樓,臺北市,大安區,ChIJZREPuASrQjQRKtvxwDGKenw
毛茸茸動物醫院,桃園市新屋區民族路六段17號,桃園市,新屋區,ChIJVdEqj9glaDQRMcM0A9MlXZ8
毛博事保健動物醫院,新北市新莊區中正路425號,新北市,新莊區,ChIJtUdrMWKnQjQR-_SiO805s54
毛暖動物醫院,臺中市北屯區松竹路二段140號,臺中市,北屯區,ChIJe3nHArEXaTQRFtVG4LhPP64
毛導動物醫院,臺中市北屯區梅川東路五段129號1樓,臺中市,北屯區,ChIJz9wk3GM9aTQR9DE23QY06x4
毛貓寵動物醫院,臺中市南屯區文心路一段372號1樓,臺中市,南屯區,ChIJe49yk6w9aTQReAwsD4Mtf5c
毛寶貝動物診所,臺南市永康區二王路27巷5號1樓,臺南市,永康區,ChIJS8gSRgBxbjQRDSYXsaklKHw
爪子村動物醫院,臺中市南屯區文心南路38號,臺中市,南屯區,ChIJN7B-73k9aTQRcYRhQpAsi6o
犬保動物醫院,臺中市南屯區文山里文山三街51巷12號,臺中市,南屯區,ChIJ40SuFno-aTQRbfh8vYaR1D4
犬揚動物醫院,臺中市北區英才路298號,臺中市,北區,ChIJl3sN7Xk9aTQRCBWwyEKnolg
王中蘭動物醫院,臺南市學甲區仁德里1鄰建國路27-1號,臺南市,學甲區,ChIJzzTzmMJ_bjQRQi-1eATmEK4
王家家畜診所,台南市柳營區光福村成功街139號,台南市,柳營區,ChIJKZrCH0CGbjQRBYgF6VUeTFg
王動物醫院,新北市土城區中央路三段141之7號1樓,新北市,土城區,ChIJr-IXb9ocaDQR_c4Imb-5ZFI
王樣動物醫院,臺北市大安區金華街217號,臺北市,大安區,ChIJvZ4EhYOpQjQRDm6XRV---YE
世和動物醫院,高雄市前鎮區廣西路421號,高雄市,前鎮區,ChIJUwSkXJ0EbjQRpS60sN8pvow
世東動物醫院,臺北市士林區士東路39號1樓,臺北市,士林區,ChIJ525Fp4WuQjQRuWx2QZ-miN0
世康動物醫院,高雄市鳳山區八德路129號,高雄市,鳳山區,ChIJcccvjCQbbjQR6YZyqpntFBg
以立動物醫院,臺北市中山區敬業一路38號,臺北市,中山區,ChIJEYtM7dutQjQRv3trMDm2Yos
以恩動物醫院,高雄市燕巢區中民路627號,高雄市,燕巢區,ChIJyecbKFYTbjQRZGk7fEF10JE
加生動物醫院,臺北市北投區石牌路1段95號1樓,臺北市,北投區,ChIJqxWVjvKuQjQRk3z5ORDjwoU
加州動物醫院,高雄市苓雅區光華一路134號,高雄市,苓雅區,ChIJs23zpZkEbjQRPxJn65SQq5o
加洲動物醫院,臺北市內湖區文德路9號1樓,臺北市,內湖區,ChIJbaGXVGKsQjQRBDf13UzWlAk
加康動物醫院,高雄市鳥松區大昌路563號,高雄市,鳥松區,ChIJA-3iQMUEbjQRYaQbcGilgIs
加諾動物醫院,臺中市西區忠明路113號,臺中市,西區,ChIJdyaq2oM9aTQRSIy4IsIc1Eo
北大奇緣動物醫院,新北市三峽區民生街2-1、2-2號,新北市,三峽區,ChIJLzK-FVUZaDQRW8QUlDA5FHk
北大動物醫院,臺中市北屯區建和路二段300號,臺中市,北屯區,ChIJkU01PWwZaTQR5pcWVp3uP0A
北平動物醫院,高雄市三民區北平二街111號,高雄市,三民區,ChIJI8oST_gEbjQRaNkMPbwg0GA
北投動物醫院,臺北市北投區中央北路2段60-1號1樓,臺北市,北投區,ChIJBXZnb1KuQjQRoieTAms2s2s
北海岸出診動物醫院,新北市金山區忠孝一路56號,新北市,金山區,ChIJC94tEd3kZzQR-mIDFkN9GyI
仟祐動物醫院,桃園市大溪區介壽路796號,桃園市,大溪區,ChIJmRPCikIYaDQRVfCYnzPMWgM
卡布動物醫院,桃園市桃園區文中二路121號1樓,桃園市,桃園區,ChIJAVtpf04haDQR7e9VnldMdG0
卡布動物醫院,高雄市左營區至真路8號,高雄市,左營區,ChIJY-PmLCAFbjQRj3Icl8G7aDw
卡朵動物醫院,新北市淡水區中正路2段12號,新北市,淡水區,ChIJdSl_fTKlQjQRBgi6qVSNOWI
可安動物醫院,臺中市北屯區河北路二段58號,臺中市,北屯區,ChIJXYz0d9wXaTQR-XnDBO1ukjM
可米動物醫院,臺中市北屯區大連路二段22號1樓(含地下室),臺中市,北屯區,ChIJhTggGesXaTQR5yeCnI9Di5s
可昕犬貓專科醫院,臺南市安南區北安路2段87號,臺南市,安南區,ChIJnxXjOEx3bjQR7X9Ufm7pYbI
可頌動物醫院,新北市三芝區橫山里橫山35-2號,新北市,三芝區,ChIJ6aI9vqW2QjQRJdJHVuF8NQc
可麗兒動物醫院,新北市土城區中央路2段20之1號,新北市,土城區,ChIJRaw1gC0daDQRBF5mnZ8GblM
古亭動物醫院,臺北市中正區羅斯福路2段138號,臺北市,中正區,ChIJvVwtAIypQjQRFB7PGuo8GaM
古德動物醫院,臺北市萬華區西園路2段194號,臺北市,萬華區,ChIJgeMgyrqpQjQRTNud7nlhBUA
史密斯寵物醫院,高雄市新興區民生一路199號,高雄市,新興區,ChIJ4RFHsAkFbjQRCsp3yVfI-Vo
史麥動物專科醫院,新北市汐止區新興路3號,新北市,汐止區,ChIJCevKj2tTXTQRwLnxQRMZOto
台大文仁動物醫院,新北市板橋區篤行路三段18號,新北市,板橋區,ChIJVyuChTwdaDQRAfSQrmqPlAw
台大開心動物醫院,新北市泰山區明志路一段317號,新北市,泰山區,ChIJDZBC4DKmQjQRsW4Wwb5wx-o
台大綜合動物醫院,高雄市三民區博愛一路115號,高雄市,三民區,ChIJ1aib0fYEbjQRWvMZLIwZiys
台北動物醫院,臺北市松山區光復北路164號1樓,臺北市,松山區,ChIJMX2wpuurQjQR2m2wJSlV-LU
台欣動物醫院,台北市松山區健康路187號1樓,台北市,松山區,ChIJVREmb5OrQjQRyj2FpLQjo3Y
台愛動物醫院,臺北市士林區中正路629號1樓,臺北市,士林區,ChIJ68jW9cuuQjQRgMEWR_Q9eqQ
台碩動物醫院,臺中市北區中清路一段470號,臺中市,北區,ChIJoQPegn09aTQRrffJNmmhCXA
台灣動物醫院,台中市西屯區青海路二段69號,台中市,西屯區,ChIJtS2NVUE9aTQRVA0ZWEEtnzs
台灣嘉南動物醫院,臺南市北區長榮路5段425號,臺南市,北區,ChIJuX8XtPt2bjQRzjKjWFECxp4
台灣福懋毛公館動物醫院,台中市南屯區公益路二段685號,台中市,南屯區,ChIJBQAqOKQ9aTQRrYfVrhV3ZCY
四季動物醫院,新北市淡水區民族路33巷16-19號1樓,新北市,淡水區,ChIJZz9ABp6vQjQRjdpH6YVvK8M
尼古拉動物醫院,臺北市士林區克強路23號1樓,臺北市,士林區,ChIJYwjlR5CuQjQRnJctoRBCsPg
尼昂貓專科醫院,臺中市南區復興路二段133號,臺中市,南區,ChIJ4QJtw6o9aTQRwbd_vWZb5RM
左岸動物醫院,新北市中和區福祥路一二九號,新北市,中和區,ChIJaWjuDNGpQjQRbt5yBaJSxpY
左岸動物醫院大安院,臺北市大安區羅斯福路3段331號,臺北市,大安區,ChIJI-U0Fd2pQjQRcna8z2NrNcU
布恩動物醫院,臺中市北屯區和福路181號,臺中市,北屯區,ChIJs4O1FwAZaTQRHFc2n6r93vA
布納動物醫院,新北市新莊區思源路332巷22號,新北市,新莊區,ChIJcdkn5ACpQjQR4KqLeoaRszU
布萊梅動物醫院,臺中市大甲區文武路219號,臺中市,大甲區,ChIJ3bLs1gYOaTQRqNo3tNi-wlU
布達羊急診動物醫院,臺北市士林區忠誠路1段102號,臺北市,士林區,ChIJj6ms3tGvQjQRZTK1vHJPtVw
布魯斯動物醫院,新北市蘆洲區重陽街68號1樓,新北市,蘆洲區,ChIJX8cWOdKoQjQRt9WSZfe5rWA
平安動物醫院,台南市永康區中華路16號,台南市,永康區,ChIJWS9GHsR2bjQRu65Nrx8ePYU
平治動物醫院,高雄市小港區宏平路534號,高雄市,小港區,ChIJCeGKftAcbjQRx4_VCQReTsM
弘光動物醫院,臺南市南區永成路三段551巷1號,臺南市,南區,ChIJOdVyhcZ1bjQR6kEaQAKD-94
弘吉獸醫院,臺北市大安區市民大道3段236、238號1樓,臺北市,大安區,ChIJsfYumNmrQjQRdPNuBHIs17s
弘苑獸醫院,高雄市岡山區介壽西路129號,高雄市,岡山區,ChIJbTpOtpsObjQRJi3DMC6jeAQ
弘恩動物醫院,高雄市新興區五福二路152號1樓,高雄市,新興區,ChIJxTVW2z4FbjQRxZ1-g6Ic0yc
弘晟動物醫院,高雄市仁武區仁福里仁安三巷24號,高雄市,仁武區,ChIJtfz0Q30RbjQR6TJsOtsKbVA
弘祥動物醫院,高雄市新興區復橫一路229號,高雄市,新興區,ChIJk9gc9I4EbjQR6pI5gZzpiWk
弘愛犬貓專科醫院,台北市大同區民生西路105號1樓,台北市,大同區,ChIJfTjTEWqpQjQRrkay1r-yAKI
弘達動物醫院,台南市新營區隨唐街51號,台南市,新營區,ChIJsc_oBdSFbjQRlXvxMtpI01w
本丸特殊寵物與貓專科醫院,高雄市前鎮區永豐路105號一樓,高雄市,前鎮區,ChIJj5gMiygDbjQRYMm-6wC2UNQ
正耘動物醫院,高雄市三民區河堤路620號一樓,高雄市,三民區,ChIJwcKUAmAEbjQR8wGVX6Pkt8Y
正達家畜診所,臺南市歸仁區歸仁里文化街ㄧ段143號,臺南市,歸仁區,ChIJTeDi435xbjQRxjT82JzsFFI
民生動物醫院,新北市三重區正義北路296號1樓,新北市,三重區,ChIJufYWySapQjQRj9sRJ2h4vIM
民生動物醫院,臺南市安平區健康二街56號,臺南市,安平區,ChIJ75zRjeJ1bjQRzkQpzcQu-Oc
民昇動物醫院,臺中市神岡區中山路509號,臺中市,神岡區,ChIJHecL3TQXaTQRnBuNP7JsMYU
永吉家畜醫院,新北市新莊區新泰路158號,新北市,新莊區,ChIJ_Rzz2XWoQjQReaJAGY_Na5I
永安動物醫院,高雄市鳳山區建國路三段90號,高雄市,鳳山區,ChIJb3cpVUUDbjQRIMH9qbDaMjM
永安動物醫院,桃園市桃園區永安路554號,桃園市,桃園區,ChIJXRNywAcfaDQRxv2C_-EHLMY
永佳動物醫院,臺南市安南區海佃路2段440號,臺南市,安南區,ChIJndkoKbp3bjQR7kKtHXb4h2g
永昌動物醫院,臺中市北屯區北屯路32號,臺中市,北屯區,ChIJqexvK-AXaTQRhKSk5aWWE5E
永明動物醫院,台南市永康區永明街65號,台南市,永康區,ChIJGyEnHM9wbjQRYlXkIlLKvC4
永欣動物醫院,高雄市楠梓區軍校路724號,高雄市,楠梓區,ChIJv3scyH4PbjQRd7_MKMJkrFI
永信動物醫院,臺中市北屯區東山路一段216-22號,臺中市,北屯區,ChIJa1YNnRYZaTQR6EVz1fU_6eE
永春動物醫院,臺北市信義區忠孝東路5段424號1樓,臺北市,信義區,ChIJXdFN66OrQjQRNUxdudQcUXw
永泰家畜診所,臺南市佳里區六安里六安街156號,臺南市,佳里區,ChIJ7y7Sukd_bjQRKXO4gUD22y0
永康動物醫院,臺中市西屯區永福路167號,臺中市,西屯區,ChIJkTJjVokyDxQRIsSjUfpqmf4
永祥動物醫院,桃園市桃園區正光路117號,桃園市,桃園區,ChIJvRhB2g8faDQRuWjZM-ly5-M
永晴動物醫院,臺南市官田區文化街108號,臺南市,官田區,ChIJv9ohWgB9bjQRug9nUejB_8M
永勤動物醫院,臺南市仁德區中正路三段641號,臺南市,仁德區,ChIJgSyVBUpxbjQRarn2BSq73JE
永新動物醫院,臺北市大同區重慶北路3段185號1樓,臺北市,大同區,ChIJT46YooSpQjQRwvmFWIKPo7E
永馨動物醫院,高雄市鼓山區瑞豐街137號,高雄市,鼓山區,ChIJ2VBDuKkFbjQRdcv4ppQpIVU
玉山動物醫院,臺北市信義區信義路6段37號1樓,臺北市,信義區,ChIJk8PN76WrQjQRAaRZjtro6gE
玉井動物醫院,臺南市玉井區民族路267號,臺南市,玉井區,ChIJAXg6YVhhbjQR0G0tsbWfqLs
瓦奇動物醫院,臺中市北區學士路240號,臺中市,北區,ChIJd7fYoiA9aTQRO8Ksdp9H84M
田中政男動物醫院,臺中市北區進化北路378之24號,臺中市,北區,ChIJJQ3_f2I9aTQRW0OitjIp1Rg
田心動物醫院,臺中市南屯區大墩二街82號,臺中市,南屯區,ChIJT7Ae9bo9aTQRZXsd_wqoiR0
白毛動物醫院,桃園市中壢區青商路143號,桃園市,中壢區,ChIJIyZp0T8haDQRksrjmTOb2-E
白牙動物醫院,臺北市信義區永吉路117號,臺北市,信義區,ChIJsbABkeqrQjQRHHRxZTkRX6M
皮皮動物醫院,新北市永和區保生路22巷12號,新北市,永和區,ChIJAZcx8Z2pQjQRQX9x_8g6sm4
目目動物醫院,臺中市大里區德芳路二段5號,臺中市,大里區,ChIJjcJy0KM9aTQRvsI0lZeFBJI
禾米動物醫院,新北市土城區金城路三段173號,新北市,土城區,ChIJ-Q-kKAADaDQR_yyf-8cFzpY
禾亞動物醫院,臺北市北投區北投路2段19號1樓,臺北市,北投區,ChIJI60LDPiuQjQRR5Z647F6BuA
禾芮犬貓專科醫院,臺北市中山區明水路692號,臺北市,中山區,ChIJQ00Qvt2tQjQRSMKM7yQ5pxc
禾原動物醫院,桃園市桃園區大有路159號,桃園市,桃園區,ChIJ53xej1oeaDQRETqMCMfHRKs
立仁動物醫院,桃園市八德區公園路30號,桃園市,八德區,ChIJEYDefi0faDQRJSl7AGGZPro
立安動物醫院,臺中市豐原區向陽路243號,臺中市,豐原區,ChIJFWQEHhEaaTQRY4qO59MaF9U
立宏動物醫院,高雄市三民區陽明路310號地下室、一樓、二樓,高雄市,三民區,ChIJT7lAltAEbjQRSyRmoPJTEn4
立和動物醫院,高雄市鳳山區新興里維新路153號,高雄市,鳳山區,ChIJGWWnUD8bbjQRWNKwmqUuzI0
立奇動物醫院,臺南市東區東和路34號,臺南市,東區,ChIJC6bfBM5yBxQRvu5XeBCjrpI
立康動物醫院,高雄市新興區七賢一路262號,高雄市,新興區,ChIJOQV4l5IEbjQRvPn0p9gYdDA
伊甸園動物醫院,臺北市中山區北安路554巷33號,臺北市,中山區,ChIJFwTtdQ-sQjQRDdUv6eFR9Zo
伊亞動物醫院,桃園市楊梅區瑞福街11之1號,桃園市,楊梅區,ChIJi38NGAAjaDQRjTPuTKTKZcQ
伊娃動物醫院,新北市蘆洲區永平街32巷12弄18號1樓及B1,新北市,蘆洲區,ChIJGfhu_rKoQjQR2zGN0pItBkw
仰望動物醫院,桃園市桃園區莊二街12號,桃園市,桃園區,ChIJtfCfrL0faDQRcMK0fFkl7a4
光正獸醫院,臺中市北屯區東山路二段65-14號,臺中市,北屯區,ChIJYZ-7xk0YaTQRIv0Vw3KZfuI
光佑動物醫院,臺中市太平區中興東路164號,臺中市,太平區,ChIJAUuuQcgiaTQRIGecZ3o16iw
光微動物醫院,臺南市新營區健康路32號,臺南市,新營區,ChIJ8TTlOd-FbjQRluKTTEWGFFc
光輝動物醫院,臺南市後壁區頂安里345號,臺南市,後壁區,ChIJeUyg6vd3bjQRqte9f1TYINc
光蹄動物醫院,臺北市信義區光復南路473巷11弄40號,臺北市,信義區,ChIJR5kC_uerQjQRqd9cLNOJVds
光點犬貓專科醫院,臺北市內湖區內湖路2段468號、470號1樓,臺北市,內湖區,ChIJyY_V1xetQjQRzgu_zJN7uTc
先鋒家畜診所,新北市土城區立德路26號,新北市,土城區,ChIJKyGUS78CaDQRz32_BT3s0F0
全日動物醫院,桃園市桃園區永安路765巷77號,桃園市,桃園區,ChIJ-b1WzEUfaDQRnXNrqggP6Ew
全民動物醫院北投分院,臺北市北投區懷德街6之3號1樓,臺北市,北投區,ChIJda8VP1euQjQRCe_9S0QqkCI
全民連鎖動物醫院台中分院,臺中市西區臺灣大道二段311巷1弄30號,臺中市,西區,ChIJJRzrucI9aTQR1r_GH8V0mHQ
全民連鎖動物醫院總院,臺北市大同區民生西路247、249號1、2樓,臺北市,大同區,ChIJjcggTZdo3y8Rrd6RhZCwqog
全宏動物醫院,高雄市鳳山區南華一路85號,高雄市,鳳山區,ChIJQ_c6d1MDbjQRRfcjA27vNMA
全邑動物醫院,台中市北區德化街227號,台中市,北區,ChIJK4x7wmE9aTQRZEGlO-WVKm0
全科動物醫院,臺中市太平區大興路60號1樓,臺中市,太平區,ChIJsy185QYYaTQRByUl1rjc09E
全能動物醫院,臺南市將軍區忠興里187之22號,臺南市,將軍區,ChIJ3wL0K6h1bjQREvp6nmUPjOM
全國動物醫院,台中市西區五權八街100號,台中市,西區,ChIJJRzrucI9aTQR1r_GH8V0mHQ
全國動物醫院七期分院,臺中市北區育樂街70號,臺中市,北區,ChIJNUrJILo9aTQRxypN7M4ntuc
全國動物醫院大里分院,臺中市大里區中興路二段785號1樓,臺中市,大里區,ChIJiX13iO88aTQR5XQdPinKEhQ
全國動物醫院大雅分院,臺中市北區中清路一段566號,臺中市,北區,ChIJr4jVVNEXaTQR-9xkoCVSNdU
全國動物醫院中科分院,臺中市西屯區福科路537號(1-3樓),臺中市,西屯區,ChIJXZpep_0VaTQRARDOYXVHWdM
全國動物醫院北全分院,臺中市北屯區北屯路264之7號,臺中市,北屯區,ChIJAZJaseUXaTQRjwwRfsHqtVs
全國動物醫院台北分院,臺北市內湖區舊宗路1段30巷13號1樓,臺北市,內湖區,ChIJ94eQWgerQjQRFwTtE2i1bis
全國動物醫院台南分院,臺南市東區崇德路620號2樓,臺南市,東區,ChIJ3wL0K6h1bjQREvp6nmUPjOM
全國動物醫院永和分院,新北市永和區永貞路175號,新北市,永和區,ChIJE-lWmeepQjQR3nRD9I47HKE
全國動物醫院永康分院,臺南市永康區中華路241號,臺南市,永康區,ChIJZ297LYZ3bjQRZiWGTr5s6eE
全國動物醫院精業分院,臺中市南屯區大業路357號,臺中市,南屯區,ChIJeTpEBpo9aTQR0ToM9VIqlAY
全國動物醫院環球分院,新北市中和區中山路3段122號1樓,新北市,中和區,ChIJvezIzyaoQjQROSLNTdM8i-w
全國動物醫院豐原分院,臺中市豐原區圓環北路二段249、251號,臺中市,豐原區,ChIJH36MMm0aaTQRxnciAPS1d6o
全國貓醫院,臺中市北區進化北路162號,臺中市,北區,ChIJh-gdoN8XaTQR-MQ2S4N2Yys
全鋒動物醫院,臺南市新市區大營里豐榮52號,臺南市,新市區,ChIJE-fxnHV7bjQRnROsJP9SqsQ
再興動物醫院,台北市文山區興隆路一段1號1樓,台北市,文山區,ChIJb2eKxx2qQjQRaJ_eNHk26AE
吉布動物醫院,桃園市桃園區新埔七街134號,桃園市,桃園區,ChIJK0xWmekfaDQRnjQR6MkPBkc
吉生動物醫院,高雄市前鎮區永豐路92號,高雄市,前鎮區,ChIJAyD2DFcDbjQRgTmrPi4JzgU
吉立動物醫院,新北市三重區中正北路10號1樓,新北市,三重區,ChIJe2ZWUeCoQjQRAaryo43Ic54
吉安動物醫院,高雄市鳳山區經武路346號,高雄市,鳳山區,ChIJVXo2JCIbbjQR-USFGtL-mrA
吉米犬貓專科醫院,臺北市中山區林森北路649號,臺北市,中山區,ChIJV2rvA1CpQjQRvRirQKzYQnY
吉米哈利動物醫院,臺中市南屯區大聖街250號,臺中市,南屯區,ChIJseyTw5Y9aTQRi4_mzXSsjxQ
吉米家動物醫院,高雄市仁武區仁勇路56之7號,高雄市,仁武區,ChIJl7mURoEbbjQRZKQOBKmtjSk
吉利家畜醫院,新北市永和區永貞路108號,新北市,永和區,ChIJuQ-EGuapQjQRwrFSGkmJFAo
吉貝爾動物醫院,高雄市鳳山區五常街44號,高雄市,鳳山區,ChIJT-iTylADbjQRMjZ3e1yzup4
吉和動物醫院,臺南市南區尊南街246號,臺南市,南區,ChIJpX8TRTx1bjQRQrnqM9e5LC0
吉盈動物醫院,高雄市新興區民生一路34號,高雄市,新興區,ChIJqX_voJEEbjQRPYopq2BkOkA
吉美動物醫院,臺中市西屯區大墩十八街120號一樓及地下一樓,臺中市,西屯區,ChIJqc6wPJI9aTQRF9_TPwgpAKo
吉恩動物醫院,新北市板橋區華江一路622號,新北市,板橋區,ChIJqUlCc8apQjQRAtV59xR3FMc
吉祥動物醫院,高雄市仁武區澄仁路257號,高雄市,仁武區,ChIJ96aDDEsFbjQRBQnMpOu8xWw
吉莉安動物醫院,桃園市中壢區松義三街142號,桃園市,中壢區,ChIJMcaU9oMhaDQRTPJDX4r2z4w
同心動物醫院,新北市新莊區新泰路474號,新北市,新莊區,ChIJiS5pv4-nQjQR7joMXDFmKU4
同安動物醫院,新北市永和區中山路一段二三三號一樓,新北市,永和區,ChIJo6q-U9upQjQRGB0Rozn0pPc
向芯動物醫院,臺南市永康區復興路218號,臺南市,永康區,ChIJ-2YqfB53bjQRNORZW3b1Ix0
向陽動物醫院,桃園市桃園區三民路三段579號,桃園市,桃園區,ChIJnYqlOh4faDQRIlrnm_KVcME
名人動物醫院,高雄市小港區沿海一路202號,高雄市,小港區,ChIJIdhi3dYcbjQRfAVNRTEyMVA
名人維東尼動物醫院,臺北市大安區建國南路1段358號,臺北市,大安區,ChIJvxkFXNWrQjQR_3gaBde3Tac
名芯動物醫院,臺中市大里區爽文路899號,臺中市,大里區,ChIJG-X3YvA8aTQRk4Aayn8RNzI
名冠動物醫院,高雄市鳳山區經武路191號,高雄市,鳳山區,ChIJG5-N1yIbbjQRjOS4JYd1MLs
名星動物醫院,新北市中和區景平路591號1樓,新北市,中和區,ChIJNz06D9apQjQRSaqNiNOl2wQ
名倫動物醫院,臺南市安平區育平路208號,臺南市,安平區,ChIJe4_ZAwd2bjQR8yMRZxB2q5U
名鼎動物醫院,臺中市潭子區潭興路三段95號,臺中市,潭子區,ChIJ33RsDwAXaTQRAdmFAdNr2M0
合美動物醫院,高雄市岡山區中華路13-5號,高雄市,岡山區,ChIJncLASSgMbjQRqtsObr9nlzY
回生動物醫院,高雄市新興區新田路39號,高雄市,新興區,ChIJa7suGIUEbjQRbGi3U5aVhXw
好牙動物醫院,臺中市西區五權西三街49號,臺中市,西區,ChIJPc1YzGU9aTQR-FxDFHGxFrM
好好動物醫院,新北市中和區中和路464號,新北市,中和區,ChIJ7-DPOkipQjQR4Q9a3OmdR9c
好年動物醫院,桃園市桃園區春日路1115號,桃園市,桃園區,ChIJG4XbJ7cfaDQRGeGmIm7ZQR4
好悠動物醫院,新北市汐止區大同路2段247號,新北市,汐止區,ChIJd-PVQlFTXTQRIDRawZ78xR8
如是居家安寧緩和行動獸醫院,臺北市大安區忠孝東路4段2號5樓之1,臺北市,大安區,ChIJAYBJMCmrQjQRLUbUVFfikSE
宇恒動物醫院,臺北市內湖區民權東路6段57號,臺北市,內湖區,ChIJWxi3sIasQjQRJgKMNPrh9r4
宇恩動物醫院,高雄市鼓山區華泰路220號,高雄市,鼓山區,ChIJ7Y9PoaYFbjQRmBCUkEfjnB4
守足動物醫院,桃園市蘆竹區上興路61號,桃園市,蘆竹區,ChIJiSZTNkUfaDQRQuOp7HSIKEA
守護動物醫院,新北市新莊區中正路891-32號,新北市,新莊區,ChIJsV-wI4mnQjQRGfKW13vODAg
宅宅犬貓行動獸醫院,高雄市仁武區北屋北街77號十五樓,高雄市,仁武區,ChIJkWFtDo0FbjQR39Hrbgd58u0
安心動物醫院,高雄市鳳山區武慶二路74號,高雄市,鳳山區,ChIJFWvxZKgEbjQR_FOz1c7Ynxw
安心動物醫院,臺北市文山區羅斯福路5段17號,臺北市,文山區,ChIJTddQ7zSrQjQR5GD0xkdESFA
安可動物醫院,桃園市桃園區中埔一街21號1樓,桃園市,桃園區,ChIJGZFVRrAfaDQROGptFaLp6Fc
安生動物醫院,臺中市太平區新興路219號,臺中市,太平區,ChIJAQAAAF09aTQRuWPHr6hAuaI
安生動物醫院(三民),高雄市三民區建國三路278號,高雄市,三民區,ChIJaTqFY2YEbjQR_EXT8c1Ft1I
安生動物醫院(岡山),高雄市岡山區公園西路2段140號,高雄市,岡山區,ChIJdR5HXC8MbjQR-DIcFhGk2aY
安安動物醫院,新北市新莊區雙鳳路105號1樓,新北市,新莊區,ChIJw67gQ4-nQjQR2ZWN3lDUIS8
安安動物醫院,高雄市旗山區延平一路268號,高雄市,旗山區,ChIJraCWokxqbjQR5fkR2Bv7q9k
安利動物醫院,台中市西屯區成都路325號,台中市,西屯區,ChIJ2YD9mOw9aTQRiVVOrXwLIrE
安和動物醫院,台中市太平區太平路656號,台中市,太平區,ChIJD3A5Oc0iaTQRw8Jl8cYqxw0
安欣動物醫院,桃園市桃園區中福街60號一樓,桃園市,桃園區,ChIJzz7UHfweaDQR2KnGntyNuak
安南動物診所,臺南市北區林森路3段112號,臺南市,北區,ChIJnxXjOEx3bjQR7X9Ufm7pYbI
安星動物醫院,新北市土城區中央路二段8號,新北市,土城區,ChIJq2OHgDIdaDQRrfo_tLjSaHk
安家行動寵物醫院,臺北市內湖區成功路3段174巷17弄5號1樓,臺北市,內湖區,ChIJAYBJMCmrQjQRLUbUVFfikSE
安庭動物醫院,臺北市大安區金山南路2段139號1樓及地下1樓,臺北市,大安區,ChIJtUzLpoSpQjQRjm4WaC5TpJg
安泰動物醫院,桃園市中壢區中正路628號,桃園市,中壢區,ChIJWfDgALYjaDQRM8hXfzaXjS4
安傑動物醫院,臺中市豐原區源豐路119號,臺中市,豐原區,ChIJJ3532wgaaTQRp-Sx-CS3Iuc
安澤動物醫院,臺中市大甲區新美里光明路281巷32號,臺中市,大甲區,ChIJMxgGUwASaTQR_66GFU58HHU
安興動物醫院,臺北市信義區吳興街478號1樓,臺北市,信義區,ChIJ-ZPUEE2qQjQRu_UyP6yylLE
成大動物醫院,臺中市清水區臨港路五段658巷27號,臺中市,清水區,ChIJUX-rTVQ8aTQR-5ljwexnb8g
成功家畜診所,台南市麻豆區晉江里信義路11-16號,台南市,麻豆區,ChIJeww1R01-bjQRm80LApcqrU4
成功動物醫院,臺北市中山區天祥路3號1樓,臺北市,中山區,ChIJ7X9JykOpQjQRn1n6BVmhcG0
成功動物醫院,高雄市苓雅區武廟路155號,高雄市,苓雅區,ChIJd9kHS78EbjQRFqOmIcj-qy0
成功動物醫院,台南市北區長榮路四段223號,台南市,北區,ChIJ212Lau92bjQRJjWvBjlGhFU
成泰動物醫院,新北市五股區成泰路2段143號,新北市,五股區,ChIJk-_edhumQjQRd_sxO1Wi6E0
成蹊動物醫院,新北市永和區中正路474號1樓,新北市,永和區,ChIJHXweUeapQjQRDC1WoIytc3s
旭日動物醫院,臺南市永康區小東路647巷42弄1號,臺南市,永康區,ChIJKQARwwx3bjQRmWE2ve2c4-U
旭生動物醫院,新北市三重區元信二街170號,新北市,三重區,ChIJ6wDkG02pQjQR3GBwnn1c58I
旭采動物醫院,臺中市北區漢口路四段297號,臺中市,北區,ChIJq_e_R4wXaTQRJYhB_2Muigs
旭冠動物醫院,台中市太平區宜昌路525號,台中市,太平區,ChIJ9dEqTqwiaTQRBsmcqEI0d_E
有喵事貓專科醫院,臺中市南屯區河南路四段510號,臺中市,南屯區,ChIJHeoKBwA9aTQRl33mybWLUc8
朱動物醫院,臺北市文山區仙岩路62號1樓,臺北市,文山區,ChIJvcaENsGrQjQRlQljuvxmjvU
朵恩動物醫院,高雄市鳳山區和成路432號一樓、二樓,高雄市,鳳山區,ChIJ9X6xckADbjQRXKuL-Kwuero
汎亞動物醫院,臺北市士林區承德路4段183號1樓,臺北市,士林區,ChIJQfmTxG_QDRQRIxrd30bqNZI
百佑動物醫院,高雄市左營區辛亥路203巷3號,高雄市,左營區,ChIJ-ZVm_wYFbjQRDM3GOD1Lqcg
百利動物醫院,臺南市佳里區忠仁里建中街46號,臺南市,佳里區,ChIJF9CA6i5xbjQRyE1Uyf0D00s
百科動物醫院,臺中市西區忠明南路223號,臺中市,西區,ChIJz_fQopk9aTQR6jCgV3w7a0E
百祥動物醫院,高雄市左營區明誠二路204號,高雄市,左營區,ChIJ1z3YtxwFbjQRML86s5uoMKA
米可伴侶動物醫院,高雄市鳳山區建國路三段57號,高雄市,鳳山區,ChIJlVeDHwAbbjQRnqah42Na7RM
米谷動物醫院,臺中市北區青島路三段212號,臺中市,北區,ChIJGVrKG9wXaTQRiFFSJbubhgY
米亞動物醫院,臺北市中山區民權東路2段57號,臺北市,中山區,ChIJ6S2r0FupQjQRsVqZbYXT_UM
米恩動物醫院,高雄市左營區新庄仔路556號,高雄市,左營區,ChIJn1ihbw8FbjQRy0GJH5qTj_A
米樂動物醫院,臺南市安平區慶平路440號,臺南市,安平區,ChIJmSQSRFV3bjQREDLPKIUY6Zk
米懷谷動物醫院,臺中市東區大興街22號,臺中市,東區,ChIJ8Sk28Dw9aTQRJzoc8qe8nfo
羽森林動物醫院,臺中市東區旱溪西路一段552號,臺中市,東區,ChIJz5BCoxM9aTQRJswzorMsoOk
自強動物醫院,新北市三重區自強路4段79號1樓,新北市,三重區,ChIJ3-EmJNaoQjQR2HDWlfSoj4o
艾利動物醫院,臺中市西屯區惠中路二段41號,臺中市,西屯區,ChIJ2YD9mOw9aTQRiVVOrXwLIrE
艾美動物醫院台北總院,臺北市內湖區港墘路107號1樓,臺北市,內湖區,ChIJj3ODwOqtQjQRC5V4kFi6AC8
艾迪威鳥禽專科診所,桃園市桃園區富國路216巷85弄36號,桃園市,桃園區,ChIJ4WJPNfYeaDQRv88i6q33sug
艾蒙動物醫院,台南市安平區文平路507號,台南市,安平區,ChIJN_j6fOZ3bjQRcam8FHWOxn4
艾德動物醫院,臺中市太平區立功路399號,臺中市,太平區,ChIJAShTtT8ZaTQRwWloaK3JbyY
艾樂動物醫院,新北市林口區文化三路1段103號,新北市,林口區,ChIJfSDbZ2CnQjQRmDrvijjBo9E
行樹動物診所,高雄市大社區中山路82號,高雄市,大社區,ChIJqwPZ3sEFbjQRg6Te3gPcSuM
伴心特殊寵物專科醫院,臺中市南屯區文心路一段430號,臺中市,南屯區,ChIJdxkHIYI9aTQR4nkoeE30-o4
何動物診所,台南市官田區東庄村東庄三號,台南市,官田區,ChIJdxjaFPCHbjQRVBycB54Ysh4
何康動物醫院,臺中市東區十甲東路657號,臺中市,東區,ChIJS2bSrk09aTQRTekKxKmRg_M
佑仁動物醫院,臺北市大安區和平東路1段200號1樓,臺北市,大安區,ChIJy_JQ1YWpQjQRLLaw59PaZmM
佑全動物醫院,臺中市大雅區雅潭路四段668號,臺中市,大雅區,ChIJXfEvDfAWaTQR_ZROwjhTtAU
佑安動物醫院,桃園市平鎮區民族路2段29號,桃園市,平鎮區,ChIJ-8oLGbcjaDQRL9U9B2W2raA
佑欣動物醫院,新北市蘆洲區光榮路66巷1號,新北市,蘆洲區,ChIJMZlTC7SoQjQRKJYufCfQczE
佑晟動物醫院,臺中市后里區福音路42之1號,臺中市,后里區,ChIJk4B08Z8aaTQROnS0GMaA1ik
佑康動物醫院,高雄市楠梓區楠梓路71號,高雄市,楠梓區,ChIJ1dXync8PbjQRlyuy8AYRTho
伯特利動物醫院,新北市三峽區學成路323號,新北市,三峽區,ChIJV7AlIXUcaDQRHuk_fzRByC8
利昂動物醫院,臺北市內湖區文德路217號,臺北市,內湖區,ChIJZZnQebmtQjQRZ0z75euZF58
利榮家畜醫院,台南市新營區新北街56號,台南市,新營區,ChIJk86ObtGFbjQRyOH01WGPXRg
呈品動物醫院,桃園市中壢區中豐路359號,桃園市,中壢區,ChIJ7xhA-0oiaDQR7UhbBk00SOA
宏一動物醫院,高雄市三民區大順二路443號,高雄市,三民區,ChIJ2bqLtKcFbjQRfKfWw4ECBoA
宏力建工動物醫院,高雄市三民區建工路695號,高雄市,三民區,ChIJIUam5MkFbjQROnupl2w98VU
宏力動物醫院,高雄市三民區明誠一路326號,高雄市,三民區,ChIJ0y1f3SMFbjQRYd5JSDsk3k8
宏力動物醫院光復院,高雄市鳳山區光復路一段24、26號一樓,高雄市,鳳山區,ChIJIRExRgAbbjQR9xgQD2nq6v8
宏仁家畜醫院,高雄市鳳山區五甲一路220號,高雄市,鳳山區,ChIJi6MWfk8bbjQRwOP-E_GrcOE
宏仁動物醫院,臺中市清水區五權東路182號,臺中市,清水區,ChIJwaWG34EUaTQRr6EbkoBV39I
宏仁動物醫院,高雄市鼓山區中華一路2號,高雄市,鼓山區,ChIJqSES0a8FbjQRHwXDMBrlvTU
宏光動物醫院,臺中市北區健行路588號,臺中市,北區,ChIJRT-Zsnw9aTQRKkHLV0BfTCw
宏安動物醫院,桃園市中壢區延平路265號1樓,桃園市,中壢區,ChIJR-t4OTciaDQRsKsGucMWKPg
宏典動物醫院,臺中市北屯區大連路二段15號,臺中市,北屯區,ChIJK7veFMMXaTQRZoENtJ-lRFI
宏家動物醫院,台南市南區中華南路二段188號,台南市,南區,ChIJrVsM8dZ1bjQRjNA_OhRcDeg
宏恩動物醫院,臺中市北區太原路一段426號,臺中市,北區,ChIJ_xoOkn89aTQRvvsk6jXIA9I
宏泰動物醫院,高雄市新興區開封路301巷2號,高雄市,新興區,ChIJZSAR4pIEbjQRtHrU7M8aX2o
宏琳寵物診所,臺中市北屯區軍功路一段492號1樓,臺中市,北屯區,ChIJyTULXBkYaTQRmqKqcHykaqc
宏誠動物醫院,新北市三重區捷運路33號1F、2F,新北市,三重區,ChIJzZbztOSoQjQR5hLBXbZd1kk
希望動物醫院,高雄市鳳山區凱旋路100號,高雄市,鳳山區,ChIJCVz4EFkbbjQRsk1lytBABPQ
志誠動物醫院,臺北市萬華區萬大路536號1樓,臺北市,萬華區,ChIJw3lxLMqpQjQRIV2HDFA5-QY
快樂動物醫院,新北市新莊區福營路242號1樓及B1,新北市,新莊區,ChIJ4Rghsu2nQjQR1dsaIzWXy3k
快樂動物醫院,台南市永康區復興路378號,台南市,永康區,ChIJh0-Es8h2bjQRZcYmGwt_Bg4
我的動物醫院,臺南市中西區和緯路5段235號,臺南市,中西區,ChIJMbCTahV2bjQRc8DCG9tmJJ4
李動物醫院,台南市新化區中正路515號,台南市,新化區,ChIJLeNsP3pwbjQRBPweidt5FhU
杏旺動物醫院,桃園市八德區介壽路1段731號,桃園市,八德區,ChIJr4fiTywfaDQRTvdn6H2fXCQ
杏玲動物醫院,台南市永康區文化路124號,台南市,永康區,ChIJ12_re2FxbjQRPHEvFTTNX4c
杏運草動物醫院,新北市中和區景平路489號1樓,新北市,中和區,ChIJJ3eAYHgCaDQR4_4RnKunJPY
杏福獸醫院,新北市新莊區幸福路73號,新北市,新莊區,ChIJ4d5Q02KoQjQRtohWVcm_ets
杜克動物醫院,臺北市大安區和平東路3段117號1、2樓,臺北市,大安區,ChIJs16ioTGqQjQR4lxBaSK0YUs
杜博動物醫院,臺中市北區博館一街32號1樓,臺中市,北區,ChIJZXUuheI8aTQRKPammUO3yLk
杜瑪動物醫院,臺北市北投區大業路541號1樓,臺北市,北投區,ChIJ0UK1LVKuQjQR993JBnkB_Kg
沙鹿名犬動物醫院,臺中市沙鹿區福幼街25號,臺中市,沙鹿區,ChIJHeJXcQIVaTQRidsEgYBr97w
沙鹿動物醫院,臺中市龍井區工業路33號,臺中市,龍井區,ChIJHeJXcQIVaTQRidsEgYBr97w
汪旺動物醫院,台南市仁德區仁義里33鄰中山路172號,台南市,仁德區,ChIJF_GGyVlxbjQR3Atb98DYGok
沐木出診動物醫院,臺中市清水區五權南路163號,臺中市,清水區,ChIJFdIkfgATaTQR_JUaJMnttb8
沐沐特寵動物醫院,臺北市中山區龍江路78號,臺北市,中山區,ChIJk6hwKBarQjQRDg249hYC_d8
沐恩動物醫院,臺北市大安區辛亥路1段86號,臺北市,大安區,ChIJPf0FeDGqQjQRUvpW6TTj9BE
沐恩動物醫院,臺中市北區健行路865號,臺中市,北區,ChIJGfCcInk9aTQRZVXCW9KgIX8
沐棉花動物醫院,臺中市南屯區春安路153、155號,臺中市,南屯區,ChIJgTN7DgA_aTQRqJnu2Pt65ZA
沐愛動物醫院,新北市板橋區國光路166號,新北市,板橋區,ChIJhZZvZBqoQjQRoxf_87JKqZ0
沐樂動物醫院,臺北市信義區忠孝東路4段559巷30號1樓,臺北市,信義區,ChIJo8bFzr6rQjQRaRTXgFwOTKw
沐鄰動物醫院,高雄市大寮區八德路391號,高雄市,大寮區,ChIJi-EWDQAbbjQReevMTX5IzFg
沃可動物醫院,臺中市北屯區文心路四段776號,臺中市,北屯區,ChIJH7QmSN4XaTQRT_ZX9dCXf4o
沃沃動物醫院,桃園市八德區義勇街22號,桃園市,八德區,ChIJ06bboP4faDQRkMH2IjoeOwQ
沃爾菲動物醫院,臺中市西區向上路一段40號,臺中市,西區,ChIJs9yeOgA9aTQR3WfBofjPbdg
育千動物醫院,高雄市鳳山區中山西路255號,高雄市,鳳山區,ChIJGQ_8NUEbbjQRNAjeZp_v7jA
育昇動物醫院,臺中市烏日區中山路一段406號,臺中市,烏日區,ChIJiwMYChY8aTQRfIu18L2-Gi8
育聖動物醫院,台南市關廟區五甲里五甲路600號,台南市,關廟區,ChIJod6HjEp1bjQRHWe1fN3LIWc
角落動物醫院,臺北市內湖區金湖路22號1樓,臺北市,內湖區,ChIJ74PzL-2sQjQRp3-4aQjcJbk
豆卡動物醫院,臺南市東區裕農路300號,臺南市,東區,ChIJeXQDgyV3bjQRkYnJ_hzdC_4
豆皮動物醫院,新北市永和區中正路279號,新北市,永和區,ChIJY8mOQwapQjQRgyB8F6xqRJM
豆芽動物醫院,臺中市西區向上路一段94號,臺中市,西區,ChIJe4x4PQA9aTQR7MmiMO3vetY
貝果動物醫院,新北市中和區安樂路75號,新北市,中和區,ChIJcUHvXC4DaDQRFlGQihHIbng
貝恩動物醫院,臺北市中山區民權東路3段8號-1,臺北市,中山區,ChIJAQAAAN2rQjQRz5MACN92tuI
貝斯特動物醫院,新北市汐止區新台五路2段28號,新北市,汐止區,ChIJebVq8PPQDRQRQWW1dNtd08E
貝爾動物醫院,臺中市西屯區四川路118號,臺中市,西屯區,ChIJsWXVlfw9aTQRjstrJbiUwdg
貝爾動物醫院博館分院,臺中市北區博館路15號,臺中市,北區,ChIJdRf8a349aTQRUtMe4NetW5Q
貝親動物醫院,臺中市西屯區櫻花路128號,臺中市,西屯區,ChIJVSv7J0cXaTQRDo2KxNtqPNE
足跡動物醫院,桃園市中壢區民權路320號,桃園市,中壢區,ChIJY-x4DgkjaDQRDaUqHf2fJ_Q
辰光動物醫院,臺中市烏日區健行路783號,臺中市,烏日區,ChIJfxMWnd0_aTQRqKyBK23TQIQ
邦尼動物醫院,台南市永康區永二街399號,台南市,永康區,ChIJSYKLcSx3bjQRLMNsn82BhpY
那隻狗動物醫院,臺南市東區中華東路三段399巷21弄3號,臺南市,東區,ChIJMRAMF9Z1bjQResT_th2SjeM
亞太動物醫院,臺北市文山區景福街244號1樓及地下1樓,臺北市,文山區,ChIJhdeEoAGqQjQRGwuixAY9n5Q
亞各特殊寵物醫院,臺北市南港區研究院路一段101巷12號1樓,臺北市,南港區,ChIJGRM7L22rQjQRXv8LW6ml55s
亞幸動物醫院,高雄市苓雅區光華一路12之1號,高雄市,苓雅區,ChIJcZcq9yIFbjQRE5BjwrqVkcA
亞東動物醫院,新北市中和區中正路639號1樓,新北市,中和區,ChIJr63FCZMDaDQRYdAbWXABC9k
亞東動物醫院,406台中市北屯區昌平路一段27號,台中市,北屯區,ChIJQZ9PueYXaTQRXT5VodTu3Pc
亞洲大學附屬獸醫教學醫院,臺中市霧峰區柳豐路500號,臺中市,霧峰區,ChIJ27r6hQk7aTQRWc6V_vG6XSQ
亞洲獸醫專科醫院,臺北市大安區安和路2段171巷5號,臺北市,大安區,ChIJh-jOetKrQjQRYkodpY1zsXw
亞哲動物醫院,新北市板橋區中山路2段388之4號,新北市,板橋區,ChIJv2KPnlWpQjQRph7Uj9ExupQ
亞格瑞動物診所,臺南市永康區南工街35號,臺南市,永康區,ChIJGUJP0OJ2bjQReW9puaOFlK0
亞馬森特寵專科醫院,臺北市內湖區內湖路2段39-2號1樓,臺北市,內湖區,ChIJHVzOiuysQjQR5aAESGJAMxM
亞麥動物醫院,新北市板橋區中國光路77號1樓及57號B1,新北市,板橋區,ChIJ1SieiRqoQjQRjsLgijB_N_o
亞歐動物醫院,桃園市八德區豐德二路78號,桃園市,八德區,ChIJD-7N_BYZaDQR3LXd7GOHtZ0
享家動物醫院,臺北市中正區牯嶺街臨15-1號,臺北市,中正區,ChIJSSxANOepQjQRvc0wIU7raqo
依努動物醫院,新北市中和區安平路56號,新北市,中和區,ChIJQyZShXUCaDQRzMU4GVghZ6k
依沐動物醫院,高雄市前鎮區瑞日街2號二樓、三樓,高雄市,前鎮區,ChIJoUAkvEADbjQRqG5h7HBdjmo
依視界動物醫院,臺南市永康區東橋三路436號,臺南市,永康區,ChIJxbsxNHd3bjQRWduhZHjtPCo
佳幼動物醫院,臺南市善化區光復路128號,臺南市,善化區,ChIJ-52KrIZ7bjQRxNkeW90LKVU
佳生動物醫院,新北市土城區學府路1段60號,新北市,土城區,ChIJXTxHiLgCaDQRj0eDvVIVlmE
佳安動物醫院,新北市板橋區四川路一段二三四號,新北市,板橋區,ChIJCZFvgaQDaDQRZEb6na4ibuo
佳佑動物醫院,高雄市仁武區大豐路112號,高雄市,仁武區,ChIJl7mURoEbbjQRZKQOBKmtjSk
佳貝捷動物醫院,桃園市桃園區經國路232號,桃園市,桃園區,ChIJjQL9S1sfaDQR-FUkgYyxiOA
佳里動物醫院,臺南市佳里區六安里延平路628號,臺南市,佳里區,ChIJtSqkSKx_bjQReGzSKekp_g4
佳佳動物醫院,臺中市大里區仁化路566號,臺中市,大里區,ChIJryJudcg8aTQRMKBNSfwQsGY
佳佳獸醫院,新北市三重區重陽路一段20巷4號1樓,新北市,三重區,ChIJnaHkaeOoQjQRoTsaWxP0Fh0
佳恩動物醫院,臺中市南區美村路二段88號,臺中市,南區,ChIJc0c3v6s9aTQRXIv5ZTnOjTY
佳恩動物醫院,臺北市內湖區成功路4段311號1樓,臺北市,內湖區,ChIJ65vZIYysQjQRpc7pTh4EznE
佳康動物醫院,臺北市內湖區康寧路3段169-1號1樓,臺北市,內湖區,ChIJ8aa2erusQjQRu9BS1UqUtYY
佳園動物醫院,高雄市彌陀區中正西路43號,高雄市,彌陀區,ChIJkaqR30oJbjQR69NRKXAaqiY
佳愛動物醫院,臺南市東區崇明路167號,臺南市,東區,ChIJBUQtAZ12bjQRgSK4uNh_1zA
佳群動物醫院,臺中市西屯區福雅路51號,臺中市,西屯區,ChIJe8qBKa4VaTQRGvWk7Rq5O_Y
佳興家畜診所,台南市佳里區禮化里318號,台南市,佳里區,ChIJtSqkSKx_bjQReGzSKekp_g4
佳諾動物醫院,台南市永康區大橋里28鄰中華路685號,台南市,永康區,ChIJT5BUTd52bjQR95_Gzs5DREo
佳醫動物醫院,高雄市楠梓區德民路970號,高雄市,楠梓區,ChIJT9dtK3IPbjQRuYxMmOKQUwc
佰成動物醫院,高雄市大寮區鳳林三路674號,高雄市,大寮區,ChIJ7RyE9JwbbjQRdFIwJNlRVAA
侏儸紀野生動物專科醫院,臺中市西區英才路625號,臺中市,西區,ChIJEcNG1Hk9aTQRchCz1C76I00
兔兔堂中西獸醫兔專科診所,臺中市西區向上路一段17巷4-2號,臺中市,西區,ChIJRQpQcQA9aTQRhcrWrs2Zg1k
兩角銀馬匹專科診所,高雄市三民區遼寧一街10號,高雄市,三民區,ChIJ9005CQAFbjQRu0y7wPjkpY0
協和動物醫院,臺中市大甲區中山路一段825-6號,臺中市,大甲區,ChIJ6-LqMf8RaTQROa2B7TTFPbA
呼嚕貓專科醫院,新北市板橋區光武街95號,新北市,板橋區,ChIJGSMLDoupQjQRbC4x2vezqrc
和平家畜診所,台南市麻豆區東角里民生路17-15號,台南市,麻豆區,ChIJiQj7dAB_bjQRoH85BLMvCTM
和平動物醫院,高雄市苓雅區和平一路60號,高雄市,苓雅區,ChIJ9Tm-u6IEbjQRJb0wlSQFbmo
和平動物醫院,桃園市八德區介壽路二段113號,桃園市,八德區,ChIJHZr0j9EYaDQRrsmj83o_cc0
和生動物醫院,新北市中和區連城路273號,新北市,中和區,ChIJ_2mYroACaDQREzDOrHderAw
和欣動物醫院,臺北市北投區雙全街7號1樓,臺北市,北投區,ChIJZ0nagtCrQjQRpSqCmsvNeKQ
和動物醫院,台北市信義區基隆路1段115號1樓,台北市,信義區,ChIJK09JV8qrQjQRg8stNzOCqbQ
奇奇動物醫院,新北市林口區文化3路1段437號,新北市,林口區,ChIJHbLIWtimQjQRgtuvwnSztFA
奇昀動物醫院,桃園市桃園區民生路374號,桃園市,桃園區,ChIJYZss_f4eaDQRgoXIue-UTPM
奇美動物醫院,臺南市北區北安路一段89號,臺南市,北區,ChIJD2uKAPx2bjQRHO09AGMM_4o
奇異果動物醫院,臺南市安平區平通路377號,臺南市,安平區,ChIJv5B32Wd2bjQR23r3MgSgdQ4
姆卡動物醫院,桃園市中壢區龍慈路79號,桃園市,中壢區,ChIJdQbVBgAjaDQR7FPoJqIoB-o
宜家動物醫院,臺中市大里區國光路二段555-6號,臺中市,大里區,ChIJH7oAIuU8aTQRVnUp6dED4d0
尚大動物醫院,高雄市小港區康莊路142號,高雄市,小港區,ChIJScRyBtscbjQRyHnxOeCCQ9k
尚虹動物醫院,新北市汐止區康寧街455號1樓,新北市,汐止區,ChIJJblOfExTXTQRZGbv8CugX40
岡山德民動物醫院,高雄市岡山區大仁北路240號,高雄市,岡山區,ChIJeQlkNaMNbjQRqLPVrlLHOmY
幸福動物醫院,桃園市桃園區大業路二段243號,桃園市,桃園區,ChIJKZbklEoeaDQR2bTPC8XGsiI
庚欣動物醫院,臺中市北區雙十路二段77號,臺中市,北區,ChIJtyiL8F09aTQR_2edkajhuTc
底佳動物醫院,高雄市楠梓區德賢路220巷31號,高雄市,楠梓區,ChIJ386zn0EPbjQRTilwvgdwaEQ
延平動物診所,桃園市平鎮區南京路6號,桃園市,平鎮區,ChIJvf8NwwgjaDQR9o6Pu28mEiM
延吉動物醫院,新北市永和區永貞路82號,新北市,永和區,ChIJMSF1VO-pQjQRftZf-zSCaQM
彼沐動物醫院,桃園市龍潭區中豐路267號,桃園市,龍潭區,ChIJS18-rT09aDQRBIbUS1DZAUQ
忠二動物醫院,高雄市路竹區華正路155巷11號三樓,高雄市,路竹區,ChIJkUjzPQALbjQRZkBtpCkGVOI
忠心動物醫院,臺中市豐原區水源路510號,臺中市,豐原區,ChIJ5TmQTxQaaTQRV0MhpmFs2rk
忠平動物醫院,高雄市大社區中山路98號一樓,高雄市,大社區,ChIJRQy7TyoQbjQRPvYS-ylBgp8
忠正動物醫院,新北市蘆洲區中正路277號,新北市,蘆洲區,ChIJR_5wwLWoQjQRPq_xyBZzisg
忠信動物醫院,高雄市苓雅區和平一路149之13號,高雄市,苓雅區,ChIJXxgcElcDbjQRnXtceeSQVkg
忠義動物醫院,台南市下營區大埤里2鄰15號,台南市,下營區,ChIJ495kk4x9bjQRgUEbos1pVxM
忠誠獸醫院,臺北市士林區文林路734號一樓,臺北市,士林區,ChIJCTjqfJauQjQRtMSJLSSqBJI
念念動物醫院,新北市新莊區新知三路61號,新北市,新莊區,ChIJG7JoBQCpQjQRjMtGg719wDA
怡安動物醫院,臺南市永康區中正北路27號,臺南市,永康區,ChIJrR0UbUZ3bjQRryUEjhKUtkQ
怡安啄木鳥動物醫院,臺南市安南區怡安路一段476號,臺南市,安南區,ChIJ4xX_HwR3bjQRhct0ScmFGc4
承大動物醫院,新北市中和區員山路77巷11弄8號,新北市,中和區,ChIJgRYAtpoCaDQR16uCPbafztY
承宏家畜醫院,高雄市三民區綏遠一街133號,高雄市,三民區,ChIJ22VbavoEbjQRh7rPZVCMiUM
抱一抱動物醫院,桃園市平鎮區文化街56號,桃園市,平鎮區,ChIJU4MBREAjaDQRxN2wAesjVt0
旺竹動物醫院,臺北市大同區承德路3段142號,臺北市,大同區,ChIJK2RBP0apQjQRrV46AkBHsfw
旺旺動物醫院,桃園市龍潭區龍元路58號,桃園市,龍潭區,ChIJz07VQOM8aDQRLNnDtih27HI
旺旺動物醫院,高雄市旗山區延平一路351號,高雄市,旗山區,ChIJ-W_p5UxqbjQRoa7hO7xO5Rw
旺喵動物診所,台南市永康區中華路370號,台南市,永康區,ChIJIQQteNx2bjQRpnfX-DEW2pg
易安動物醫院,臺中市大里區新仁路二段169號1樓,臺中市,大里區,ChIJf6trdhw9aTQRFiKP8EDVTjg
昌展動物醫院,臺北市士林區延平北路6段160號1樓,臺北市,士林區,ChIJ-UVP786uQjQRAo3jQqVWGOs
明佳動物醫院,新北市中和區宜安路125號1樓,新北市,中和區,ChIJzYbrP9-pQjQR6yjguRG3geI
明誠動物醫院,臺北市大安區瑞安街45號1樓,臺北市,大安區,ChIJgV4CnCyqQjQRJpBjkwmuOik
明誠動物醫院,高雄市仁武區八德一路277號一樓,高雄市,仁武區,ChIJk3bI3R4FbjQRc-6xS7vQSx8
明德動物醫院,臺北市北投區明德路115號1樓,臺北市,北投區,ChIJ9dXNH5KuQjQR8VAyLWY9hMg
明滙動物醫院,新北市新店區安祥路104-7號GF,新北市,新店區,ChIJR9sNJv4CaDQRk1iZPdYk1Hk
昇昇動物醫院,新北市樹林區大成路399號,新北市,樹林區,ChIJ2QucSXIcaDQRyGT1NX8Us1w
昇牧動物診所,台南市左鎮區榮和村13鄰菜寮61-4號,台南市,左鎮區,ChIJZe5ah1F3bjQRWQ5qeBMtNdg
東大動物醫院,臺中市東區信義街43號,臺中市,東區,ChIJJ3-LPBc9aTQR0hSv603bgZo
東山動物醫院,臺中市北屯區北屯路281之4號,臺中市,北屯區,ChIJFdvcm-UXaTQRo-kfkSEpX38
東宏動物醫院,臺北市中山區吉林路432號1樓,臺北市,中山區,ChIJNZ5Fp1CpQjQRAm0l5_MW6dI
東京動物醫院,台南市新營區進修街99號,台南市,新營區,ChIJNzCl0NaFbjQRDlELaxQOigU
東昇動物醫院,桃園市楊梅區新成路109號,桃園市,楊梅區,ChIJMY0zRjU7aDQR2EvT8HcwI3k
東林動物醫院,高雄市林園區鳳林路一段200號,高雄市,林園區,ChIJbU9jetTjcTQRNQS81LrdojY
東南動物醫院,臺中市北屯區崇德路二段30號,臺中市,北屯區,ChIJ8YoeftIXaTQRXTaixE7i_h0
東海天興動物醫院,臺中市龍井區遊園南路106號,臺中市,龍井區,ChIJu-tzAig-aTQRWUD0KvUZUIE
東海動物醫院,高雄市前金區成功一路367號,高雄市,前金區,ChIJIZTdXXwEbjQRNPQztu2C-Q4
東湖動物醫院,臺北市內湖區東湖路43巷15號1樓,臺北市,內湖區,ChIJZ7BYHLusQjQRy8lgG1zCg9E
東勢動物醫院,臺中市東勢區東關路七段356號1樓,臺中市,東勢區,ChIJqTo-TmAcaTQRzvx7AaTz1AA
東憲動物醫院,新北市蘆洲區長樂路36號1樓,新北市,蘆洲區,ChIJGRv28kypQjQRuwH6qgQNT5o
東興動物醫院,臺中市西區東興路3段164號,臺中市,西區,ChIJMz6Bcpc9aTQR0fotivKVc94
林口動物醫院,新北市林口區中正路496號1樓,新北市,林口區,ChIJT5TGofqmQjQRyyCRpKm3vfk
林克動物醫院,臺北市中山區林森北路506號1、2樓,臺北市,中山區,ChIJNe5MN_OpQjQRwMnIBODv7qM
林動物醫院,桃園市龜山區復興二路110巷62號,桃園市,龜山區,ChIJQz4iqCinQjQRbPaRluvru78
林園動物醫院,高雄市林園區林園里林園北路434號,高雄市,林園區,ChIJkWUaM4EdbjQRcez58UY3_ks
杰禾動物醫院,臺南市東區仁和里10鄰仁和路133-3號,臺南市,東區,ChIJH7IZIxx0bjQRoY_NOPWeJBk
杰輝家畜醫院,新北市新莊區西盛街一五九號,新北市,新莊區,ChIJc9pu1_WnQjQRREM3TvoQLX4
板新動物醫院,新北市板橋區中正路332-11號,新北市,板橋區,ChIJ4zrsVA6oQjQRgIgBA80x0cg
板橋上弦動物醫院,新北市板橋區府中路126號之1號,新北市,板橋區,ChIJ3z5z3TypQjQRYbz6RVDBReg
板橋台大動物醫院,新北市板橋區文化路2段11號1樓及2樓,新北市,板橋區,ChIJCwQIiBWoQjQRkoEnITMPAmA
板橋動物醫院,新北市板橋區文化路2段522號1樓,新北市,板橋區,ChIJpSrGWESoQjQRomHHqXplhzI
松山動物醫院,臺北市信義區松山路275號,臺北市,信義區,ChIJs1Sy7qGrQjQRVwKlyBNvlvY
欣民動物醫院,高雄市鳳山區瑞隆東路25號,高雄市,鳳山區,ChIJBfwlo6ocbjQR1J5BxveKrqs
欣光犬貓專科醫院,新北市板橋區中正路332-3號,新北市,板橋區,ChIJcbi7JQCpQjQRLYQyaKFbWjk
欣欣動物醫院,新北市蘆洲區中山一路160號,新北市,蘆洲區,ChIJ-SQ6E9epQjQR9NE3HLP1Z98
欣欣動物醫院,桃園市龜山區萬壽路2段918號,桃園市,龜山區,ChIJY1I8D8wfaDQRMBZKxKo0b-k
欣欣動物醫院,臺中市大里區立新街226號,臺中市,大里區,ChIJ8_VnaNA8aTQRyDvex3IM3fA
河童動物醫院,臺南市永康區自強路615號,臺南市,永康區,ChIJIyB8qbdwbjQR4qtmduQC9pU
河碧家畜診所,台南市麻豆區興中路41號,台南市,麻豆區,ChIJiQj7dAB_bjQRoH85BLMvCTM
波可動物醫院,高雄市左營區自由四路367號,高雄市,左營區,ChIJ-0Cdf_YFbjQRbesCYU-Iuts
波拉動物醫院,臺北市中山區長安東路2段12號,臺北市,中山區,ChIJi26T9WypQjQRmMT2gbMgYfA
波波動物醫院,臺中市西屯區寧夏路85號及85之1號,臺中市,西屯區,ChIJ-UF56oA9aTQRE_kbvhms6eg
波菲爾動物醫院,台南市新營區復興路156號,台南市,新營區,ChIJdcdEv9eFbjQRLIuwyRUwe0k
波羅動物醫院,臺南市東區中華東路三段452巷17號,臺南市,東區,ChIJhx3GUzx1bjQRowYuOS_6PFs
泡泡動物醫院,臺中市南屯區龍德路一段102號,臺中市,南屯區,ChIJ1cEvpKoQaTQRSPU3r7kTz0U
泛亞動物醫院,桃園市龍潭區東龍路285號,桃園市,龍潭區,ChIJmfl_dQA9aDQRsovcgz2ElhI
牧平動物醫院,新北市新莊區麗水街81號,新北市,新莊區,ChIJMeOakZ2pQjQRXncivmu2UCY
牧光特殊寵物專科醫院,臺北市大同區民族西路65號,臺北市,大同區,ChIJ5T_QT4KpQjQRO3YYcJpD3yI
牧羊人動物醫院,桃園市蘆竹區南順五街11號,桃園市,蘆竹區,ChIJZXZsVdwfaDQRJGSZeK4Ub5M
牧村動物醫院,新北市板橋區中山路2段28號,新北市,板橋區,ChIJC0ZM6DyoQjQRWRKNj_1Yos0
狗尾草動物醫院,臺北市信義區和平東路3段361號1樓,臺北市,信義區,ChIJjdNOcYSrQjQRMWeVd_G9WfA
狗脾氣動物醫院,臺中市清水區五權東路11號,臺中市,清水區,ChIJK3WAFW0TaTQRPliVuoC27dQ
知心動物醫院,桃園市平鎮區中正五路156號,桃園市,平鎮區,ChIJ-YnRDAAjaDQR5gfEd18NF5o
社子動物醫院,臺北市士林區延平北路5段191號1樓,臺北市,士林區,ChIJDQ4WE8uuQjQRO5ynWiwHodg
舍享動物醫院,新北市板橋區林園街22號1樓,新北市,板橋區,ChIJZTECVDipQjQRcNwFvG5201M
芝山動物醫院,臺北市士林區文林路762-2號1樓,臺北市,士林區,ChIJj47anZeuQjQRFROg5hK5RMw
芥菜種動物醫院,臺南市永康區東橋10街32號,臺南市,永康區,ChIJw02KsiZ3bjQR6kgZLQ5btUM
芯安動物醫院,新北市淡水區民族路33-7號,新北市,淡水區,ChIJ6bp1BZ6vQjQRoSzkwNGl6LE
初日動物醫院,新北市新店區民族路25號,新北市,新店區,ChIJFx_x0GQBaDQRcFZSN_cJ3_k
迎光動物醫院,臺中市北屯區建和路一段99號,臺中市,北屯區,ChIJuYhtGQAZaTQRxWkxEpv8ELo
返璞動物醫院,桃園市蘆竹區南山路二段453號,桃園市,蘆竹區,ChIJiz560HWgQjQRUheRiqkd-V8
近易動物醫院,新北市中和區連城路428巷6弄9號,新北市,中和區,ChIJJxbs-n4DaDQRUuz1Thfajgg
金氏動物醫院,新北市新店區中興路1段208號1樓,新北市,新店區,ChIJnT1xsWcBaDQRu7R8Hhkt4vk
金生動物醫院,臺中市南屯區大墩路671號1樓,臺中市,南屯區,ChIJ4Zezj5Y9aTQR_5fMrghui_A
長弘動物醫院,臺南市永康區正強街139號,臺南市,永康區,ChIJ8U_FzsxwbjQR0N4WEmRIm5M
長生動物醫院,"桃園市中壢區環中東路二段22,24號",桃園市,中壢區,ChIJbxyBgWoiaDQRRQkFtTsxHO0
長生動物醫院,臺中市南屯區南屯路二段52號1樓,臺中市,南屯區,ChIJy7yOPbA9aTQR5N674oQhF-M
長佐動物醫院,新北市板橋區永翠路348號1樓,新北市,板橋區,ChIJwcWmhSypQjQRjFty0SLEmJ8
長宏動物醫院,臺北市中山區吉林路173號,臺北市,中山區,ChIJS2prPFypQjQRQ6a0lZ60O54
長沁動物醫院,臺北市大同區承德路3段9號1樓,臺北市,大同區,ChIJnVFdVD-pQjQRBKEAGm-BnZ4
長和動物醫院,臺中市南區國光路45號,臺中市,南區,ChIJfQz7TQU9aTQRPXL2-ZLQ5hU
長和動物醫院,高雄市新興區忠孝一路245號,高雄市,新興區,ChIJ8wDYho4EbjQR3-5hGdkRmh0
長庚家畜醫院,高雄市鼓山區鼓山一路31之2號,高雄市,鼓山區,ChIJy41KGHUEbjQRpDXADk4EGrg
長庚動物醫院,臺南市新營區中山路100號,臺南市,新營區,ChIJda__vd6FbjQRzOD_ZeGQYyk
長明動物醫院,台南市佳里區文化路343號,台南市,佳里區,ChIJx_9iK0x_bjQRPmrardB3Xrw
長門動物醫院,高雄市苓雅區福德二路73號,高雄市,苓雅區,ChIJXV8VyeYFbjQR-D_O_jIWj7w
長青動物醫院,臺北市萬華區廣州街78號1樓、78-1號1、2樓,臺北市,萬華區,ChIJQ2DBHaapQjQRKPjWcGvFhao
長青動物醫院央北分院,新北市新店區央北一路112號,新北市,新店區,ChIJ9XzEQQADaDQR-XnD7HlPQjE
長青動物醫院長安分院,臺北市大同區長安西路289-1號,臺北市,大同區,ChIJ3YX0rdOpQjQRXdrU-z8Qp9s
長春心時代動物醫院,臺中市西屯區西屯路二段17之1號,臺中市,西屯區,ChIJLcFK2ck9aTQR2YkLCHA0QSE
長春動物醫院,桃園市龜山區萬壽路2段960號1樓,桃園市,龜山區,ChIJTQ_sFmIeaDQRFYbWpGzrQF4
長慶動物醫院,台北市內湖區東湖路7巷七號1樓,台北市,內湖區,ChIJUXScFbusQjQRc5aBxVs89f8
阿牛犬貓急診醫院,臺北市士林區基河路238號1樓,臺北市,士林區,ChIJCW7YE5KvQjQRcOc5CTFd5Pw
青山動物醫院,桃園市桃園區春日路229號,桃園市,桃園區,ChIJAQAs2fgeaDQRh1cicIBFjmA
青谷動物醫院,桃園市中壢區洽溪路179號,桃園市,中壢區,ChIJb9xCVBohaDQRJdHYfqPNUoM
青亞動物醫院,新北市板橋區光環路1段80號1樓,新北市,板橋區,ChIJMeF3taWpQjQRVoWapmc7kMM
青林動物醫院,高雄市鳳山區新富路486號,高雄市,鳳山區,ChIJF3uGVAAbbjQRXPYytXQFZXQ
青青動物醫院,桃園市中壢區永能路35號,桃園市,中壢區,ChIJ4ylmD9AhaDQRLe5Zvo0nXy4
青青動物醫院,新北市三重區重新路三段31-3號1樓,新北市,三重區,ChIJX0Qzqx-pQjQRwCmj7f3nsUo
非凡動物醫院,臺中市太平區鵬儀路1-4號,臺中市,太平區,ChIJr6IXWcwiaTQR0oO-Cd3hocU
信安家畜醫院,新北市蘆洲區中正路142號,新北市,蘆洲區,ChIJDfvF-smoQjQRg-Ti9_ekZI8
信安動物醫院,臺中市北區健行路638號,臺中市,北區,ChIJOUnwg3w9aTQRAQ-n981OvHU
信安動物醫院,桃園市龜山區新路里自強南路82號,桃園市,龜山區,ChIJjVKgt4keaDQRR7K41QIpWHQ
信揚動物醫院,臺中市南屯區南屯路二段271號,臺中市,南屯區,ChIJpTY0Prc9aTQRLZhIFpVGDEw
冠友動物醫院,桃園市平鎮區中豐路南勢二段150號,桃園市,平鎮區,ChIJMW7E5yMjaDQRxpchnkXl5Ho
冠生動物醫院,臺中市西屯區河南路二段108號,臺中市,西屯區,ChIJOUGxRIo9aTQR3oUwu-NZBsw
冠安動物醫院,高雄市苓雅區中正二路131之1號,高雄市,苓雅區,ChIJewdDEpQEbjQRay_If9oq1DU
勇翔動物醫院,高雄市楠梓區常德路308號,高雄市,楠梓區,ChIJfW2cUdMPbjQR6WvYRQwmcQk
南京太僕動物醫院,臺北市松山區南京東路5段286號1樓及B1,臺北市,松山區,ChIJ3QeZwJarQjQRdRucQezyKKY
南崁動物醫院,桃園市蘆竹區中正路379號,桃園市,蘆竹區,ChIJA3ek3XWgQjQREYk3e17fd1k
南勢角動物醫院,新北市中和區捷運路20號1樓,新北市,中和區,ChIJ_0u0wHMCaDQRxHjM5U_joF8
厚德動物醫院,臺北市士林區華齡街54號1樓,臺北市,士林區,ChIJeXwuBLSuQjQRtExyiZiWanQ
品安動物醫院,高雄市三民區同盟一路73號一樓,高雄市,三民區,ChIJhVW3KNgEbjQR84KZFcXnsKc
品安動物醫院,臺北市文山區羅斯福路6段89號1樓,臺北市,文山區,ChIJzbBzGAOqQjQR5AQTWZQ6vdk
品品動物醫院,臺中市豐原區中山路157號,臺中市,豐原區,ChIJdSLwZFUXaTQRNfVrK7qT0rs
品家動物醫院,臺中市北屯區昌平路一段304號,臺中市,北屯區,ChIJw6M9RuEXaTQR7O8SCwG4uGM
品湛動物醫院,桃園市桃園區民生路495號之9,桃園市,桃園區,ChIJpT9aFnUfaDQR1Ej2Vs0m8Pg
品馨動物醫院,臺中市西區忠明路4號,臺中市,西區,ChIJP7Oiimo9aTQRgaziluQkiuU
哈比動物醫院,新北市新莊區幸福路596號及600號,新北市,新莊區,ChIJDUSxCE6pQjQRxq9oXCUVWKg
哈囉彼得動物醫院,臺中市南屯區東興路二段29號,臺中市,南屯區,ChIJS3WAqCI9aTQRg4nZ2mKF-tE
奕良57動物醫院,臺中市后里區甲后路一段592號,臺中市,后里區,ChIJ96TNXPMoDxQRsqvZ5toLhHc
奕良家畜醫院,高雄市左營區新莊一路183號,高雄市,左營區,ChIJ96TNXPMoDxQRsqvZ5toLhHc
威安動物醫院,新北市中和區安平路25號,新北市,中和區,ChIJ6-ejzXUCaDQRqo-zn574zzg
威爾頓動物醫院,桃園市大溪區埔頂路二段62號,桃園市,大溪區,ChIJC_PdRXEcaDQR--jL1dJ3jbw
巷內有貓動物醫院,臺中市北區英才路319巷23號,臺中市,北區,ChIJgYzLOtQ9aTQR5_-DS7gfPwU
巷弄動物醫院,臺中市南區復興路二段15巷28號,臺中市,南區,ChIJoavwdlE8aTQRfKi7DHG47Qg
建安動物醫院,臺中市大甲區鎮政路58-7號,臺中市,大甲區,ChIJo8izHAIOaTQRjYh5NUbO3pg
建牧動物醫院,臺中市大甲區通天路276號,臺中市,大甲區,ChIJo8izHAIOaTQRjYh5NUbO3pg
後埔動物醫院,新北市板橋區館前西路156-1號1樓,新北市,板橋區,ChIJs3jXO6gCaDQRgvAiqZTdpnk
思邁爾動物醫院,桃園市桃園區莊敬路二段100巷3號,桃園市,桃園區,ChIJqynrFbkfaDQRboavhnJ5NiA
思邁爾動物醫院中壢分院,桃園市中壢區環北路562號,桃園市,中壢區,ChIJd0iUgzoiaDQRJBShm4cducE
恆心動物醫院,桃園市新屋區三民路585號,桃園市,新屋區,ChIJR2FP-v4laDQR3NctdItsgoo
恆生動物醫院,桃園市中壢區中美路一段13號,桃園市,中壢區,ChIJtRDRZzYiaDQR0v7gvsJfJKs
恆揚獸醫院,新北市新莊區幸福路904號1樓,新北市,新莊區,ChIJifQSfdanQjQRP25dBDhPzIk
拾貳寵動物醫院,高雄市鼓山區青海路396號,高雄市,鼓山區,ChIJW5v8LqwFbjQRhidnUY1I8qk
春天動物醫院,桃園市桃園區自強路52號,桃園市,桃園區,ChIJVVVVVVYeaDQR9LIhW7iBnw4
春天動物醫院,臺中市北區進化北路294號,臺中市,北區,ChIJT-3_rtgXaTQRX3mnnSB6kI0
春日動物診所,桃園市桃園區春日路975巷2之1號,桃園市,桃園區,ChIJZeFfjFMeaDQR3p7Rca52yCQ
春風動物醫院,桃園市蘆竹區大新路171號1樓,桃園市,蘆竹區,ChIJTRTpqx0haDQR97zYO1f5ZVA
星光動物醫院,臺北市信義區莊敬路325巷23號,臺北市,信義區,ChIJabSwAm2rQjQRWbubntO4Zak
星光動物醫院,台中市龍井區遊園南路403號,台中市,龍井區,ChIJAbCDwyg-aTQRHH724d1gdkY
星宇動物醫院,新北市蘆洲區長榮路256號1樓,新北市,蘆洲區,ChIJS6kqHWipQjQRtIXBkE8bsbM
星安動物醫院,新北市永和區環河東路一段80號,新北市,永和區,ChIJlWMaobqpQjQRyQcC3Fe_V5A
星羽動物醫院三民院,高雄市三民區信國路20號,高雄市,三民區,ChIJJbR-TgAFbjQRgtrth64JqU0
星羽動物醫院大寮分院,高雄市大寮區鳳林路四段790之1號,高雄市,大寮區,ChIJCSKAEeXjcTQRSytlXur4vi8
星辰動物醫院,臺北市信義區松隆路225號1樓,臺北市,信義區,ChIJr1XQNJmrQjQRcq657aSTFPI
昱康動物醫院,高雄市鳳山區博愛路107號,高雄市,鳳山區,ChIJp4TM8BMbbjQROcYSixVyxJw
柯建章動物醫院,台南市仁德區中正西路20號,台南市,仁德區,ChIJjxGvRex0bjQRwzRBbCkY4Go
查米動物醫院,臺北市士林區忠誠路2段70巷4號,臺北市,士林區,ChIJW4ABFjuvQjQRE8HmZcsAb1U
柏正動物醫院,高雄市左營區自由二路17號,高雄市,左營區,ChIJ9xGGdQIFbjQRmF73-8hef78
柏林動物醫院,桃園市桃園區龍安街68號,桃園市,桃園區,ChIJa2fCMGofaDQR9b1BeqHrRLc
泉野動物診所,桃園市桃園區正光一街86號,桃園市,桃園區,ChIJqVIBHIQfaDQRr81oUctlyGo
洪生動物醫院,臺北市南港區忠孝東路7段571號1樓,臺北市,南港區,ChIJFSAGoFmrQjQRbA9ajke8mr4
洽昌動物醫院,臺中市沙鹿區中山路463巷1號,臺中市,沙鹿區,ChIJVUa5ZfAUaTQRbos_e4j3I7U
為了一隻狗開一家動物醫院,新北市新店區中興路2段219號1樓,新北市,新店區,ChIJfzMyxoIBaDQRGrar09Sezwg
珍珠動物醫院,臺中市西區三民西路73號,臺中市,西區,ChIJw4RdgKc9aTQRHWJPqqTBN6E
珍寶動物醫院,新北市新莊區中平路270巷2號,新北市,新莊區,ChIJAbf6QvinQjQRX9Rxxv0mc9w
皇合動物醫院,臺北市中山區建國北路3段121號,臺北市,中山區,ChIJQ600INypQjQRIsmNqALFMYM
皇家動物醫院,臺北市大同區民族西路228號1樓,臺北市,大同區,ChIJgQMaaTipQjQRBvEFSIqJirA
盈煇動物醫院,高雄市三民區建興路287號,高雄市,三民區,ChIJJSyR5NwEbjQRyQ1pNRaShfk
盼望動物醫院,臺南市麻豆區中山路116號,臺南市,麻豆區,ChIJ_5QVJId-bjQRZE1zxdfNy1k
祈癒動物醫院,高雄市仁武區京吉六路90號,高雄市,仁武區,ChIJUaDmPAAFbjQRACEpo3lCFpQ
紀劃動物醫院,臺北市中正區和平西路1段150-1號,臺北市,中正區,ChIJ4_ySF12pQjQRWjfhAeiEmPA
美生動物醫院,桃園市平鎮區環南路460之3號,桃園市,平鎮區,ChIJNSf3bK8jaDQRHl48Q4VEOqk
美安家畜醫院,臺中市西區民生路380號,臺中市,西區,ChIJL2hXk6E9aTQRxvMbUp_Ae1Y
美術德民動物醫院,高雄市鼓山區美術東四路32號,高雄市,鼓山區,ChIJZbDQ1mEFbjQRzvBuwPNn1zs
美濃中壇獸醫院,高雄市美濃區復興街一段12號,高雄市,美濃區,ChIJKZE6it5BbjQRTR8_6vmN3Qs
耐旺福動物醫院,臺中市北屯區松竹路二段383-5號,臺中市,北屯區,ChIJp1dCbgIXaTQRBD13bN2t5RQ
耐斯動物醫院,桃園市中壢區環中東路189之1號,桃園市,中壢區,ChIJCRFPmAYiaDQR_Z0Pic3498Y
胖皮動物醫院,新北市蘆洲區復興路174號1樓,新北市,蘆洲區,ChIJDXXUOs2oQjQRr7YtVrbv2NA
胖胖動物醫院,臺中市南區國光路58號,臺中市,南區,ChIJacvyTwU9aTQRxe5JIZ59bjU
范獸醫院,新北市汐止區大同路2段518號,新北市,汐止區,ChIJmx-YvxJTXTQRhdRpF8eELIk
茂生動物醫院,新北市三重區重新路1段64號,新北市,三重區,ChIJQ3PIySKpQjQRx7ittR26cdw
英山動物醫院,台南市麻豆區新建里麻學路一段15-3號9樓,台南市,麻豆區,ChIJUSkO3Yd-bjQRBGJwuhwkEoI
英仁動物醫院,臺中市烏日區光日路145號,臺中市,烏日區,ChIJL2QspR48aTQR07iLp3R0Zu0
英國皇家動物醫院,臺中市西屯區河南路二段429號地下一樓之2,臺中市,西屯區,ChIJE0XWuYo9aTQRgMggGfyC9MA
貞愛動物醫院,臺中市豐原區豐原大道四段457號,臺中市,豐原區,ChIJz-NOED0aaTQRR0Ne0uvGYaI
迦南動物醫院,臺中市南區高工路285號,臺中市,南區,ChIJab8G8lc8aTQRboNuHyb2n4E
迦美動物醫院,臺南市永康區大仁街202-1號,臺南市,永康區,ChIJ71LXcyhxbjQR7eaQ8ZrbIKM
迦勒動物醫院,新北市三重區中正南路114號,新北市,三重區,ChIJVeIDLBypQjQRNNOfY3COIUQ
重安動物醫院,新北市三重區三和路三段20號,新北市,三重區,ChIJIXvamCapQjQR1Unnjv1HbMI
飛梅利動物醫院,新北市新莊區中興街15、17號,新北市,新莊區,ChIJiXApkXWpQjQRLwH7oPPKv3Y
飛揚動物醫院,台南市白河區中山路2-10號,台南市,白河區,ChIJDdJVfhWObjQR66QrDqFdQn8
飛躍動物醫院,新北市新莊區中原東路200號,新北市,新莊區,ChIJVRMHzySpQjQRNn4NSwRoohU
哞哞乳牛專科診所,臺南市柳營區柳營81號,臺南市,柳營區,ChIJibMqcX2HbjQRoo5yppGV8gQ
垚凱動物醫院,高雄市三民區陽明路27號一樓、二樓,高雄市,三民區,ChIJf1pSRwAFbjQRq6d4fx3ys78
珈旭動物醫院,臺中市霧峰區中正路767-9號,臺中市,霧峰區,ChIJVcZfHY47aTQRLJ3L0Xk5Nwk
恒星獸醫院,桃園市中壢區龍文街35巷2號,桃園市,中壢區,ChIJaTLpx3siaDQRVWczr67Ge4A
剛果動物醫院,新北市新店區民權路48號6樓,新北市,新店區,ChIJR0tppf4BaDQRmo0WlHkZabY
原典動物醫院,新北市新店區中央5街15號,新北市,新店區,ChIJVbpOGBkCaDQRO8e_pwyZEVw
原野犬貓專科醫院,桃園市平鎮區廣德街15號,桃園市,平鎮區,ChIJDaadMT8jaDQRx1Qluts0pa4
原野特殊寵物專科醫院,桃園市平鎮區廣德街12號,桃園市,平鎮區,ChIJOSSSnswjaDQRNtY6VBXtv-s
哲安動物醫院,桃園市桃園區中山路632號,桃園市,桃園區,ChIJWa_aYhAfaDQR4aCo9rzuu7Q
員山動物醫院,新北市中和區中山路2段577號1、2樓,新北市,中和區,ChIJTU-tEfKpQjQRQHQb13lnmzU
夏洛克動物醫院,臺中市北屯區后庄路599號,臺中市,北屯區,ChIJm-jpOccXaTQR_GWF1MEg2UA
家安動物醫院,臺南市安南區海佃路2段32號,臺南市,安南區,ChIJmxLIqaF3bjQRUOgacH22n68
家安動物醫院,臺中市東勢區新豐街42號,臺中市,東勢區,ChIJ4ePxGoscaTQRUfu1uEGSxpU
家福動物醫院,高雄市岡山區岡山路612之25號,高雄市,岡山區,ChIJv-LbnDEMbjQRtvuzIOdYFCg
家麒獸醫院,新北市板橋區三重區力行路2段135號,新北市,板橋區,ChIJj_G2AZqpQjQRSeXuC12jaAk
展望動物醫院,臺北市萬華區中華路2段2號,臺北市,萬華區,ChIJSwFKzaWpQjQRMuY3LKifXeI
展翔動物醫院,新北市板橋區南雅西路2段97號,新北市,板橋區,ChIJZw716oipQjQRT1rfY0VUksE
展鵬獸醫院,新北市樹林區中正路757號,新北市,樹林區,ChIJQ-qDn3wdaDQRuKNRjfPh4Gg
峽灣動物醫院,臺南市北區西門路四段440、442號,臺南市,北區,ChIJa7yHZSt3bjQRrCGfaQpz7aA
庭美動物醫院,臺南市安南區北安路3段205號,臺南市,安南區,ChIJk4i-WqB3bjQRzVM2QvL2E-M
徐犬貓專科醫院,桃園市龍潭區中豐路中山段13號,桃園市,龍潭區,ChIJozNS1-M8aDQRRWIzgHO1C68
恩加動物醫院,臺北市信義區松山路315-2號1樓,臺北市,信義區,ChIJIUSMmaGrQjQRtWosR4g5rXA
恩亞動物醫院,臺北市松山區健康路325巷14號1樓,臺北市,松山區,ChIJfXqeCwCrQjQRP-gajLxuQ0A
恩典動物醫院,臺北市中山區民生東路2段45號1樓及2樓,臺北市,中山區,ChIJTweMsV2pQjQR8ToirK2tW8E
恩怡動物醫院,臺南市東區東門路2段242號,臺南市,東區,ChIJpRgQupl2bjQRWa4LUzcSUgQ
恩萊動物醫院,臺北市士林區承德路4段294號1樓,臺北市,士林區,ChIJh4BkSc2vQjQRwiW4Z_Orius
恩澤動物醫院,高雄市苓雅區武廟路160之2號,高雄市,苓雅區,ChIJhdYI82oFbjQRXWR2fDkw2wM
恩孺動物診所,臺北市中正區金山南路1段92號1樓,臺北市,中正區,ChIJYS4xaXipQjQRptGEWLnEHow
悅生動物醫院,高雄市左營區大中二路260號,高雄市,左營區,ChIJqWpBbwAFbjQRVC5KqrexpRk
振生動物醫院,桃園市平鎮區金陵路109號,桃園市,平鎮區,ChIJPQSxCE4iaDQRlu3WPjfuGBE
振愛動物醫院,桃園市中壢區龍東路188號,桃園市,中壢區,ChIJ5ZYLZn0iaDQRJQv3-oxmV_s
振源動物醫院,桃園市桃園區中山東路215號,桃園市,桃園區,ChIJWcy29_ceaDQRa6CS6Cp-OX4
核心動物醫院,臺北市內湖區舊宗路1段50號,臺北市,內湖區,ChIJRU4yNoKrQjQRb8AFxTGaojw
桂林動物醫院,高雄市小港區中安路598號,高雄市,小港區,ChIJ9ZMiRbgcbjQRBjCXwLU24yE
桔加G+動物醫院,桃園市大園區致祥三街40號,桃園市,大園區,ChIJrRDLKQAhaDQRG6ictsRh5gQ
桔醬動物醫院,桃園市楊梅區新成路27號,桃園市,楊梅區,ChIJ1din-_0laDQRr5_x22JWw5c
栗子動物醫院,臺中市太平區中山路三段2之5號,臺中市,太平區,ChIJ33Y9LlA9aTQRDGOvGX6VdKc
格林威治動物醫院,臺中市南屯區文心路一段486號,臺中市,南屯區,ChIJCedGUo09aTQR-j6FTlYhAEs
桃園市野鳥學會附設非營利野生動物診所,桃園市八德區高城五街22巷5弄5號,桃園市,八德區,ChIJcV3t9xAfaDQROISf50r9X7k
桃鶯動物醫院,桃園市桃園區桃鶯路101號,桃園市,桃園區,ChIJ7XNwPuUeaDQRl9tcq6uJDlI
泰安家畜診所,台南市學甲區中正路140號,台南市,學甲區,ChIJbRvFHAB_bjQRx6MzCo7C06E
泰安動物醫院,桃園市龜山區萬壽路二段1319號,桃園市,龜山區,ChIJMTn-2_QeaDQRjCS_7cioZ_Y
泰安動物醫院,高雄市鳳山區新武里瑞隆東路266號,高雄市,鳳山區,ChIJG2SUuVUDbjQRnlA4ct367Zc
泰安動物醫院,新北市永和區永貞路83號,新北市,永和區,ChIJs5vkFeapQjQRSeZTWnQAgxk
泰林動物醫院,新北市泰山區楓江路21號,新北市,泰山區,ChIJS7MdEjKmQjQRrOS9pf3EbDY
泰爾動物醫院,臺中市沙鹿區臺灣大道七段941號,臺中市,沙鹿區,ChIJVUa5ZfAUaTQRbos_e4j3I7U
泰興動物醫院,臺南市歸仁區大順街101號,臺南市,歸仁區,ChIJPbzvT3xxbjQRz-hZ4WiIrBY
烏鐸動物醫院,高雄市苓雅區中正一路139、141號,高雄市,苓雅區,ChIJccPry7kEbjQR_GsBRo9ME8Y
益豐動物診所,桃園市桃園區福林里3鄰吉多街96號,桃園市,桃園區,ChIJUTF2WmIfaDQRE7qm45QWgT8
真正動物醫院,新北市中和區安平路200-1號,新北市,中和區,ChIJU8jVJN6pQjQRlTEzNB4Kd2U
祐田動物醫院,臺中市北屯區崇德二路一段28號,臺中市,北屯區,ChIJq9dPxe0XaTQR4qfvKOaiVXE
祐熙動物醫院,臺北市南港區玉成街66-26號,臺北市,南港區,ChIJT1H6dberQjQRrbtoYReo6wM
純粹動物醫院,臺北市南港區興中路80巷24號,臺北市,南港區,ChIJjW040dqrQjQR_DGsQ7nw_Zw
紐約紐約動物醫院,新北市板橋區文化路2段139號1樓,新北市,板橋區,ChIJUQ7QYcOpQjQR5pq4Adm5LOk
紐特動物醫院,臺南市新營區南紙街119-8號,臺南市,新營區,ChIJX6H4F6AhaDQReKPQ3ayJ3eM
納嘉動物醫院,臺北市內湖區民權東路6段483號1樓,臺北市,內湖區,ChIJjzQr-72sQjQRH_ZC4HtHav4
耕莘動物醫院,新北市新店區光明街157號1樓,新北市,新店區,ChIJ5bmInIkBaDQR28Orjo26QUU
草衙動物醫院,高雄市前鎮區草衙二路497號,高雄市,前鎮區,ChIJpbCoGT0DbjQRviP4BWzStAU
馬汀動物醫院,臺中市大里區中興路二段386-4號,臺中市,大里區,ChIJnSX9vMI8aTQR5ym7IvchJck
馬汀動物醫院,高雄市左營區至聖路235號,高雄市,左營區,ChIJ-7BwXgIFbjQRf4q2xQ91GgY
馬汀動物醫院,台南市永康區中華路8-2號,台南市,永康區,ChIJDWVVu8Z2bjQRNS0KMifvVEA
馬達加斯加動物醫院,高雄市鳳山區中山東路105號,高雄市,鳳山區,ChIJkzwzvWobbjQRzjDBVxxOUzo
馬達加斯加動物醫院,新北市板橋區文化路二段500號1樓,新北市,板橋區,ChIJt_T7Z0SoQjQRCJclB7niL8E
高民動物醫院,高雄市鳳山區中山西路217之1號,高雄市,鳳山區,ChIJfU2W-DUbbjQRZTZqH4RYYZs
高生動物醫院,桃園市桃園區中山路419號,桃園市,桃園區,ChIJf0aUJBsfaDQRCObHYo56fW4
高生動物醫院,高雄市苓雅區三多一路287號,高雄市,苓雅區,ChIJm4Tr3roEbjQRTDRsZvFPZCk
高生動物醫院,臺中市南區信義南街249號,臺中市,南區,ChIJS5uyjRo9aTQRWWgVeq7l3B8
高頂動物醫院,臺中市太平區永成北路113號,臺中市,太平區,ChIJEeMBjtQiaTQRUSCIv9mzWA4
高登動物醫院,新北市新店區三民路106號,新北市,新店區,ChIJleAwYB4CaDQR0yXTCEuDyws
高雄市動物保護處,高雄市鳳山區忠義街166號,高雄市,鳳山區,ChIJ_8zFFzYbbjQRYhn7sRXJ2bs
高雄東林動物醫院,高雄市前鎮區二聖二路64號一樓,高雄市,前鎮區,ChIJQ7VO05oFbjQRlX10PkgigUI
淯生動物醫院,新北市三峽區復興路36-1號,新北市,三峽區,ChIJOw5cp_MbaDQRmQusXw5Sgv0
偉源動物醫院,高雄市楠梓區後昌路1048號,高雄市,楠梓區,ChIJ851L-70PbjQRrfZAUYVh7AU
健中動物醫院,高雄市三民區鼎中路230號一樓、二樓,高雄市,三民區,ChIJDdjaYxgFbjQRC6By2Cq8tWA
健生動物醫院,臺北市內湖區台北市成功路四段182巷8弄4號,臺北市,內湖區,ChIJ0b9jpPKsQjQRsRPNdlhRlb8
健生動物醫院,高雄市前鎮區一心一路275號,高雄市,前鎮區,ChIJ_2kN3GMDbjQRH6nYGtB0mLc
健生動物醫院,台中市大里區東榮路306號,台中市,大里區,ChIJJ1lzhhc9aTQRD4sQNNyZ1wk
健安動物醫院,高雄市苓雅區建國一路270號,高雄市,苓雅區,ChIJpybDTscEbjQRv7jUi4UaykQ
健康動物醫院,台中市南屯區河南路四段222號,台中市,南屯區,ChIJI8B7sek9aTQRH-oTc2yP7rA
動物之家獸醫院,臺南市東區小東路248-4號,臺南市,東區,ChIJXcPe9MR2bjQRDVUmpT2IeTM
曼巴動物醫院,桃園市中壢區元化路73號,桃園市,中壢區,ChIJ3QKgm_QjaDQR-SW32DruHmU
曼哈頓動物醫院,臺北市松山區市民大道4段77號,臺北市,松山區,ChIJLdi9QdurQjQRfWYgHqZMFhM
唯光動物醫院,新北市永和區中正路714號1、2樓,新北市,永和區,ChIJHaIScoqpQjQRU7M9_Ca5xj0
啤酒豬動物醫院,新北市汐止區忠三街120巷54號1樓,新北市,汐止區,ChIJZw3IEUtTXTQRfoz1qxbrqqY
國民動物醫院,高雄市燕巢區西燕里興隆巷12號,高雄市,燕巢區,ChIJyecbKFYTbjQRZGk7fEF10JE
國立中興大學獸醫教學醫院,臺中市西區向上路一段21號,臺中市,西區,ChIJNzfkZh09aTQRTmrQG1_vLyI
國立台中高農附設家畜醫院,臺中市東區台中路283號,臺中市,東區,ChIJuYinTRg9aTQRtRed-SiEcYo
國立臺灣大學生物資源暨農學院附設動物醫院,臺北市大安區基隆路3段153號,臺北市,大安區,ChIJAQBABySqQjQRHZy2pDlkpsk
國華動物醫院,高雄市前鎮區和平二路36號,高雄市,前鎮區,ChIJwZAxGF4DbjQRCSeJgaOw528
國寶動物醫院,臺北市中山區八德路2段229-2號,臺北市,中山區,ChIJF6U6RwCpQjQR6vUtNAzXgQ8
培昱動物醫院,高雄市鳳山區保泰路6號,高雄市,鳳山區,ChIJa_4JM9oDbjQRzEsiFsNF5yE
專心動物醫院,臺北市中正區仁愛路1段47號,臺北市,中正區,ChIJEcci1ymqQjQRQlvV10b8sX8
崇仁動物醫院,臺中市南屯區五權西路二段395號全棟(含2樓),臺中市,南屯區,ChIJy4oGMbg9aTQRyrJm3Bk4CVs
崇仁動物醫院,高雄市小港區平和路43號,高雄市,小港區,ChIJLbNgpdcCbjQRGvg-npOdsUM
崇倫動物醫院,臺中市南區忠明南路578號,臺中市,南區,ChIJC05O1K09aTQRPqlfQiLVd30
崇恩動物醫院,桃園市楊梅區文化街32號,桃園市,楊梅區,ChIJr3gh_UQjaDQRKNkzgcBXAz8
崇愛行動獸醫院,高雄市小港區廠前路2號一樓,高雄市,小港區,ChIJWxx__CB0bjQR5x3fLbcLSy4
崇愛動物醫院,臺南市東區崇明路463號,臺南市,東區,ChIJWxx__CB0bjQR5x3fLbcLSy4
崇德動物醫院,臺中市北屯區崇德二路二段159號,臺中市,北屯區,ChIJHWIZt8MXaTQRk8NVFjV0g2k
常明動物醫院,臺北市大安區復興南路2段322號1樓,臺北市,大安區,ChIJiWeKhC6qQjQRPrhkF5uJ1wA
常源動物醫院,臺北市士林區德行東路189號1樓,臺北市,士林區,ChIJMfNTV4OuQjQR8guQLN_sE7c
康禾動物醫院,高雄市前鎮區復興三路313號一樓、二樓,高雄市,前鎮區,ChIJPcOc8mIDbjQRJqAR1HnGBKY
康廷動物醫院,臺北市中正區和平西路2段58-1號1樓,臺北市,中正區,ChIJKd2CX5ipQjQRjJ-sK1TNuzA
康展動物醫院,新北市永和區福和路316-1號,新北市,永和區,ChIJV5mZfQCpQjQRFOJGjhmI8iI
康泰動物醫院,台北市內湖區康樂街164-1號1樓,台北市,內湖區,ChIJSZ_rGLesQjQRj3qbKyfvHpk
康淇動物醫院,桃園市中壢區元化路2段50號,桃園市,中壢區,ChIJaUdgEjQiaDQRdC0D_9c3E9o
康莊動物醫院,高雄市小港區康莊路15號,高雄市,小港區,ChIJYc0vTdocbjQRwNGXlL6-Xt8
康普動物醫院,臺北市松山區南京東路四段141號1、2樓,臺北市,松山區,ChIJC80KLEurQjQRZEcA0CwwDg4
康翔動物醫院,臺南市新營區長榮路一段559號,臺南市,新營區,ChIJDR_xYcCFbjQRQq9k_pgEqPQ
康寧動物醫院,臺北市萬華區長沙街2段157號,臺北市,萬華區,ChIJDz0wAaipQjQRgrf1K8EdxW0
康熙動物醫院,臺中市北區天祥街2號,臺中市,北區,ChIJF-vB9eEXaTQRBWOnVWl4CE4
康爾維動物醫院,新北市新店區安康路2段308號,新北市,新店區,ChIJTya3mFICaDQR0zMI270L6Fo
康維乳牛專科診所,臺南市新營區金華路一段128號,臺南市,新營區,ChIJibMqcX2HbjQRoo5yppGV8gQ
康德動物醫院,臺中市北屯區崇德路二段270號,臺中市,北屯區,ChIJDcNFJwYXaTQRVwAUOXNMHc8
康寶動物醫院,新北市中和區中興街130號1樓,新北市,中和區,ChIJbTQVtXsCaDQRWn4mm5BksSg
康馨動物醫院,新北市土城區中央路一段234號,新北市,土城區,ChIJux9OWTMdaDQRBNIxE7VYOIY
張賽鴿動物醫院,高雄市三民區澄清路535號,高雄市,三民區,ChIJGU9c5SwbbjQRMZEn_95e71k
強生動物醫院,臺中市西屯區漢口路一段137號,臺中市,西屯區,ChIJ822u1YU9aTQRW6VK82QuVNo
強生動物醫院,臺南市中西區臨安路一段237號,臺南市,中西區,ChIJ7WV2Mmd2bjQRBpuV7mp9oVQ
強森動物醫院,高雄市前鎮區鄭和南路412號,高雄市,前鎮區,ChIJbZVsmWYDbjQRwMnj4ePgDeA
彩虹動物醫院,臺中市大里區國光路2段318號,臺中市,大里區,ChIJaZ6rBu88aTQRW6nhQi8T_Lo
彩虹動物醫院,桃園市桃園區大興西路一段221號1樓,桃園市,桃園區,ChIJ5yZo76UfaDQRy-1jCwoxkmk
惟心動物醫院,桃園市桃園區大興路207號1、2樓,桃園市,桃園區,ChIJF64lckweaDQRK6dXrwKnaMw
惟新動物醫院,臺北市中山區明水路672巷34號1樓,臺北市,中山區,ChIJS14lyRGsQjQR_wSbv-0vGks
捷飛達動物醫院,高雄市左營區榮總路396號,高雄市,左營區,ChIJSzdhwEIFbjQRyT-7Gj0mY58
啟仁動物醫院,臺中市大里區中興路一段364號,臺中市,大里區,ChIJXSdYgr48aTQRnO3GjPio5fk
啟仁動物醫院,台南市善化區大成路338號,台南市,善化區,ChIJHVfEG357bjQRTJdZhxQL3u8
晨心動物醫院,高雄市三民區建元路26號,高雄市,三民區,ChIJB6QI990EbjQR5uRk7smDICM
晨星動物醫院,臺中市西區大明街4號,臺中市,西區,ChIJ1Z1nNAw9aTQRDR4RethGfjw
晨曦動物醫院,桃園市桃園區龍安街193號,桃園市,桃園區,ChIJszCshhIfaDQR9JkVNS7kWCM
梁動物醫院,桃園市龍潭區東龍路136號,桃園市,龍潭區,ChIJ6_tNOf08aDQRi8NrpB-Ee4g
梅西動物醫院,高雄市左營區文府路498號,高雄市,左營區,ChIJh1uDlJgFbjQR21JPlaPupu4
梅島動物醫院,臺中市西屯區西屯路三段148之37號,臺中市,西屯區,ChIJLzOUDBkWaTQRspQVdPevw5o
梅森動物醫院,臺中市大里區中興路一段316-3號,臺中市,大里區,ChIJs8Ooy7s9aTQRFL6V0koZ4lw
淡水動物醫院,新北市淡水區中山路159之2號,新北市,淡水區,ChIJ0xacT1elQjQRyBSBFIanrGs
清豐動物醫院,高雄市楠梓區鳳楠路259號,高雄市,楠梓區,ChIJ11feqcUPbjQRhDKI6bCqfcw
牽牽手動物醫院,高雄市三民區永年街38號,高雄市,三民區,ChIJbYNYYDQFbjQR20xDOszX6is
現代動物醫院,高雄市前金區自強二路41號,高雄市,前金區,ChIJF-wl6H0EbjQRfKUz69wx6os
琍生動物醫院,高雄市三民區博愛一路273號,高雄市,三民區,ChIJHZVY9vkEbjQRY3o5XpbaKIU
甜心動物醫院,臺南市永康區勝利街1巷56號,臺南市,永康區,ChIJT49QAsJ2bjQRaxw2_qh9rpE
眾新動物醫院,新北市汐止區新興路4號1樓,新北市,汐止區,ChIJCevKj2tTXTQRwLnxQRMZOto
祥泰動物醫院,台南市永康區大灣路340號,台南市,永康區,ChIJswfA6CZxbjQRj0MjQpBQFWU
祥億動物醫院,臺中市南區復興路一段259號,臺中市,南區,ChIJkzTlWEQ8aTQRoppWezSuSl0
莎拉咪動物醫院,臺中市西區精誠四街6號,臺中市,西區,ChIJicW_qfU9aTQRoZsPsELqjDc
莫莉動物醫院,高雄市前鎮區瑞興街80號,高雄市,前鎮區,ChIJJzq4uEgFbjQRxMUodqdOcbU
莒光動物醫院,高雄市楠梓區加昌路849、851號,高雄市,楠梓區,ChIJH1xow3kPbjQRfHJPpiSeND0
荷蘭醫生動物醫院,高雄市三民區澄清路401號,高雄市,三民區,ChIJI2HZXy0bbjQRSENJl1RLHq0
許獸醫動物診所,臺南市官田區二鎮里8鄰75號之62,臺南市,官田區,ChIJdxjaFPCHbjQRVBycB54Ysh4
設想動物醫院,桃園市蘆竹區南順七街22號,桃園市,蘆竹區,ChIJrQW0o9wfaDQRsVvxcuc_110
逗號動物醫院,桃園市桃園區中山路517號,桃園市,桃園區,ChIJUTF2WmIfaDQRE7qm45QWgT8
逗號動物醫院南崁分院,桃園市蘆竹區南華一街39號,桃園市,蘆竹區,ChIJ7ylbOmkfaDQRVmguDO4V8Mk
透視動物醫院,臺中市西區向上南路一段237號,臺中市,西區,ChIJ8RzfYgA9aTQRMcjW33CcUK4
野森動物醫院,桃園市中壢區民權路332號,桃園市,中壢區,ChIJ9y77H8UjaDQRAKW1ihQpu5g
陪伴動物醫院,臺中市南區建成路1793號,臺中市,南區,ChIJT-rKyCY9aTQRvBK0vDpBVAQ
陳獸醫院,桃園市桃園區復興路228號,桃園市,桃園區,ChIJy7qLu-IeaDQR8xjnLx9UKvA
頂點動物醫院,新北市永和區仁愛路87號,新北市,永和區,ChIJhx2SMN6pQjQRIzpnpDwSnfg
麻吉動物醫院,桃園市桃園區中山北路4號,桃園市,桃園區,ChIJ3RGOTgMfaDQR3Bcrv7a3tQ0
麻吉動物醫院桃園分院,桃園市桃園區中山北路195號,桃園市,桃園區,ChIJ3RGOTgMfaDQR3Bcrv7a3tQ0
麻豆動物醫院,台南市麻豆區興國路16-10號,台南市,麻豆區,ChIJzR9dBYF-bjQRFQi9RZ1yVF0
傑美動物醫院,高雄市仁武區仁和里仁忠路192號,高雄市,仁武區,ChIJqecr_a8abjQRphiXt7SkaX4
傑翔動物醫院,臺北市大同區民權西路270之2號,臺北市,大同區,ChIJmz8eqTipQjQRDG3yYcG8c1o
凱特森貓專科醫院,臺中市南屯區大進街526號,臺中市,南屯區,ChIJI5AxMVQ9aTQRXeW8Xs392nw
凱特貓專科診所,桃園市八德區和平路643之2號,桃園市,八德區,ChIJLTniNgkZaDQRnVz9d_RBz2g
凱揚動物醫院,臺北市中山區八德路2段331號1、2樓,臺北市,中山區,ChIJSQDLjtirQjQRXfmER8-JadY
勝立動物醫院,台南市中西區公園路84巷4號,台南市,中西區,ChIJRyNQcO52bjQRIHGa5tMDVE8
勝利動物醫院,臺北市內湖區康樂街116之2號1樓,臺北市,內湖區,ChIJyWuLz7CsQjQR3IWXg-_cSRU
勝杰動物醫院,高雄市苓雅區成功一路163號,高雄市,苓雅區,ChIJAZVdGoADbjQRVdcQNFLrH3U
勝泰動物醫院,高雄市左營區自由二路182號,高雄市,左營區,ChIJi_4L7KEFbjQReQr0_VCR7PU
博仁動物醫院,高雄市岡山區前鋒里公園西路三段92號,高雄市,岡山區,ChIJT5SSSiYMbjQR0nIJsbMDDSE
博安動物醫院,高雄市左營區左營大路732號,高雄市,左營區,ChIJWyjEHZkFbjQRXQPhk3hvigo
博愛動物醫院,台南市麻豆區中山路153-2號,台南市,麻豆區,ChIJg_zcIId-bjQRIJtKRDUlf7c
博愛動物醫院,臺北市中正區杭州南路2段92號1樓,臺北市,中正區,ChIJ0XUKu5upQjQRu6GXEFO3fM0
博新動物醫院,高雄市鳳山區瑞順街147號一樓,高雄市,鳳山區,ChIJ80lkChYbbjQRmkJ-WqKTxJ0
博聯動物醫院,高雄市鼓山區中華一路350號,高雄市,鼓山區,ChIJIbM_WqsFbjQRKhat9f62DJs
喜來樂動物醫院,高雄市新興區民族二路67號,高雄市,新興區,ChIJ09KdWlgFbjQRqDB_RB368ik
喜樂地動物醫院,桃園市蘆竹區中興路98號1樓,桃園市,蘆竹區,ChIJ6fNd94YfaDQREBX_AHtmphs
喬丹動物醫院,臺中市東區南京路2-1號,臺中市,東區,ChIJq_G6OeY9aTQRsVo7kjtqs2g
喬巴動物醫院,臺南市東區中華東路3段154號,臺南市,東區,ChIJAQHdDJ92bjQRTrGiRXTBCRw
喬伊動物醫院,新北市新店區中興里檳榔路9號,新北市,新店區,ChIJw2DRoosBaDQRvY6ay9ANQLQ
喬治亞動物醫院,高雄市苓雅區四維二路96之3號,高雄市,苓雅區,ChIJ-VS_IpgEbjQRCVwx3f2e7tk
富山動物醫院,臺中市北屯區中清路二段11號,臺中市,北屯區,ChIJ9Zc6JdIXaTQRZjk9kfQA9I4
富台動物醫院,臺中市東區練武路244號,臺中市,東區,ChIJE8lVDkE9aTQRAYvcvnOIMZw
富安家畜醫院,新北市板橋區文化路2段335號,新北市,板橋區,ChIJfziZE0GoQjQR7CYw6X7NOsg
富康動物醫院,臺北市大安區建國南路1段298號1樓,臺北市,大安區,ChIJ1d-QhtWrQjQRq47CPYB_LGU
富穎動物醫院,高雄市左營區政德路126號,高雄市,左營區,ChIJLW8RUgcFbjQRf8Qli-VsUsU
崴恩貓專科醫院,高雄市鳳山區埤北路205號,高雄市,鳳山區,ChIJZwhmbhAbbjQRH7_LvNXoeOE
復生動物醫院,臺北市中山區民生東路1段78號1樓,臺北市,中山區,ChIJ-c3ZPl2pQjQRkHI3FoLPRwo
復興動物醫院,高雄市苓雅區復興二路148號,高雄市,苓雅區,ChIJG4j1QZsEbjQRKRQbZfU3WmY
復興動物醫院,臺北市松山區八德路2段381號,臺北市,松山區,ChIJGaSOZ9yrQjQR-st8WQ-Df-k
惠犬動物醫院,台中市西區美村路一段631號,台中市,西區,ChIJU-3WQ6Y9aTQRlfIhFFNsBpE
惠生動物醫院,臺中市北屯區山西路二段219號,臺中市,北屯區,ChIJN-MoFtAXaTQRcxGmCp-m7rU
惠光動物醫院,高雄市苓雅區建國一路15之7號地下室、一樓、二樓,高雄市,苓雅區,ChIJIWY_grUEbjQRuhusqkGlE_g
惠安犬貓醫院,新北市新店區北新路二段九十四號,新北市,新店區,ChIJf_N6VvEBaDQRGKN-RQ45cZ0
惠明動物醫院,高雄市三民區嫩江街58號,高雄市,三民區,ChIJQzAs7_UEbjQRUpqRi9o0HpA
惠祐動物診所,臺南市歸仁區南保里民權十街33號,臺南市,歸仁區,ChIJQbkPemNxbjQRCEXrw5xI8NI
惠康動物醫院,高雄市鳳山區光遠路28號一樓、二樓,高雄市,鳳山區,ChIJBbb_s2obbjQRbzy1c97lcms
惠祥動物醫院,臺南市新營區新進路314-1號,臺南市,新營區,ChIJ8TTlOd-FbjQRluKTTEWGFFc
惠群動物醫院,臺南市北區文成路745號,臺南市,北區,ChIJz2p3YFp2bjQRtNj3TyrCzbM
惠馨動物醫院,台南市善化區民生路397號,台南市,善化區,ChIJQ4ZK9MIFbjQRqE85-rXQsvY
揚名動物醫院,臺中市神岡區神岡路45號,臺中市,神岡區,ChIJC7-j7isRaTQRrYncRCabx0M
敦品動物醫院,臺北市大安區瑞安街124號,臺北市,大安區,ChIJHxRYYyuqQjQRuASpWB1GjE8
普羅旺斯動物醫院,臺中市豐原區圓環南路235號,臺中市,豐原區,ChIJY7N-CakQaTQRuo3J2bf4_T0
普羅動物醫院,桃園市桃園區泰成路15號,桃園市,桃園區,ChIJ6RHMhBQfaDQRDLeyR2RPGhk
晴天動物醫院,台中市北屯區東山路一段216之14號,台中市,北屯區,ChIJ26xztjEZaTQR7zV5PObfMGI
景文動物醫院,臺北市文山區景文街29號1樓,臺北市,文山區,ChIJRVZgIgGqQjQR7adORV4riKc
景美動物醫院,臺北市文山區羅斯福路6段6號,臺北市,文山區,ChIJlXgm0wKqQjQRDcslH7RbNMc
景億動物醫院,高雄市梓官區赤崁南路136號,高雄市,梓官區,ChIJPVvgmsoIbjQR8-bpEVoaV3U
景興動物醫院,臺北市文山區景華街92號1樓,臺北市,文山區,ChIJ6Td9tQWqQjQRITRjRkkJcLA
智遇動物醫院,新北市汐止區明峰街39號1樓、B1,新北市,汐止區,ChIJOSyGK0pTXTQRPTLzO51bOJQ
森田動物醫院,臺南市安南區海佃路一段394號,臺南市,安南區,ChIJq-0r5Ih3bjQRSfE_KtkbL7I
森洧動物醫院,臺中市大里區中興路二段442-3號,臺中市,大里區,ChIJpScUPt08aTQRtuR_hAqvno8
森遠動物醫院,臺南市永康區東橋十街41號,臺南市,永康區,ChIJNZaW54d3bjQRB_5Q4LzmDnw
植仁動物醫院,臺中市南屯區三厝街180號,臺中市,南屯區,ChIJ-98ZC8M9aTQRGy_RQgklaOU
港明動物醫院,臺南市西港區慶安里新興街15巷76號,臺南市,西港區,ChIJ1ZD2pfx4bjQRuNieB4NUhXU
游動物醫院,桃園市平鎮區新勢里14鄰中原路147號,桃園市,平鎮區,ChIJa2Sc8kwiaDQRUl5FKuUSRJg
湖內國泰動物醫院,高雄市湖內區中山路一段420巷2之1號,高雄市,湖內區,ChIJ664TZK50bjQRCLAP3bGY5gE
湖光動物醫院,高雄市仁武區京富路255號,高雄市,仁武區,ChIJDxTwMA0FbjQR8eBTo7zaNcA
湖光動物醫院,臺北市北投區大業路631號1樓,臺北市,北投區,ChIJ6ejGfDipQjQR_BcGd8IowGI
湖光動物醫院,桃園市蘆竹區桃園街178號,桃園市,蘆竹區,ChIJB4ug-XWgQjQRmClgdSRVKjw
湖光動物醫院,臺中市沙鹿區中山路600號,臺中市,沙鹿區,ChIJo4fAYosUaTQRt2XaxKXcyl4
猩猩狐狸動物醫院,新北市汐止區仁愛路319號,新北市,汐止區,ChIJMxIjPQ1TXTQRSY0sBoRYJjU
琪欣特殊寵物專科醫院,桃園市龜山區文三二街57號,桃園市,龜山區,ChIJ772ABkKnQjQRiS08CQN8CmY
琪欣動物醫院林口總院,新北市林口區仁愛路二段323號,新北市,林口區,ChIJ6-Q9IwCnQjQRDYk-m4C0UQQ
琪欣動物醫院龜山分院,桃園市龜山區文三一街65號,桃園市,龜山區,ChIJJVmaNDenQjQRn4kBHZ51Vvc
登華動物醫院,新北市新莊區龍安路256號2樓,新北市,新莊區,ChIJN4pDSPCnQjQREk_o8J2KuzE
登羣動物醫院,高雄市前鎮區瑞隆路228號,高雄市,前鎮區,ChIJMR220_oFbjQRgno4DmY1xVc
翔宇生醫動物醫院,臺中市南屯區東興路二段348號,臺中市,南屯區,ChIJoXaPJP89aTQRL5NBZlENmmw
華中動物醫院,臺北市萬華區萬大路227號,臺北市,萬華區,ChIJGbAjw7CpQjQREqicHIn0xOs
華生動物醫院,臺南市東區崇德路528號,臺南市,東區,ChIJdWLAOiB0bjQRjDIltdYQ_0I
華南動物醫院,高雄市苓雅區中華四路163號,高雄市,苓雅區,ChIJj4UDToAEbjQRJ4QyLQxucbw
華碩動物醫院,臺中市西區向上路一段126號,臺中市,西區,ChIJCclJcp89aTQR_xK945ndXa8
華遠動物醫院,臺北市中山區長春路336號1樓,臺北市,中山區,ChIJM9Fb6-CrQjQRxU_szIVwx1M
華興動物醫院,高雄市鳳山區五甲二路606號,高雄市,鳳山區,ChIJN8cxZ7MDbjQR8sAWUUL7Lsc
萊克動物醫院,臺中市北屯區松竹五路一段213號,臺中市,北屯區,ChIJlynOi7gXaTQR9NSn4h1Y4pc
萊特動物醫院,臺北市大安區辛亥路1段50號,臺北市,大安區,ChIJGRQ9U4epQjQRHwexCH7vv6g
萌萌家動物醫院,桃園市桃園區民安路100-2號,桃園市,桃園區,ChIJAS0Qkf8eaDQRSdB7m1wk4Wg
萌醫生動物醫院,臺北市中山區長安東路2段108號4樓之1,臺北市,中山區,ChIJA02LR1OpQjQRhdtjAvlIBTU
詠昕動物醫院,臺南市麻豆區興中路248-18號,臺南市,麻豆區,ChIJ_Q-IV1x9bjQRONmycVEsO5Q
詠欣動物醫院,臺北市信義區莊敬路428號1樓,臺北市,信義區,ChIJdT2aQbOrQjQRFN_PV0zoVJY
進安動物醫院,桃園市八德區介壽路2段274號,桃園市,八德區,ChIJj4k325cZaDQR2Ks4-h-JOmo
鈞懋動物醫院,臺中市北屯區軍福十六路283號,臺中市,北屯區,ChIJWd_2BhgYaTQRmfjkEAD8xfo
開心動物醫院,臺中市東區十甲東路622號,臺中市,東區,ChIJDZBC4DKmQjQRsW4Wwb5wx-o
陽光動物醫院,臺南市東區崇善路565號,臺南市,東區,ChIJod6HjEp1bjQRHWe1fN3LIWc
陽光動物醫院,臺中市西區中華路一段3-5號,臺中市,西區,ChIJf9HikzEzDxQRu_Fx1cyBrvg
隆安動物醫院,新北市板橋區忠孝路七十九號,新北市,板橋區,ChIJQ5U7G6QCaDQR2qyY9nc97hE
隆記動物醫院,臺北市松山區民生東路5段212巷1號1樓,臺北市,松山區,ChIJN2AQ-42rQjQRFolLjyWnO1o
雅旺動物醫院,新北市蘆洲區民族路522號,新北市,蘆洲區,ChIJDRpYosqoQjQRVihCz67uDZY
集英動物醫院,臺北市中山區長安東路1段61-1號,臺北市,中山區,ChIJA02LR1OpQjQRhdtjAvlIBTU
集賢愛生動物醫院,新北市三重區集賢路40號及42號1樓,新北市,三重區,ChIJ6V0r-h6vQjQRYxXBXVs9Dgc
順仁動物診所,高雄市三民區正忠路101號,高雄市,三民區,ChIJy80px9oEbjQRdty4YIJgpwM
順心動物醫院,高雄市三民區大順二路233、235號,高雄市,三民區,ChIJ-zca2T8FbjQRHz3A2orEY6M
順鴻動物醫院,桃園市中壢區中正路4段38號,桃園市,中壢區,ChIJ4R9iWP0jaDQR-ECz-JBMb5Q
黃家畜診所,台南市鹽水區武廟里三福路24巷2號,台南市,鹽水區,ChIJu5K4mBCEbjQRaKnM9oF2UAM
喵屋貓咪專科醫院,臺中市南屯區大墩17街125號及127號,臺中市,南屯區,ChIJHSzi6JM9aTQR7VVIk0G46ws
喵嶼貓專科醫院,桃園市大園區領航北路四段378號,桃園市,大園區,ChIJdTg2I9MhaDQRNQnX9brQlI0
傳騏動物醫院,臺中市南屯區永春東七路521號及517號二樓之2,臺中市,南屯區,ChIJtyF2VpI9aTQRl00I8H7SlbU
圓山動物醫院,臺北市大同區酒泉街129號,臺北市,大同區,ChIJRQXLLkipQjQRizBngqkr4as
圓慶家畜動物診所,臺南市永康區中華路212巷5號,臺南市,永康區,ChIJZ297LYZ3bjQRZiWGTr5s6eE
圓霖動物醫院,桃園市桃園區中正路836號,桃園市,桃園區,ChIJ0wQNny4faDQRZdL4s6baK3E
圓霖動物醫院八德分院,桃園市八德區介壽路二段1072號,桃園市,八德區,ChIJTVZ1fOUYaDQRsDh91G-3MOY
圓霖動物醫院中山分院,桃園市中壢區中山東路2段16號,桃園市,中壢區,ChIJ_2tTMQ0jaDQRE9m6Mh4x0bA
圓霖動物醫院南崁分院,桃園市蘆竹區南崁中正路362號,桃園市,蘆竹區,ChIJv7pmvkKhQjQROhbyKUTwayI
圓霖動物醫院新生分院,桃園市中壢區新生路286號,桃園市,中壢區,ChIJfZldWzEiaDQRA-3kHWeTfZY
圓點動物醫院,台南市佳里區佳南路102號,台南市,佳里區,ChIJVVVVVaB2bjQRNcFRULaFAgw
微笑高壓氧動物醫院,高雄市前金區七賢二路214號,高雄市,前金區,ChIJIdfZ8owEbjQRmw-eGpiK5VY
微曦動物醫院,臺中市烏日區建國路323號,臺中市,烏日區,ChIJAQDmBP49aTQRY-JOh7kMfKA
慈心動物醫院,臺南市永康區中華路318號,臺南市,永康區,ChIJjZyrOAB3bjQRVv8cuLEa0aI
慈安動物醫院,臺南市安南區安中路一段398號,臺南市,安南區,ChIJRSesIzx3bjQRVtE7LKUESL8
慈恩動物醫院,台南市歸仁區中山路132號,台南市,歸仁區,ChIJMR1RmWRxbjQRChUDzRPEf54
慈愛動物診所新莊分所,新北市新莊區中正路2號,新北市,新莊區,ChIJ7UQOWmupQjQRhrjn-j12sPM
慈愛動物診所蘆竹分所,桃園市蘆竹區大新一街29號1樓,桃園市,蘆竹區,ChIJ7UQOWmupQjQRhrjn-j12sPM
慈愛動物醫院,臺南市南區西門路一段473號,臺南市,南區,ChIJDTbilnh2bjQR57AnKDfQFxI
慈愛動物醫院九如分院,高雄市三民區九如一路458號,高雄市,三民區,ChIJm3R1rsUEbjQR8icL4c3_lNk
慈愛動物醫院大灣分院,臺南市永康區永大路二段25號,臺南市,永康區,ChIJ9zsdz75xbjQRDPhlY1qqpdo
慈愛動物醫院小北分院,臺南市北區西門路四段268號,臺南市,北區,ChIJ9aLevvl2bjQR9-bNXJhfEtw
慈愛動物醫院中港分院,臺中市大里區國光路二段539號,臺中市,大里區,ChIJn00V7I49aTQRPXcqPTom3Sg
慈愛動物醫院中華分院,臺南市永康區中華路591號,臺南市,永康區,ChIJgRfAiN52bjQRYgx3CzmMEHk
慈愛動物醫院仁德分院,臺南市仁德區文華路三段448號,臺南市,仁德區,ChIJjeWQqFVxbjQRbRJOx0eTnjs
慈愛動物醫院北屯分院,臺中市北屯區北屯路220號,臺中市,北屯區,ChIJJXahWwAXaTQRrSP2dJ_yODs
慈愛動物醫院金華分院,臺南市南區新興路509號之2,臺南市,南區,ChIJ1wO8gNl1bjQRBoPoU_rzNfs
慈愛動物醫院高雄分院,高雄市左營區文敬路123巷30號,高雄市,左營區,ChIJOzmnJKcFbjQRMtir5mlgYhI
慈愛動物醫院寧夏分院,臺北市大同區寧夏路1號,臺北市,大同區,ChIJ7UQOWmupQjQRhrjn-j12sPM
慈輝動物醫院,新北市樹林區鎮前街144號,新北市,樹林區,ChIJt6oTdD4daDQRnDM0UjPuHjI
慈濟動物醫院,臺中市大里區東榮路529號,臺中市,大里區,ChIJjYbN3-A8aTQRGw2rHcciRzA
感恩動物醫院,臺中市北區忠明路131號,臺中市,北區,ChIJnYTOKoI9aTQRYTixIFDOmAY
愛友家畜醫院,新北市新莊區中正路427-2號,新北市,新莊區,ChIJc9pu1_WnQjQRREM3TvoQLX4
愛心犬貓專科醫院,台南市佳里區中和街73號,台南市,佳里區,ChIJuzGVfEx_bjQREdf5gUfEWyc
愛心動物醫院,桃園市桃園區中寧街23號,桃園市,桃園區,ChIJocobXrofaDQR1xM2gh_3eck
愛心動物醫院,高雄市苓雅區建國一路74-3號,高雄市,苓雅區,ChIJo9D_zckEbjQRkSVca3pD6E8
愛心動物醫院,臺北市信義區光復南路561號及563號1樓,臺北市,信義區,ChIJK09JV8qrQjQRg8stNzOCqbQ
愛心堡動物醫院,新北市板橋區合宜一路69號,新北市,板橋區,ChIJEYCEI_IdaDQRSNevG1UWFcU
愛犬家動物醫院,臺南市安南區怡安路1段84號,臺南市,安南區,ChIJAZRm5gx3bjQRfvv1sHnR0ec
愛犬動物醫院,臺中市霧峰區中正路1112號,臺中市,霧峰區,ChIJgRanwVk7aTQRWlCehmQTekQ
愛叮寶犬貓專科醫院,新北市板橋區合宜一路175號,新北市,板橋區,ChIJP6ainjkdaDQR7dDp0RvCJMg
愛沛動物醫院,高雄市苓雅區復興二路17之2號,高雄市,苓雅區,ChIJ2SCz8ZwEbjQRztPlmc6hnIg
愛欣動物醫院,新北市樹林區樹德街5號1樓,新北市,樹林區,ChIJ3x5tHT4daDQRN-0KN5Gha1Y
愛屋動物醫院,臺北市中正區南昌路1段55號1、2樓,臺北市,中正區,ChIJkXDFf9qpQjQRev42oS6eN4g
愛思動物醫院,高雄市左營區民族一路965號一樓,高雄市,左營區,ChIJidN1Tl4FbjQRc133SemaL2c
愛普生動物醫院,臺中市大里區美群路46號,臺中市,大里區,ChIJl0kKtrM8aTQRlKKyqllEtnE
愛達司動物醫院,新北市新店區中興路一段261號,新北市,新店區,ChIJxW2gNPMBaDQRwGgJ5-Rdew4
愛貓園動物醫院,臺北市大安區基隆路2段124號,臺北市,大安區,ChIJ8QWxJ8urQjQRhK2S4XdL2jk
愛寶動物醫院,新北市五股區中興路4段49號1樓,新北市,五股區,ChIJ_xbl2humQjQR1jm2bHuGzzc
愛馨動物醫院,新北市瑞芳區一坑路32-3號1樓,新北市,瑞芳區,ChIJ3cHdlfdPXTQRbdUi2MORQJ8
新世紀獸醫院,桃園市桃園區萬壽路三段179號,桃園市,桃園區,ChIJSyu2MiAfaDQRKMlAIV3d8jU
新北動物醫院,新北市汐止區大同路二段456號1樓,新北市,汐止區,ChIJGzEXzGxTXTQR_YP_zkBnF7Y
新永吉動物醫院,台中市北屯區中清路二段840號,台中市,北屯區,ChIJ_6-ODDUWaTQRB3OqdLnwJeI
新生動物醫院,桃園市桃園區德豐街32號,桃園市,桃園區,ChIJFTJhouEeaDQRBia_yAfknEY
新生動物醫院,臺中市豐原區新生北路59號,臺中市,豐原區,ChIJE6RkzwMaaTQR36FvfmBlOek
新沛動物醫院,臺南市新市區中正路142號,臺南市,新市區,ChIJfZbOFYB7bjQRENseF3cE5O4
新亞動物醫院,臺北市松山區延壽街330巷3號1樓,臺北市,松山區,ChIJgTnV7-yrQjQRluh0D9e3CjI
新東南動物醫院,臺中市大里區中興路一段316-5號,臺中市,大里區,ChIJd7joGbw8aTQRl5qWte8N8kU
新東動物醫院,臺南市新營區民生路332號,臺南市,新營區,ChIJFzYGmGCFbjQRv63lb4st1Bw
新長庚動物醫院,台南市永康區忠孝路445號,台南市,永康區,ChIJZUWfOyl3bjQRzzu-uEjrzP8
新時代動物醫院,桃園市蘆竹區中正路337號,桃園市,蘆竹區,ChIJWQ_YAQChQjQRrwuxePsI1d8
新桃園動物診所,桃園市桃園區中山路1050號,桃園市,桃園區,ChIJWQQ9xQ8faDQR03hOQ2XJiqI
新泰動物醫院,新北市新莊區新泰路402號一樓,新北市,新莊區,ChIJHXYKIdinQjQRDU09G70yHnM
新國太動物診所,高雄市岡山區柳橋西路22之2號,高雄市,岡山區,ChIJ8WIexSkMbjQRH-RTMI5XZpo
新莊太僕動物醫院,新北市新莊區中正路853號,新北市,新莊區,ChIJ81e2fo2nQjQRawFt85elCis
新橋動物醫院,桃園市桃園區永安路434號,桃園市,桃園區,ChIJk9oOYAWpQjQRZSK_8UHuX4Y
新興動物醫院,桃園市平鎮區延平路1段65號,桃園市,平鎮區,ChIJJZD0YEwiaDQRBSjr4T4YoDs
暖心動物醫院,臺南市北區北成路28號,臺南市,北區,ChIJZe5ah1F3bjQRWQ5qeBMtNdg
楠梓德民動物醫院,高雄市楠梓區軍校路710之1號,高雄市,楠梓區,ChIJCRQpaasPbjQROUS438Efn98
極光動物醫院,臺北市大安區建國南路2段31號,臺北市,大安區,ChIJP-lctCqqQjQRRurf_8ZvP2A
楊動物醫院,臺北市士林區中山北路6段368號,臺北市,士林區,ChIJ1Q4JnYWuQjQRPtvr1zzK1ug
楊梅動物醫院,桃園市楊梅區中山路10號,桃園市,楊梅區,ChIJp4vpd0o7aDQRH3_mhBUYfYU
楊獸醫動物診所,台南市善化區東關里2鄰中山路392號,台南市,善化區,ChIJuXL7soB7bjQRw2TdQGy3YzQ
榆琁動物醫院,高雄市林園區和平路66巷6號,高雄市,林園區,ChIJkWUaM4EdbjQRcez58UY3_ks
溫莎動物醫院,臺北市士林區德行東路83號1樓,臺北市,士林區,ChIJtWn37pquQjQR6aJezPuTPLA
照群動物診所,桃園市中壢區興光路38號,桃園市,中壢區,ChIJ6z7JxQ8jaDQRFcWPXHiwEbs
煦光動物醫院,臺南市北區林森路三段197號,臺南市,北區,ChIJeUyg6vd3bjQRqte9f1TYINc
瑞和動物醫院,臺中市大里區中興路一段426號,臺中市,大里區,ChIJs8Ooy7s9aTQRFL6V0koZ4lw
瑞峰動物醫院,台南市新營區太北里5-14號,台南市,新營區,ChIJR98aT-iFbjQR4OIMdd6Zutw
瑞瑞動物醫院,臺中市西屯區臺灣大道四段828號1樓、2樓,臺中市,西屯區,ChIJK7OOVMoVaTQRhgE14NN9AJ0
萬祥犬專科醫院,高雄市新興區民生一路196號,高雄市,新興區,ChIJnahH048EbjQRPA40rpDYz30
萬達動物醫院,臺北市北投區義理街18號1樓,臺北市,北投區,ChIJBxyzuIyuQjQRq6YxvkaaopQ
義華動物醫院,高雄市三民區義華路342號,高雄市,三民區,ChIJy9OjVtAEbjQRmAa-s3Avv1E
群力動物醫院,臺中市大里區永隆一街261號,臺中市,大里區,ChIJfYATOfI8aTQRKSzM8xIYnMk
聖仁動物醫院,桃園市中壢區忠孝路285號1樓,桃園市,中壢區,ChIJtVISq_shaDQRWO9imPW3LzY
聖心犬貓醫院,臺中市北屯區崇德路一段582號,臺中市,北屯區,ChIJY_KCJtwXaTQRSi86_Qhfi0o
聖弘綜合動物醫院,高雄市三民區鼎中路753之37號,高雄市,三民區,ChIJweE9kj8FbjQRXXOV-W9s-KY
聖地牙哥動物醫院,臺北市大安區羅斯福路3段65號3樓之1,臺北市,大安區,ChIJYbZh14-pQjQRnBEiSx9m1Vg
聖安動物醫院,臺中市潭子區中山路一段17-5號,臺中市,潭子區,ChIJ-_9Pjo8XaTQRXO4rBmQSKt0
聖安動物醫院,新北市新莊區中港路256號,新北市,新莊區,ChIJEw87V3qoQjQR19WZZn9LONM
聖安動物醫院,臺南市柳營區柳營路1段518號,臺南市,柳營區,ChIJEw87V3qoQjQR19WZZn9LONM
聖佳動物醫院,高雄市鼓山區九如四路1119號,高雄市,鼓山區,ChIJE37b6EsEbjQRYFmlx2rDom8
聖欣動物醫院,臺中市豐原區同安街183號,臺中市,豐原區,ChIJ-SedXBoaaTQRpc5pjUs3TWs
聖恩動物醫院,桃園市龜山區萬壽路二段1141號,桃園市,龜山區,ChIJRdKO44oeaDQRKF_Q_tjEbOg
聖博獸醫院,新北市板橋區重慶路二九九號一樓,新北市,板橋區,ChIJ49OQcaMCaDQRLsn4i_BQalI
聖愛動物醫院,臺中市南區復興路一段405號(及地下室),臺中市,南區,ChIJm8wXbVA8aTQR2gdctnc4eQw
聖愛動物醫院,高雄市左營區中華一路3之1號,高雄市,左營區,ChIJ1Redzq8FbjQRGMh06n12sdM
聖愛動物醫院,新北市淡水區中正東路6號,新北市,淡水區,ChIJjSsr1wGvQjQRTqK6Gfnuxto
聖愛動物醫院大甲分院,臺中市大甲區五福街22號,臺中市,大甲區,ChIJ-Zy_RJoTaTQRd4vEzoUtF8A
聖愛動物醫院大里分院,臺中市大里區中興路二段471號,臺中市,大里區,ChIJgw7TGt48aTQR6lf_AIrNUrc
聖愛動物醫院仁化店,臺中市大里區仁化路770號,臺中市,大里區,ChIJy2soWso8aTQRw10Aj8h6l7M
聖愛動物醫院太平分院,臺中市太平區中興路118-2號,臺中市,太平區,ChIJr6IXWcwiaTQR0oO-Cd3hocU
聖馨動物醫院,高雄市苓雅區苓雅一路28號,高雄市,苓雅區,ChIJ__vtKwAFbjQRjnoFmIEO17M
葛瑞斯動物醫院,台南市北區大武街393號,台南市,北區,ChIJGUJP0OJ2bjQReW9puaOFlK0
葛瑞斯動物醫院—官田分院,臺南市官田區拔子林83-19號,臺南市,官田區,ChIJCXmnOy59bjQRslKglvzk9p8
葆生動物醫院,臺中市潭子區圓通南路268號,臺中市,潭子區,ChIJb75cz3sXaTQRIe3dEXi7tHA
裕源動物醫院,臺中市西區五權路2-199號,臺中市,西區,ChIJQQLL-gc9aTQRZS7KNvTJgBA
路加動物醫院,臺北市文山區興隆路2段187號1樓,臺北市,文山區,ChIJG5h-QhGqQjQRE3Gha7OJ48M
路竹動物醫院,高雄市路竹區中山路468號,高雄市,路竹區,ChIJK_l-FKIMbjQRm9stO3SOLH0
路米動物醫院,臺北市中山區建國北路2段89號1樓,臺北市,中山區,ChIJ-4EQmeGrQjQRXLlcJKPxhvY
達仁動物醫院,臺北市文山區木柵路2段133號1樓,臺北市,文山區,ChIJnUEAhnSqQjQRK3fhj6rbFsg
達特馬動物醫院,桃園市桃園區國際路一段1168號,桃園市,桃園區,ChIJdz2sf02nQjQR2qWp4R5feFs
達特動物醫院,高雄市鳳山區過勇路270號,高雄市,鳳山區,ChIJ6fX5DbMdbjQRBj2my04Y6rs
達特蘇動物醫院,新北市林口區南勢街322號,新北市,林口區,ChIJdz2sf02nQjQR2qWp4R5feFs
達達動物醫院,新北市淡水區中山北路1段207巷37弄7號1樓,新北市,淡水區,ChIJnU3NrVWlQjQRsM7ARvv2Lqc
達爾文動物醫院,臺中市西區博館路157號,臺中市,西區,ChIJF1CmFAA9aTQRrMsYOFu1aFQ
遇見貓專科醫院,高雄市鼓山區中華一路317巷15號一樓、二樓,高雄市,鼓山區,ChIJ9dlmNi4FbjQRh5gzFj0UIsc
頑皮動物醫院,新北市三重區三賢街197號,新北市,三重區,ChIJSaA8JNWoQjQREOGxFHYMRCk
鼎山動物醫院,高雄市三民區鼎山街466號,高雄市,三民區,ChIJ-aHHG-AEbjQRmy7TZ2uKJNg
嘉仁動物醫院,高雄市鼓山區九如四路1658號,高雄市,鼓山區,ChIJV3V037IFbjQRJ4lcd9Up2ow
嘉貝動物醫院,新北市新莊區昌和街65號,新北市,新莊區,ChIJMc0Hq-GpQjQRsMASlzQZHZw
嘉恩動物醫院,臺中市霧峰區林森路768-1號,臺中市,霧峰區,ChIJgcq5Cls7aTQREEPLEgDP_Ls
嘉基動物診所,臺中市太平區宜昌路217號,臺中市,太平區,ChIJiXyYrEw9aTQRAlI8DEplEbQ
嘉棋動物醫院,新北市板橋區四川路二段115號,新北市,板橋區,ChIJxdywq7YCaDQRViB-fh__h6w
嘉翔動物醫院,高雄市左營區自由四路35號,高雄市,左營區,ChIJ6_p0imwFbjQR3a-SRVXrKzQ
嘉慶動物醫院,臺北市松山區八德路4段214-1號1樓,臺北市,松山區,ChIJOXpN6JWrQjQRFwQGGe2W3cw
嘉興動物醫院,新北市三重區忠孝路1段24號,新北市,三重區,ChIJ57MZZCepQjQROLKDEdVDhfo
嘉興獸醫院,桃園市楊梅區中山北路二段382號,桃園市,楊梅區,ChIJCd7LMlcjaDQROGKHDrCuxLo
嘉寵動物醫院,臺北市南港區忠孝東路5段982號1樓,臺北市,南港區,ChIJOXpN6JWrQjQRFwQGGe2W3cw
嘉獸家畜醫院,台南市中西區府前路一段200號,台南市,中西區,ChIJR8hAw4d2bjQRX2MtiPP5O_U
榮興獸醫院,桃園市新屋區中華路177號,桃園市,新屋區,ChIJowSofqQlaDQRGBUWW9C58ZE
漂亮寶貝動物醫院,臺中市清水區中山路127-3號,臺中市,清水區,ChIJBSucFHsVaTQRDg39cJV86oI
瑪利亞動物醫院,台南市白河區中山路1之16號,台南市,白河區,ChIJoQQUkhWObjQRUhuUVHdnVsc
瑪雅動物醫院,新北市永和區中和路333號1樓,新北市,永和區,ChIJQ8RqeDupQjQRY4zmPw0saTw
碩恩動物醫院,臺中市南區德祥街72號,臺中市,南區,ChIJ8SgTE048aTQR6N5LVCTRBHA
碩聯動物醫院,臺北市大安區復興南路2段342-1號1樓,臺北市,大安區,ChIJYemPgCiqQjQRhjPM-X2vsjY
福林動物醫院,新北市中和區中安街230號1、2樓,新北市,中和區,ChIJ-2Kwrd-pQjQRu2sDeVqfQwM
福泰動物醫院,新北市泰山區福興街26號1樓,新北市,泰山區,ChIJ_4Xnl1GnQjQRjyVEkDd83i0
福壽家畜醫院,高雄市岡山區正言街68號,高雄市,岡山區,ChIJlRxJ_ScMbjQRhBYXSzCYm_8
福樂動物醫院,臺中市西屯區大隆路149號,臺中市,西屯區,ChIJbYt3lpE9aTQRAfp9d7yO6-M
福懋動物醫院,臺中市豐原區圓環西路69號,臺中市,豐原區,ChIJAQAAAAkaaTQR09HLztGrzbc
種籽動物醫院,新北市板橋區篤行路2段76號,新北市,板橋區,ChIJiZKdcqsdaDQRMPaJsN4B36c
窩心動物醫院,高雄市左營區忠言路117號,高雄市,左營區,ChIJgR3HEF4FbjQR38LDAH4uqMQ
窩窩兔動物醫院,高雄市苓雅區建民路67號,高雄市,苓雅區,ChIJrebCEMEFbjQRi9Lwizgmgcg
綠光動物醫院,桃園市桃園區民族路250號,桃園市,桃園區,ChIJNy0JGAAfaDQRSnrm533e05I
綠洲動物醫院,臺北市中正區北平東路16號1樓,臺北市,中正區,ChIJs1REAPypQjQReHEfLxF6UIM
綠崧動物醫院,桃園市中壢區環中東路2段112號,桃園市,中壢區,ChIJcxwGlkEiaDQRe32NBNaR2V4
綠野動物醫院,新北市中和區景平路335-1號,新北市,中和區,ChIJU2Uh8-IDaDQRHFnichEtKC4
維尼動物醫院,桃園市八德區介壽路2段1091號,桃園市,八德區,ChIJZxbHCAEZaDQReFKwhtmhsNQ
維托邦動物醫院,臺北市大安區信義路4段199巷28號1樓,臺北市,大安區,ChIJZSzsv9irQjQRHiFBOHy2bIE
維恩動物醫院,臺北市南港區東新街132號1樓,臺北市,南港區,ChIJ9dJU93OrQjQRk_s0v5kr_zE
維特動物醫院,桃園市大園區大成路二段51號,桃園市,大園區,ChIJX6H4F6AhaDQReKPQ3ayJ3eM
維納斯動物醫院,新北市板橋區忠孝路203號,新北市,板橋區,ChIJJYByE-YDaDQRRBVRCyEt2CA
維康動物診所,新北市淡水區新春街85巷8號,新北市,淡水區,ChIJB5JVdlWlQjQRQx1OEBdp56E
維康動物醫院,高雄市左營區新庄仔路233-4號,高雄市,左營區,ChIJ99updQ8FbjQRuCTa1jSpyoY
維康動物醫院,臺北市內湖區成功路3段150號1樓,臺北市,內湖區,ChIJIcr5P4ysQjQReXQZdLLRoi4
維樂動物醫院,桃園市觀音區新生路1521號,桃園市,觀音區,ChIJpcMgo8snaDQRL5c4S3nIUpw
臺大健弘動物醫院,新北市林口區民族路6號,新北市,林口區,ChIJkf3v3demQjQRwoNpwmfiyC0
艋舺動物醫院,臺北市萬華區萬大路365號1樓,臺北市,萬華區,ChIJhaX5_7apQjQRw4NQEEQ9nc0
蓋亞野生動物專科醫院,高雄市三民區建工路611號,高雄市,三民區,ChIJpwyhbOcEbjQRKaswo5CHlyE
蓋荳動物醫院,臺中市西屯區福雅路128巷20號,臺中市,西屯區,ChIJmaWvPogXaTQR54PkEgL-2FM
豪斯動物醫院,臺南市中西區成功路387號,臺南市,中西區,ChIJAfY9HlB2bjQRy-x4LS1vwYs
遠見動物醫院,臺北市大安區和平東路2段68號1樓,臺北市,大安區,ChIJBzkauymqQjQRT_qvKBQ9tkA
遠東動物醫院,臺南市北區臨安路二段179號,臺南市,北區,ChIJM-6o5112bjQRPk3DFuTZjAc
酷比動物醫院,臺南市南區夏林路210號,臺南市,南區,ChIJE5rpb3N1bjQRpTxzUk7czss
銀星動物醫院,高雄市前金區成功一路319號,高雄市,前金區,ChIJC2jhLnwEbjQRICSnZp7fB1g
銀晨寵物醫院,新北市永和區永平路286號,新北市,永和區,ChIJJReQ4cepQjQR-7GBo1-FYbM
銘德動物醫院,新北市新莊區後港一路14號,新北市,新莊區,ChIJgzObwOinQjQRCwgWkiSeIuI
領航動物醫院,桃園市中壢區領航南路一段168號,桃園市,中壢區,ChIJuxv_5QMhaDQRl_MJN8O9bXk
鳳屏動物醫院,高雄市大寮區中莊里鳳屏一路658號,高雄市,大寮區,ChIJ64FzzqwbbjQRzYaRGGObXyU
劉動物醫院,臺北市士林區士東路298號1樓,臺北市,士林區,ChIJm1Hs9YKuQjQRi6QK3WiKvfE
劉獸醫院,台南市仁德區後壁村中正路二段215號,台南市,仁德區,ChIJyTqGWPVzbjQRl-PfeUvpcZ4
劍橋動物醫院,臺中市南屯區大墩十三街6號及8號,臺中市,南屯區,ChIJ-6412JY9aTQRLi4a6FbSCA0
劍橋動物醫院,臺北市北投區石牌路2段332-1號,臺北市,北投區,ChIJoyfHw2KuQjQRnmx-ZWsWgno
劍橋動物醫院北屯分院,臺中市北區文心路四段190-2號,臺中市,北區,ChIJqY9W5ecXaTQRJeNsf_EzKus
廣喬動物醫院,桃園市桃園區大興西路二段261號,桃園市,桃園區,ChIJ5yZo76UfaDQRy-1jCwoxkmk
廣慈動物醫院,臺北市中山區錦州街371號1樓,臺北市,中山區,ChIJN7jKseOrQjQRRyf1Yi7IPyw
廣福動物醫院,新北市三重區自強路1段197號1樓,新北市,三重區,ChIJS_jhmCCpQjQRTmviZU27y4U
德心動物醫院,臺北市中山區八德路2段121號,臺北市,中山區,ChIJ1xTraeCrQjQRJCNzVCP5Zsg
德艾動物醫院,新北市淡水區民生路八號,新北市,淡水區,ChIJE99SsJ2vQjQRXyt-98BEtSM
德克動物醫院,高雄市新興區復興一路107之6號,高雄市,新興區,ChIJ3URtmOIFbjQRBAwbHGWPMPM
德欣動物醫院,新北市三重區信義街4號,新北市,三重區,ChIJ27InWPWpQjQRm5x-HuJ-olM
德洲喵樂動物醫院,高雄市苓雅區金門街84號,高雄市,苓雅區,ChIJKUDAVpAEbjQRL70xoFlWdjM
德愛動物醫院,臺中市北屯區昌平路一段95-9號,臺中市,北屯區,ChIJCwpKDegXaTQRzAJaahA04aw
德興動物醫院,新北市蘆洲區長安街62號1樓,新北市,蘆洲區,ChIJLa5NhrmoQjQREhiRyFq_M3s
慶生動物醫院,新北市永和區得和路261號,新北市,永和區,ChIJVVVVVeSpQjQRIVsfFQ67Mmk
慧安動物醫院,臺中市北屯區松竹五路二段392號,臺中市,北屯區,ChIJN6wSzXUZaTQR4n0sMIu76gQ
慕光動物醫院,新北市淡水區中山北路1段174號,新北市,淡水區,ChIJYymd6DalQjQRbAINAGY0Jaw
慕光動物醫院,臺南市南區西門路一段569號,臺南市,南區,ChIJXXQMvS53bjQRAWhQ3_hjXFU
摩夫摩夫動物醫院,臺南市安平區府平路243號,臺南市,安平區,ChIJvQTlewx1bjQRyvlwY_fgzQc
摩西動物醫院,台南市新化區大新路15號,台南市,新化區,ChIJI51iD31wbjQRKjfRQyfW4J0
摩摩寵物醫院,臺中市西區日進街79號,臺中市,西區,ChIJ6YczqEc9aTQR9Rfyu7yCQ2w
樂仁動物醫院,台南市新營區民治路6之43號,台南市,新營區,ChIJR98aT-iFbjQR4OIMdd6Zutw
樂毛動物醫院,新北市板橋區忠孝路169號,新北市,板橋區,ChIJX1jziHMDaDQRSJyFXsvEdm8
樂田動物醫院,臺北市大安區建國南路1段161號1樓,臺北市,大安區,ChIJl5b_h1-rQjQRnzzI3I3T7VI
樂田動物醫院,新北市三重區忠孝路2段102號1F、2F,新北市,三重區,ChIJ-XKmst2oQjQR_sXN-i4hRr0
樂米動物醫院,桃園市桃園區中正五街206號,桃園市,桃園區,ChIJXyP6tasfaDQRjTPUe-N5Y6c
樂沛動物醫院,臺北市內湖區成功路4段368號1樓2樓,臺北市,內湖區,ChIJc-v6j-usQjQR0TLkD_GfZMU
樂咖動物醫院,臺南市東區崇善路233-5號,臺南市,東區,ChIJfQIpHJ92bjQRYHZOZY5jVJc
樂活動物醫院,新北市永和區竹林路66巷21號,新北市,永和區,ChIJaaMtv-upQjQRQU9hUnmWcFw
樂活動物醫院,高雄市苓雅區福德三路157號,高雄市,苓雅區,ChIJA41JGpYEbjQRRRGTWLSfulY
樂晨伴侶動物醫院,臺中市北屯區文心路四段971號,臺中市,北屯區,ChIJuR3rd8IXaTQRw5Vp3RszZUk
樂絨動物醫院,臺南市永康區忠義街81巷53號2樓,臺南市,永康區,ChIJfQIpHJ92bjQRYHZOZY5jVJc
樂福動物醫院,桃園市蘆竹區中山路12號,桃園市,蘆竹區,ChIJW-eQmXmhQjQRCqz8X3q32lA
樂樂動物醫院,臺中市北區中清路一段418號,臺中市,北區,ChIJxVVlFzc9aTQRXQuzNBgwmJ8
樂樂動物醫院,高雄市鳳山區過勇路198號,高雄市,鳳山區,ChIJs2jS6LwcbjQR9csowPgRWiI
樂膚莉動物醫院,臺北市大安區仁愛路3段82號,臺北市,大安區,ChIJd1YAyhirQjQRvdESKfHT9Uc
樂蹦動物醫院,高雄市苓雅區中華四路26、26之1號,高雄市,苓雅區,ChIJIRm9NJQDbjQR1Ta3sCL06KA
樂醫動物醫院,桃園市龜山區文青二路73號,桃園市,龜山區,ChIJIfWkqx2nQjQRGRYDsoOGf20
樂寶動物醫院,高雄市新興區復興二路272號,高雄市,新興區,ChIJH4d5yF0FbjQRuvKdx6ksqTA
歐米咖動物醫院,臺中市南區建國南路一段246號,臺中市,南區,ChIJKaxRv8g9aTQRgosOaNJwTrc
歐動物醫院,高雄市內門區中正路89巷5號,高雄市,內門區,ChIJMasZlZsgaDQRtzebi7MOl_w
歐逗動物醫院,臺南市新化區護國里中山路158號,臺南市,新化區,ChIJq3eFRlh6bjQRguXi7NJf2P4
歐陽動物醫院,臺中市南屯區惠中路三段68號,臺中市,南屯區,ChIJxS6s6sI9aTQRKBUYIlDE9Jg
歐歐妮動物醫院,臺北市中山區北安路627號,臺北市,中山區,ChIJTxS8FPmtQjQRfUohdroATIs
澄心動物醫院,臺中市太平區太平路642號,臺中市,太平區,ChIJdQAki8c9aTQROmwhzNX3wwc
澄毅動物醫院,臺北市大安區安和路2段171巷13號1樓,臺北市,大安區,ChIJr3GD6DKqQjQR6Wr9KN8IVtw
澄諾動物醫院,臺北市松山區富錦街461號,臺北市,松山區,ChIJl6XBBI2rQjQRNOLUb5VuXYE
潭子家畜醫院,台中市潭子區中山路二段305號,台中市,潭子區,ChIJ33RsDwAXaTQRAdmFAdNr2M0
潮慶動物醫院,臺中市北區漢口路三段171號,臺中市,北區,ChIJ7yCIxNUXaTQRPFh6vORr_u4
締爾動物醫院,臺北市文山區樟新街11之1號、11之2號,臺北市,文山區,ChIJOZCdLOEBaDQRmHqKsAF399M
鄭勝雄家畜診所,台南市後壁區竹新村38-4號,台南市,後壁區,ChIJ0faRCaqFbjQRfotmprsKs3Y
鄭獸醫院,臺中市西屯區中工三路66號,臺中市,西屯區,ChIJAzA7M_4VaTQRHVGt918vYE0
凝視犬貓專科醫院,臺中市西屯區東興路三段305號,臺中市,西屯區,ChIJ05Bq9EQ9aTQRY8YLM_fCIbw
橙芯動物醫院,新北市板橋區貴興路100號1樓、B1,新北市,板橋區,ChIJpy6Xw8UDaDQRooYpwfCLuCw
橡果動物醫院,臺北市信義區林口街228號1樓,臺北市,信義區,ChIJ_xWAK2irQjQRHdDcYNKGXis
澤禾動物醫院,臺北市松山區健康路288號,臺北市,松山區,ChIJT-GinZOrQjQRPmZ7UpOcou8
磨鼻子動物醫院,桃園市中壢區延平路18、20號,桃園市,中壢區,ChIJQbMhOVojaDQRKcAZN6cbx8Y
翰林獸醫院,新北市三重區三民街130號,新北市,三重區,ChIJGQgQCeeoQjQR09uA1MnYE4A
臻愛一生動物醫院,高雄市左營區華夏路1062號,高雄市,左營區,ChIJi_PwVi8FbjQRfeRVrRW2OhQ
興沛動物醫院,臺北市內湖區內湖路1段91巷32號,臺北市,內湖區,ChIJkVWGfGusQjQRFGPChZLx8v8
興旺動物醫院,臺中市南屯區五權西路二段1146號,臺中市,南屯區,ChIJSXHwV3Q9aTQRKaj3CYTI7vk
興昌動物醫院,高雄市苓雅區四維二路46之1號,高雄市,苓雅區,ChIJrQYyGL0EbjQRBQ8dFZbWx94
興泰動物醫院,臺北市松山區延吉街57號1樓,臺北市,松山區,ChIJU_UVpJKrQjQR1hFtwsRnVzk
興德動物醫院,高雄市三民區三民街118號,高雄市,三民區,ChIJURy6UQAFbjQRyunL7M8D1Zk
興緣動物醫院,臺中市西區五廊街63號,臺中市,西區,ChIJAwdztgs9aTQRVvPHRguqs74
諮群動物醫院,台南市柳營區旭山村山仔腳47-10號,台南市,柳營區,ChIJrV5gEJZ2bjQRYcTUXSF8k_c
諾比諾比動物醫院,台南市永康區大橋一街130號,台南市,永康區,ChIJ5S8IuMl3bjQRtaCVWyS6INo
諾亞動物醫院,桃園市中壢區中山東路一段35號,桃園市,中壢區,ChIJl1H1EEgiaDQRIp54HEDIE-U
諾亞動物醫院,臺北市中山區吉林路166號,臺北市,中山區,ChIJu4JF3OXQDRQRB_1OsKcwTe4
諾德動物醫院,臺中市西屯區青海路2段207-2號1F,臺中市,西屯區,ChIJt34KmYo9aTQRX4R-cEMvoZU
貓村貓專科醫院,臺中市北屯區山西路三段228號,臺中市,北屯區,ChIJrb6cKekXaTQRQuFm5srtdyI
貓瘋非營利慈善貓專科醫院,臺北市松山區八德路4段216號,臺北市,松山區,ChIJLZ4e_PMBaDQRWovn9Z2GwTw
貓醫生的貓診所,臺北市大安區忠孝東路3段194號2樓之1,臺北市,大安區,ChIJX-DroterQjQRVjrpPuvl1Ec
錫安動物醫院,新北市淡水區新市一路3段180號,新北市,淡水區,ChIJj9H73-qpQjQRWVlnhc1lSMg
霍普獸醫病理專科醫院,新北市新莊區中信街176號20樓之6,新北市,新莊區,ChIJ6_ebluOpQjQRto1u-THkjeM
默墨犬貓專科醫院,臺北市內湖區成功路3段83-1號1樓,臺北市,內湖區,ChIJzwSWAxE3aDQRBK1ry__fkEw
默默動物醫院,臺中市北區進化路343號,臺中市,北區,ChIJwSUADVw9aTQRxZ_XsGdufaE
龍江獸醫院,臺北市中山區龍江路21巷1號1樓,臺北市,中山區,ChIJYYrJMtmrQjQRvcp4Yk4QfKQ
龍恩動物醫院,臺中市南屯區田心里大墩六街287號1樓,臺中市,南屯區,ChIJvY1QHrk9aTQRFjbXIa0xiso
龜毛動物醫院,臺中市南區南平路3、3-1號,臺中市,南區,ChIJe49yk6w9aTQReAwsD4Mtf5c
曙光動物醫院,新北市板橋區中山路一段309號1樓,新北市,板橋區,ChIJuYLVHSOoQjQR9ZzhGrf5IKM
檀儒動物醫院,高雄市三民區九如一路385號,高雄市,三民區,ChIJ56XdiMUEbjQRtX0C-whTMwY
濟生動物醫院,台中市北屯區北平路3段75-12號,台中市,北屯區,ChIJQUILCNsXaTQRMc2oRJD8FVU
濰邇動物醫院,新北市三峽區長泰街94號,新北市,三峽區,ChIJsU-Mc6EbaDQRkkAt3aFypgs
環亞動物醫院,台中市北區五權路580號,台中市,北區,ChIJNeuDLWY9aTQRmGG9IWP_B_g
環東動物醫院,桃園市中壢區榮民路167號,桃園市,中壢區,ChIJv2mJNAEiaDQRvSaCQK-XUk4
聯心動物醫院,台南市永康區中華路714號,台南市,永康區,ChIJXYXe6N92bjQROEm19tzSr5Q
聯合家畜醫院,臺北市北投區裕民一路40巷29號1樓,臺北市,北投區,ChIJkW_EQoyuQjQR73RoIfRgsxk
聯合動物醫院,高雄市三民區覺民路74號,高雄市,三民區,ChIJW8JwXM0EbjQRQY_L1-0MCUY
聯合動物醫院,臺北市萬華區寶興街136號1樓,臺北市,萬華區,ChIJmX47J82pQjQRFgUZ66KsQtI
聯強動物醫院,高雄市鳳山區南福街200號,高雄市,鳳山區,ChIJ6TAjnlMbbjQRUJ2sI05TRz0
聯眾動物醫院,桃園市大溪區文化路79號,桃園市,大溪區,ChIJDfx_jSYYaDQR7Zxu-wZAmU8
聯盟岡燕動物醫院,高雄市岡山區岡燕路608之1號,高雄市,岡山區,ChIJA7d3_6UNbjQRinLmx70dq-A
聯盟林口文化動物醫院,新北市林口區文化二路2段68號2樓,新北市,林口區,ChIJEX755WanQjQReIwvdoQeRhA
聯盟建國動物醫院,高雄市苓雅區建國一路193、195號,高雄市,苓雅區,ChIJHwDSY1AFbjQRNXN2OSI-S3o
聯盟動物醫院,高雄市仁武區鳳仁路231號2樓,高雄市,仁武區,ChIJtfz0Q30RbjQR6TJsOtsKbVA
聯盟旗楠動物醫院,高雄市楠梓區旗楠路106號,高雄市,楠梓區,ChIJmYTqZcAPbjQR8DrtA2Ztd-Q
聯盟鳳山保華動物醫院,高雄市鳳山區保華一路252號,高雄市,鳳山區,ChIJ2w9mem8dbjQRLVYjb2JUDEo
聯盟鳳屏動物醫院,高雄市大寮區鳳屏一路35號,高雄市,大寮區,ChIJ-SsqaNYbbjQRqeEGCTp58lc
聯盟龜山萬壽動物醫院,桃園市龜山區萬壽路二段1125號,桃園市,龜山區,ChIJ0yp_SwAfaDQRu5_JRXk1o_g
臨安啄木鳥動物醫院,臺南市北區臨安路2段243號,臺南市,北區,ChIJc10Us013bjQR3uIt35SiqpU
蕾米動物醫院,臺南市北區和緯路三段222號,臺南市,北區,ChIJXUM4CjF3bjQR7PIrmeggZY0
謙谷若松動物醫院,臺中市南屯區大英街31號,臺中市,南屯區,ChIJb6n0TRI9aTQRdFo9TIcHFTU
謝老闆動物醫院,高雄市三民區哈爾濱街29號,高雄市,三民區,ChIJX-OHuPUEbjQRfTZkG0U6Yhk
邁德氏賽鴿專科醫院,新北市板橋區海山路11號1樓,新北市,板橋區,ChIJFeMmziGoQjQRn-hmwGtGHJI
韓特動物醫院,高雄市前金區自強三路211號,高雄市,前金區,ChIJKy-jCEoFbjQRLRmVWYmqRqI
鴻安動物醫院,臺中市北屯區東山路一段152-2號,臺中市,北屯區,ChIJY7iRPfcXaTQR7eOf5pdp74U
鴻達動物醫院,台中市西區忠義街38巷7弄3號,台中市,西區,ChIJ9VDe5IM9aTQRtgn1vJ8j0jw
點點動物醫院,高雄市楠梓區海專路245號,高雄市,楠梓區,ChIJ3aG87xIPbjQRfFQ5Bk5BSKk
歸仁動物醫院,台南市歸仁區中正路169巷9-1號,台南市,歸仁區,ChIJTeDi435xbjQRxjT82JzsFFI
藍天動物醫院,高雄市三民區博愛一路139號,高雄市,三民區,ChIJVVVVVfoEbjQRFcs7P7k6f8M
豐安獸醫院,桃園市中壢區中豐路16號,桃園市,中壢區,ChIJ_3dcnDMiaDQRzarC-r5C4aI
豐東動物醫院,臺中市豐原區豐東路88號,臺中市,豐原區,ChIJjyEq8xkaaTQRPNaluglY2wk
豐南動物醫院,臺中市豐原區育才街35號,臺中市,豐原區,ChIJfT6YyAYaaTQRKbo8W66Cb-s
豐茂動物醫院,臺北市北投區中正街75號1樓,臺北市,北投區,ChIJp0eqGSCvQjQReYm7bC3YfbQ
豐盛動物醫院,臺北市松山區光復北路46號,臺北市,松山區,ChIJBSpmFK6rQjQRHBR46gyOsXQ
豐陽動物醫院,臺中市西區林森路96號,臺中市,西區,ChIJWzR6RAk9aTQRH1Wwym1kxFI
豐源動物醫院,臺中市潭子區中山路一段172號,臺中市,潭子區,ChIJhZ7qeoUXaTQR70ZBLsqzjLQ
雙十動物醫院,新北市板橋區雙十路二段四號1樓及2樓,新北市,板橋區,ChIJV7tnkEapQjQR5JqCN0Ywt2g
雙和動物醫院,新北市永和區中正路617號,新北市,永和區,ChIJncJzQuCpQjQRBV_fZjf8JgM
魏大夫動物醫院,新北市新莊區中原東路57號1樓,新北市,新莊區,ChIJjy_mokmpQjQRumZvFwubCaw
寵恩動物診所,臺南市永康區民族路145巷87號,臺南市,永康區,ChIJV3pSkSNxbjQR6kLq2lB6V8A
寵博健康動物醫院,臺北市松山區三民路108號之21,臺北市,松山區,ChIJKc0xhtarQjQRqfSQ55IWonA
寵愛家畜醫院,新北市中和區連城路409號,新北市,中和區,ChIJ778jp4YCaDQRuixtlrsc9gQ
寵愛動物醫院,高雄市楠梓區後勁西路236號,高雄市,楠梓區,ChIJeYe9C74PbjQRezP-B3OI5RQ
寵樂動物醫院,臺北市大安區文昌街89號,臺北市,大安區,ChIJHxRbTsyrQjQRit0cshNFJqE
龐龐毛小孩動物醫院,臺北市大安區安和路2段68號、70號,臺北市,大安區,ChIJAdyJ3sWrQjQRg_Sk4nuEL1o
懷恩動物醫院,臺中市大雅區中清路四段303號,臺中市,大雅區,ChIJRwl_e5MWaTQR5LjBjayk-5I
懷恩動物醫院,新北市林口區文化北路一段307號1樓,新北市,林口區,ChIJAQAAACenQjQRtWwJrE0DDoI
瀚生動物醫院,臺北市大安區新生南路1段144-1號1樓,臺北市,大安區,ChIJadZePH-pQjQROJyXlaaZmEg
犢牝動物醫院,高雄市仁武區仁慈路109巷10號1樓,高雄市,仁武區,ChIJUaDmPAAFbjQRACEpo3lCFpQ
羅大宇動物醫院,臺中市西區存中街153號,臺中市,西區,ChIJtenXhaQ9aTQRS5PvamovCf4
關心動物醫院,台中市沙鹿區三民路97號,台中市,沙鹿區,ChIJSVMK2fkUaTQRlXycd8LSSgA
麒麟動物醫院,台南市新營區新進路一段51號,台南市,新營區,ChIJ8TTlOd-FbjQRluKTTEWGFFc
麗明動物醫院,新北市板橋區金門街306之1號,新北市,板橋區,ChIJV2XCO44daDQRIsMX3MfKzXU
麗園動物醫院,新北市林口區文化一路1段119號,新北市,林口區,ChIJe4dCDiCnQjQRyR0nhAEhdA8
麗園動物醫院八里分院,新北市八里區中山路二段421號1樓,新北市,八里區,ChIJt2DEiVSkQjQR3YCYrnxjg4A
麗園動物醫院大園分院,桃園市大園區中正東路5號,桃園市,大園區,ChIJzys4M5kgaDQRGM-OxeiMKSE
寶成動物醫院,台南市新營區三民路137-1號,台南市,新營區,ChIJ-UchZNeFbjQRutCE_hCqvRA
寶血動物醫院,臺北市萬華區中華路2段6號,臺北市,萬華區,ChIJ5yckttypQjQR_l8qn3y2Ce4
寶貝屋動物醫院,桃園市桃園區泰昌三街154號,桃園市,桃園區,ChIJicuboRcfaDQR6MC-H0C4HBo
寶貝動物醫院,臺南市鹽水區武廟路22號,臺南市,鹽水區,ChIJx5RTdQCFbjQRgRYQ6jq01QQ
寶貝動物醫院,高雄市鼓山區九如四路1175號,高雄市,鼓山區,ChIJT1ZEgEsEbjQRqUoShRVMfDQ
寶建動物醫院,桃園市桃園區成功路二段80號1樓,桃園市,桃園區,ChIJHZKtNuUeaDQRu5XkTitCqhM
寶慶動物醫院,桃園市桃園區寶慶路286號,桃園市,桃園區,ChIJn65Mo6QfaDQRF-IjKSevv1Q
寶寶新動物醫院,臺北市中正區南昌路1段39號,臺北市,中正區,ChIJMzOVSZepQjQRkdEJmdlOGOc
寶護動物醫院,新北市林口區中山路281號1樓,新北市,林口區,ChIJg8StZe-mQjQRwg4MhvRB_D0
耀宏家畜醫院,高雄市苓雅區建國一路139~6號,高雄市,苓雅區,ChIJc5Yyk8cEbjQRdaIAkvKk7Po
蘆洲動物醫院,新北市蘆洲區中山二路8號1樓,新北市,蘆洲區,ChIJ-SQ6E9epQjQR9NE3HLP1Z98
馨田動物醫院,新北市土城區金城路二段388號,新北市,土城區,ChIJT6GWusACaDQRmy1XhOcPc6I
馨晨動物醫院,新北市土城區清水路53號1樓,新北市,土城區,ChIJmZCakaQDaDQRDOM4pO0SKJE
櫻花動物醫院,臺中市西屯區文心路三段138-12號,臺中市,西屯區,ChIJGS5UcYg9aTQR532Pkdo8e3U
護生動物醫院,新北市新莊區中和街93號,新北市,新莊區,ChIJhVg8yXioQjQRxMSI7wL8TB4
躍犬動物醫院,臺南市安平區民權路四段523號,臺南市,安平區,ChIJYTtR9BB2bjQRqhosJ3_Y2_c
躍犬動物醫院,高雄市苓雅區中華四路210號,高雄市,苓雅區,ChIJxc3xsoEEbjQRd_i9c-vzfc8
躍生動物醫院,新北市板橋區民權路258之2號,新北市,板橋區,ChIJcdxGRBuoQjQR2xiAKiNVhEU
鶯歌奇緣動物醫院,新北市鶯歌區忠孝街8號,新北市,鶯歌區,ChIJLzK-FVUZaDQRSrx7lYJzhPM
鶯歌獸醫院,新北市鶯歌區文化路三八三號,新北市,鶯歌區,ChIJrab-8qoeaDQR9KYUa1SylSY
聽狗嶼動物診所,新北市永和區秀朗路2段120號,新北市,永和區,ChIJD6oTBempQjQRp0BIdK7Fm_g
麟安動物醫院,臺北市大安區和平東路3段324號,臺北市,大安區,ChIJO3YTqjeqQjQRZIWl16xga5E
鑫鑫動物醫院,臺中市中區臺灣大道一段573號,臺中市,中區,ChIJJ8bo5jQzDxQRw8UTwMTpDMw
楽莫動物醫院,臺中市太平區宜昌路550號,臺中市,太平區,ChIJP01ToLsjaTQR-mznFLaMoPM
獴獴加動物醫院,新北市三重區重新路四段20號,新北市,三重區,ChIJ525cVeKoQjQRDcqFrf4a0jE
辳擎獸醫院,臺中市烏日區溪南路一段152號,臺中市,烏日區,ChIJAQDmBP49aTQRY-JOh7kMfKA
